{
"type": "FeatureCollection",
"name": "ADA_subway_stations",
"crs": { "type": "name", "properties": { "name": "urn:ogc:def:crs:OGC:1.3:CRS84" } },
"features": [
{ "type": "Feature", "properties": { "Station ID": "2", "Complex ID": "2", "Stop Name": "Astoria Blvd", "Line": "Astoria", "ADA": "1", "Borough": "Q", "Division": "BMT" }, "geometry": { "type": "Point", "coordinates": [ -73.917843, 40.770258 ] } },
{ "type": "Feature", "properties": { "Station ID": "9", "Complex ID": "9", "Stop Name": "57 St-7 Av", "Line": "Broadway - Brighton", "ADA": "1", "Borough": "M", "Division": "BMT" }, "geometry": { "type": "Point", "coordinates": [ -73.980658, 40.764664 ] } },
{ "type": "Feature", "properties": { "Station ID": "10", "Complex ID": "10", "Stop Name": "49 St", "Line": "Broadway - Brighton", "ADA": "2", "Borough": "M", "Division": "BMT" }, "geometry": { "type": "Point", "coordinates": [ -73.984139, 40.759901 ] } },
{ "type": "Feature", "properties": { "Station ID": "11", "Complex ID": "611", "Stop Name": "Times Sq-42 St", "Line": "Broadway - Brighton", "ADA": "1", "Borough": "M", "Division": "BMT" }, "geometry": { "type": "Point", "coordinates": [ -73.986754, 40.754672 ] } },
{ "type": "Feature", "properties": { "Station ID": "12", "Complex ID": "607", "Stop Name": "34 St-Herald Sq", "Line": "Broadway - Brighton", "ADA": "1", "Borough": "M", "Division": "BMT" }, "geometry": { "type": "Point", "coordinates": [ -73.98795, 40.749567 ] } },
{ "type": "Feature", "properties": { "Station ID": "15", "Complex ID": "602", "Stop Name": "14 St-Union Sq", "Line": "Broadway - Brighton", "ADA": "1", "Borough": "M", "Division": "BMT" }, "geometry": { "type": "Point", "coordinates": [ -73.990568, 40.735736 ] } },
{ "type": "Feature", "properties": { "Station ID": "21", "Complex ID": "624", "Stop Name": "Cortlandt St", "Line": "Broadway", "ADA": "1", "Borough": "M", "Division": "BMT" }, "geometry": { "type": "Point", "coordinates": [ -74.011029, 40.710668 ] } },
{ "type": "Feature", "properties": { "Station ID": "25", "Complex ID": "636", "Stop Name": "Jay St-MetroTech", "Line": "Broadway", "ADA": "1", "Borough": "Bk", "Division": "BMT" }, "geometry": { "type": "Point", "coordinates": [ -73.985942, 40.69218 ] } },
{ "type": "Feature", "properties": { "Station ID": "26", "Complex ID": "26", "Stop Name": "DeKalb Av", "Line": "Broadway - Brighton", "ADA": "1", "Borough": "Bk", "Division": "BMT" }, "geometry": { "type": "Point", "coordinates": [ -73.981824, 40.690635 ] } },
{ "type": "Feature", "properties": { "Station ID": "27", "Complex ID": "617", "Stop Name": "Atlantic Av-Barclays Ctr", "Line": "4th Av", "ADA": "1", "Borough": "Bk", "Division": "BMT" }, "geometry": { "type": "Point", "coordinates": [ -73.97881, 40.683666 ] } },
{ "type": "Feature", "properties": { "Station ID": "35", "Complex ID": "35", "Stop Name": "59 St", "Line": "4th Av", "ADA": "1", "Borough": "Bk", "Division": "BMT" }, "geometry": { "type": "Point", "coordinates": [ -74.017881, 40.641362 ] } },
{ "type": "Feature", "properties": { "Station ID": "38", "Complex ID": "38", "Stop Name": "86 St", "Line": "4th Av", "ADA": "1", "Borough": "Bk", "Division": "BMT" }, "geometry": { "type": "Point", "coordinates": [ -74.028398, 40.622687 ] } },
{ "type": "Feature", "properties": { "Station ID": "42", "Complex ID": "42", "Stop Name": "Prospect Park", "Line": "Broadway - Brighton", "ADA": "1", "Borough": "Bk", "Division": "BMT" }, "geometry": { "type": "Point", "coordinates": [ -73.962246, 40.661614 ] } },
{ "type": "Feature", "properties": { "Station ID": "48", "Complex ID": "48", "Stop Name": "Avenue H", "Line": "Broadway - Brighton", "ADA": "1", "Borough": "Bk", "Division": "BMT" }, "geometry": { "type": "Point", "coordinates": [ -73.961639, 40.62927 ] } },
{ "type": "Feature", "properties": { "Station ID": "51", "Complex ID": "51", "Stop Name": "Kings Hwy", "Line": "Broadway - Brighton", "ADA": "1", "Borough": "Bk", "Division": "BMT" }, "geometry": { "type": "Point", "coordinates": [ -73.957734, 40.60867 ] } },
{ "type": "Feature", "properties": { "Station ID": "58", "Complex ID": "58", "Stop Name": "Coney Island-Stillwell Av", "Line": "Sea Beach / West End / Culver / Brighton", "ADA": "1", "Borough": "Bk", "Division": "BMT" }, "geometry": { "type": "Point", "coordinates": [ -73.981233, 40.577422 ] } },
{ "type": "Feature", "properties": { "Station ID": "63", "Complex ID": "615", "Stop Name": "62 St", "Line": "West End", "ADA": "1", "Borough": "Bk", "Division": "BMT" }, "geometry": { "type": "Point", "coordinates": [ -73.996895, 40.626472 ] } },
{ "type": "Feature", "properties": { "Station ID": "68", "Complex ID": "68", "Stop Name": "Bay Pkwy", "Line": "West End", "ADA": "1", "Borough": "Bk", "Division": "BMT" }, "geometry": { "type": "Point", "coordinates": [ -73.993728, 40.601875 ] } },
{ "type": "Feature", "properties": { "Station ID": "71", "Complex ID": "71", "Stop Name": "8 Av", "Line": "Sea Beach", "ADA": "1", "Borough": "Bk", "Division": "BMT" }, "geometry": { "type": "Point", "coordinates": [ -74.011719, 40.635064 ] } },
{ "type": "Feature", "properties": { "Station ID": "83", "Complex ID": "83", "Stop Name": "Woodhaven Blvd", "Line": "Jamaica", "ADA": "1", "Borough": "Q", "Division": "BMT" }, "geometry": { "type": "Point", "coordinates": [ -73.851576, 40.693879 ] } },
{ "type": "Feature", "properties": { "Station ID": "98", "Complex ID": "98", "Stop Name": "Flushing Av", "Line": "Jamaica", "ADA": "1", "Borough": "Bk", "Division": "BMT" }, "geometry": { "type": "Point", "coordinates": [ -73.941126, 40.70026 ] } },
{ "type": "Feature", "properties": { "Station ID": "101", "Complex ID": "101", "Stop Name": "Marcy Av", "Line": "Jamaica", "ADA": "1", "Borough": "Bk", "Division": "BMT" }, "geometry": { "type": "Point", "coordinates": [ -73.957757, 40.708359 ] } },
{ "type": "Feature", "properties": { "Station ID": "105", "Complex ID": "622", "Stop Name": "Chambers St", "Line": "Jamaica", "ADA": "1", "Borough": "M", "Division": "BMT" }, "geometry": { "type": "Point", "coordinates": [ -74.003401, 40.713243 ] } },
{ "type": "Feature", "properties": { "Station ID": "106", "Complex ID": "628", "Stop Name": "Fulton St", "Line": "Jamaica", "ADA": "1", "Borough": "M", "Division": "BMT" }, "geometry": { "type": "Point", "coordinates": [ -74.007582, 40.710374 ] } },
{ "type": "Feature", "properties": { "Station ID": "108", "Complex ID": "108", "Stop Name": "Middle Village-Metropolitan Av", "Line": "Myrtle Av", "ADA": "1", "Borough": "Q", "Division": "BMT" }, "geometry": { "type": "Point", "coordinates": [ -73.889601, 40.711396 ] } },
{ "type": "Feature", "properties": { "Station ID": "112", "Complex ID": "630", "Stop Name": "Myrtle-Wyckoff Avs", "Line": "Myrtle Av", "ADA": "1", "Borough": "Bk", "Division": "BMT" }, "geometry": { "type": "Point", "coordinates": [ -73.912385, 40.69943 ] } },
{ "type": "Feature", "properties": { "Station ID": "115", "Complex ID": "618", "Stop Name": "8 Av", "Line": "Canarsie", "ADA": "1", "Borough": "M", "Division": "BMT" }, "geometry": { "type": "Point", "coordinates": [ -74.002578, 40.739777 ] } },
{ "type": "Feature", "properties": { "Station ID": "116", "Complex ID": "601", "Stop Name": "6 Av", "Line": "Canarsie", "ADA": "1", "Borough": "M", "Division": "BMT" }, "geometry": { "type": "Point", "coordinates": [ -73.996786, 40.737335 ] } },
{ "type": "Feature", "properties": { "Station ID": "119", "Complex ID": "119", "Stop Name": "1 Av", "Line": "Canarsie", "ADA": "1", "Borough": "M", "Division": "BMT" }, "geometry": { "type": "Point", "coordinates": [ -73.981628, 40.730953 ] } },
{ "type": "Feature", "properties": { "Station ID": "120", "Complex ID": "120", "Stop Name": "Bedford Av", "Line": "Canarsie", "ADA": "1", "Borough": "Bk", "Division": "BMT" }, "geometry": { "type": "Point", "coordinates": [ -73.956872, 40.717304 ] } },
{ "type": "Feature", "properties": { "Station ID": "121", "Complex ID": "629", "Stop Name": "Lorimer St", "Line": "Canarsie", "ADA": "1", "Borough": "Bk", "Division": "BMT" }, "geometry": { "type": "Point", "coordinates": [ -73.950275, 40.714063 ] } },
{ "type": "Feature", "properties": { "Station ID": "123", "Complex ID": "123", "Stop Name": "Grand St", "Line": "Canarsie", "ADA": "1", "Borough": "Bk", "Division": "BMT" }, "geometry": { "type": "Point", "coordinates": [ -73.94067, 40.711926 ] } },
{ "type": "Feature", "properties": { "Station ID": "130", "Complex ID": "130", "Stop Name": "Wilson Av", "Line": "Canarsie", "ADA": "2", "Borough": "Bk", "Division": "BMT" }, "geometry": { "type": "Point", "coordinates": [ -73.904046, 40.688764 ] } },
{ "type": "Feature", "properties": { "Station ID": "135", "Complex ID": "135", "Stop Name": "Livonia Av", "Line": "Canarsie", "ADA": "1", "Borough": "Bk", "Division": "BMT" }, "geometry": { "type": "Point", "coordinates": [ -73.900571, 40.664038 ] } },
{ "type": "Feature", "properties": { "Station ID": "138", "Complex ID": "138", "Stop Name": "Canarsie-Rockaway Pkwy", "Line": "Canarsie", "ADA": "1", "Borough": "Bk", "Division": "BMT" }, "geometry": { "type": "Point", "coordinates": [ -73.90185, 40.646654 ] } },
{ "type": "Feature", "properties": { "Station ID": "139", "Complex ID": "627", "Stop Name": "Franklin Av", "Line": "Franklin Shuttle", "ADA": "1", "Borough": "Bk", "Division": "BMT" }, "geometry": { "type": "Point", "coordinates": [ -73.955827, 40.680596 ] } },
{ "type": "Feature", "properties": { "Station ID": "141", "Complex ID": "141", "Stop Name": "Park Pl", "Line": "Franklin Shuttle", "ADA": "1", "Borough": "Bk", "Division": "BMT" }, "geometry": { "type": "Point", "coordinates": [ -73.957624, 40.674772 ] } },
{ "type": "Feature", "properties": { "Station ID": "143", "Complex ID": "143", "Stop Name": "Inwood-207 St", "Line": "8th Av - Fulton St", "ADA": "1", "Borough": "M", "Division": "IND" }, "geometry": { "type": "Point", "coordinates": [ -73.919899, 40.868072 ] } },
{ "type": "Feature", "properties": { "Station ID": "146", "Complex ID": "146", "Stop Name": "181 St", "Line": "8th Av - Fulton St", "ADA": "1", "Borough": "M", "Division": "IND" }, "geometry": { "type": "Point", "coordinates": [ -73.937969, 40.851695 ] } },
{ "type": "Feature", "properties": { "Station ID": "147", "Complex ID": "147", "Stop Name": "175 St", "Line": "8th Av - Fulton St", "ADA": "1", "Borough": "M", "Division": "IND" }, "geometry": { "type": "Point", "coordinates": [ -73.939704, 40.847391 ] } },
{ "type": "Feature", "properties": { "Station ID": "148", "Complex ID": "605", "Stop Name": "168 St", "Line": "8th Av - Fulton St", "ADA": "1", "Borough": "M", "Division": "IND" }, "geometry": { "type": "Point", "coordinates": [ -73.939561, 40.840719 ] } },
{ "type": "Feature", "properties": { "Station ID": "153", "Complex ID": "153", "Stop Name": "125 St", "Line": "8th Av - Fulton St", "ADA": "1", "Borough": "M", "Division": "IND" }, "geometry": { "type": "Point", "coordinates": [ -73.952343, 40.811109 ] } },
{ "type": "Feature", "properties": { "Station ID": "161", "Complex ID": "614", "Stop Name": "59 St-Columbus Circle", "Line": "8th Av - Fulton St", "ADA": "1", "Borough": "M", "Division": "IND" }, "geometry": { "type": "Point", "coordinates": [ -73.981736, 40.768296 ] } },
{ "type": "Feature", "properties": { "Station ID": "162", "Complex ID": "162", "Stop Name": "50 St", "Line": "8th Av - Fulton St", "ADA": "2", "Borough": "M", "Division": "IND" }, "geometry": { "type": "Point", "coordinates": [ -73.985984, 40.762456 ] } },
{ "type": "Feature", "properties": { "Station ID": "164", "Complex ID": "164", "Stop Name": "34 St-Penn Station", "Line": "8th Av - Fulton St", "ADA": "1", "Borough": "M", "Division": "IND" }, "geometry": { "type": "Point", "coordinates": [ -73.993391, 40.752287 ] } },
{ "type": "Feature", "properties": { "Station ID": "167", "Complex ID": "167", "Stop Name": "W 4 St-Wash Sq", "Line": "8th Av - Fulton St", "ADA": "1", "Borough": "M", "Division": "IND" }, "geometry": { "type": "Point", "coordinates": [ -74.000495, 40.732338 ] } },
{ "type": "Feature", "properties": { "Station ID": "181", "Complex ID": "181", "Stop Name": "Utica Av", "Line": "8th Av - Fulton St", "ADA": "1", "Borough": "Bk", "Division": "IND" }, "geometry": { "type": "Point", "coordinates": [ -73.930729, 40.679364 ] } },
{ "type": "Feature", "properties": { "Station ID": "188", "Complex ID": "188", "Stop Name": "Euclid Av", "Line": "8th Av - Fulton St", "ADA": "1", "Borough": "Bk", "Division": "IND" }, "geometry": { "type": "Point", "coordinates": [ -73.872106, 40.675377 ] } },
{ "type": "Feature", "properties": { "Station ID": "195", "Complex ID": "195", "Stop Name": "Ozone Park-Lefferts Blvd", "Line": "Liberty Av", "ADA": "1", "Borough": "Q", "Division": "IND" }, "geometry": { "type": "Point", "coordinates": [ -73.825798, 40.685951 ] } },
{ "type": "Feature", "properties": { "Station ID": "196", "Complex ID": "196", "Stop Name": "Aqueduct Racetrack", "Line": "Rockaway", "ADA": "1", "Borough": "Q", "Division": "IND" }, "geometry": { "type": "Point", "coordinates": [ -73.835919, 40.672097 ] } },
{ "type": "Feature", "properties": { "Station ID": "198", "Complex ID": "198", "Stop Name": "Howard Beach-JFK Airport", "Line": "Rockaway", "ADA": "1", "Borough": "Q", "Division": "IND" }, "geometry": { "type": "Point", "coordinates": [ -73.830301, 40.660476 ] } },
{ "type": "Feature", "properties": { "Station ID": "203", "Complex ID": "203", "Stop Name": "Rockaway Park-Beach 116 St", "Line": "Rockaway", "ADA": "1", "Borough": "Q", "Division": "IND" }, "geometry": { "type": "Point", "coordinates": [ -73.835592, 40.580903 ] } },
{ "type": "Feature", "properties": { "Station ID": "204", "Complex ID": "204", "Stop Name": "Beach 67 St", "Line": "Rockaway", "ADA": "1", "Borough": "Q", "Division": "IND" }, "geometry": { "type": "Point", "coordinates": [ -73.796924, 40.590927 ] } },
{ "type": "Feature", "properties": { "Station ID": "209", "Complex ID": "209", "Stop Name": "Far Rockaway-Mott Av", "Line": "Rockaway", "ADA": "1", "Borough": "Q", "Division": "IND" }, "geometry": { "type": "Point", "coordinates": [ -73.755405, 40.603995 ] } },
{ "type": "Feature", "properties": { "Station ID": "211", "Complex ID": "211", "Stop Name": "Bedford Park Blvd", "Line": "Concourse", "ADA": "1", "Borough": "Bx", "Division": "IND" }, "geometry": { "type": "Point", "coordinates": [ -73.887138, 40.873244 ] } },
{ "type": "Feature", "properties": { "Station ID": "212", "Complex ID": "212", "Stop Name": "Kingsbridge Rd", "Line": "Concourse", "ADA": "1", "Borough": "Bx", "Division": "IND" }, "geometry": { "type": "Point", "coordinates": [ -73.893509, 40.866978 ] } },
{ "type": "Feature", "properties": { "Station ID": "215", "Complex ID": "215", "Stop Name": "Tremont Av", "Line": "Concourse", "ADA": "1", "Borough": "Bx", "Division": "IND" }, "geometry": { "type": "Point", "coordinates": [ -73.905227, 40.85041 ] } },
{ "type": "Feature", "properties": { "Station ID": "219", "Complex ID": "604", "Stop Name": "161 St-Yankee Stadium", "Line": "Concourse", "ADA": "1", "Borough": "Bx", "Division": "IND" }, "geometry": { "type": "Point", "coordinates": [ -73.925651, 40.827905 ] } },
{ "type": "Feature", "properties": { "Station ID": "221", "Complex ID": "221", "Stop Name": "21 St-Queensbridge", "Line": "63rd St", "ADA": "1", "Borough": "Q", "Division": "IND" }, "geometry": { "type": "Point", "coordinates": [ -73.942836, 40.754203 ] } },
{ "type": "Feature", "properties": { "Station ID": "222", "Complex ID": "222", "Stop Name": "Roosevelt Island", "Line": "63rd St", "ADA": "1", "Borough": "M", "Division": "IND" }, "geometry": { "type": "Point", "coordinates": [ -73.95326, 40.759145 ] } },
{ "type": "Feature", "properties": { "Station ID": "223", "Complex ID": "223", "Stop Name": "Lexington Av/63 St", "Line": "63rd St", "ADA": "1", "Borough": "M", "Division": "IND" }, "geometry": { "type": "Point", "coordinates": [ -73.966113, 40.764629 ] } },
{ "type": "Feature", "properties": { "Station ID": "225", "Complex ID": "225", "Stop Name": "47-50 Sts-Rockefeller Ctr", "Line": "6th Av - Culver", "ADA": "1", "Borough": "M", "Division": "IND" }, "geometry": { "type": "Point", "coordinates": [ -73.981329, 40.758663 ] } },
{ "type": "Feature", "properties": { "Station ID": "230", "Complex ID": "619", "Stop Name": "Broadway-Lafayette St", "Line": "6th Av - Culver", "ADA": "1", "Borough": "M", "Division": "IND" }, "geometry": { "type": "Point", "coordinates": [ -73.996204, 40.725297 ] } },
{ "type": "Feature", "properties": { "Station ID": "240", "Complex ID": "240", "Stop Name": "7 Av", "Line": "6th Av - Culver", "ADA": "1", "Borough": "Bk", "Division": "IND" }, "geometry": { "type": "Point", "coordinates": [ -73.980305, 40.666271 ] } },
{ "type": "Feature", "properties": { "Station ID": "243", "Complex ID": "243", "Stop Name": "Church Av", "Line": "6th Av - Culver", "ADA": "1", "Borough": "Bk", "Division": "IND" }, "geometry": { "type": "Point", "coordinates": [ -73.979678, 40.644041 ] } },
{ "type": "Feature", "properties": { "Station ID": "254", "Complex ID": "254", "Stop Name": "Jamaica-179 St", "Line": "Queens Blvd", "ADA": "1", "Borough": "Q", "Division": "IND" }, "geometry": { "type": "Point", "coordinates": [ -73.783817, 40.712646 ] } },
{ "type": "Feature", "properties": { "Station ID": "259", "Complex ID": "259", "Stop Name": "Kew Gardens-Union Tpke", "Line": "Queens Blvd", "ADA": "1", "Borough": "Q", "Division": "IND" }, "geometry": { "type": "Point", "coordinates": [ -73.831008, 40.714441 ] } },
{ "type": "Feature", "properties": { "Station ID": "261", "Complex ID": "261", "Stop Name": "Forest Hills-71 Av", "Line": "Queens Blvd", "ADA": "1", "Borough": "Q", "Division": "IND" }, "geometry": { "type": "Point", "coordinates": [ -73.844521, 40.721691 ] } },
{ "type": "Feature", "properties": { "Station ID": "267", "Complex ID": "616", "Stop Name": "Jackson Hts-Roosevelt Av", "Line": "Queens Blvd", "ADA": "1", "Borough": "Q", "Division": "IND" }, "geometry": { "type": "Point", "coordinates": [ -73.891338, 40.746644 ] } },
{ "type": "Feature", "properties": { "Station ID": "269", "Complex ID": "269", "Stop Name": "Northern Blvd", "Line": "Queens Blvd", "ADA": "2", "Borough": "Q", "Division": "IND" }, "geometry": { "type": "Point", "coordinates": [ -73.906006, 40.752885 ] } },
{ "type": "Feature", "properties": { "Station ID": "273", "Complex ID": "273", "Stop Name": "Queens Plaza", "Line": "Queens Blvd", "ADA": "1", "Borough": "Q", "Division": "IND" }, "geometry": { "type": "Point", "coordinates": [ -73.937243, 40.748973 ] } },
{ "type": "Feature", "properties": { "Station ID": "274", "Complex ID": "606", "Stop Name": "Court Sq-23 St", "Line": "Queens Blvd", "ADA": "2", "Borough": "Q", "Division": "IND" }, "geometry": { "type": "Point", "coordinates": [ -73.946, 40.747846 ] } },
{ "type": "Feature", "properties": { "Station ID": "275", "Complex ID": "612", "Stop Name": "Lexington Av/53 St", "Line": "Queens Blvd", "ADA": "1", "Borough": "M", "Division": "IND" }, "geometry": { "type": "Point", "coordinates": [ -73.969055, 40.757552 ] } },
{ "type": "Feature", "properties": { "Station ID": "278", "Complex ID": "278", "Stop Name": "Jamaica Center-Parsons/Archer", "Line": "Queens - Archer", "ADA": "1", "Borough": "Q", "Division": "IND" }, "geometry": { "type": "Point", "coordinates": [ -73.801109, 40.702147 ] } },
{ "type": "Feature", "properties": { "Station ID": "279", "Complex ID": "279", "Stop Name": "Sutphin Blvd-Archer Av-JFK Airport", "Line": "Queens - Archer", "ADA": "1", "Borough": "Q", "Division": "IND" }, "geometry": { "type": "Point", "coordinates": [ -73.807969, 40.700486 ] } },
{ "type": "Feature", "properties": { "Station ID": "280", "Complex ID": "280", "Stop Name": "Jamaica-Van Wyck", "Line": "Queens - Archer", "ADA": "1", "Borough": "Q", "Division": "IND" }, "geometry": { "type": "Point", "coordinates": [ -73.816859, 40.702566 ] } },
{ "type": "Feature", "properties": { "Station ID": "283", "Complex ID": "283", "Stop Name": "Greenpoint Av", "Line": "Crosstown", "ADA": "1", "Borough": "Bk", "Division": "IND" }, "geometry": { "type": "Point", "coordinates": [ -73.954449, 40.731352 ] } },
{ "type": "Feature", "properties": { "Station ID": "295", "Complex ID": "295", "Stop Name": "231 St", "Line": "Broadway - 7Av", "ADA": "1", "Borough": "Bx", "Division": "IRT" }, "geometry": { "type": "Point", "coordinates": [ -73.904834, 40.878856 ] } },
{ "type": "Feature", "properties": { "Station ID": "299", "Complex ID": "299", "Stop Name": "Dyckman St", "Line": "Broadway - 7Av", "ADA": "1", "Borough": "M", "Division": "IRT" }, "geometry": { "type": "Point", "coordinates": [ -73.925536, 40.860531 ] } },
{ "type": "Feature", "properties": { "Station ID": "310", "Complex ID": "310", "Stop Name": "96 St", "Line": "Broadway - 7Av", "ADA": "1", "Borough": "M", "Division": "IRT" }, "geometry": { "type": "Point", "coordinates": [ -73.972323, 40.793919 ] } },
{ "type": "Feature", "properties": { "Station ID": "313", "Complex ID": "313", "Stop Name": "72 St", "Line": "Broadway - 7Av", "ADA": "1", "Borough": "M", "Division": "IRT" }, "geometry": { "type": "Point", "coordinates": [ -73.98197, 40.778453 ] } },
{ "type": "Feature", "properties": { "Station ID": "314", "Complex ID": "314", "Stop Name": "66 St-Lincoln Center", "Line": "Broadway - 7Av", "ADA": "1", "Borough": "M", "Division": "IRT" }, "geometry": { "type": "Point", "coordinates": [ -73.982209, 40.77344 ] } },
{ "type": "Feature", "properties": { "Station ID": "318", "Complex ID": "318", "Stop Name": "34 St-Penn Station", "Line": "Broadway - 7Av", "ADA": "1", "Borough": "M", "Division": "IRT" }, "geometry": { "type": "Point", "coordinates": [ -73.991057, 40.750373 ] } },
{ "type": "Feature", "properties": { "Station ID": "327", "Complex ID": "327", "Stop Name": "Chambers St", "Line": "Broadway - 7Av", "ADA": "1", "Borough": "M", "Division": "IRT" }, "geometry": { "type": "Point", "coordinates": [ -74.009266, 40.715478 ] } },
{ "type": "Feature", "properties": { "Station ID": "328", "Complex ID": "328", "Stop Name": "WTC Cortlandt", "Line": "Broadway - 7Av", "ADA": "1", "Borough": "M", "Division": "IRT" }, "geometry": { "type": "Point", "coordinates": [ -74.012188, 40.711835 ] } },
{ "type": "Feature", "properties": { "Station ID": "330", "Complex ID": "635", "Stop Name": "South Ferry", "Line": "Broadway - 7Av", "ADA": "1", "Borough": "M", "Division": "IRT" }, "geometry": { "type": "Point", "coordinates": [ -74.013664, 40.702068 ] } },
{ "type": "Feature", "properties": { "Station ID": "335", "Complex ID": "620", "Stop Name": "Borough Hall", "Line": "Clark St", "ADA": "1", "Borough": "Bk", "Division": "IRT" }, "geometry": { "type": "Point", "coordinates": [ -73.989998, 40.693219 ] } },
{ "type": "Feature", "properties": { "Station ID": "336", "Complex ID": "336", "Stop Name": "Hoyt St", "Line": "Eastern Pky", "ADA": "2", "Borough": "Bk", "Division": "IRT" }, "geometry": { "type": "Point", "coordinates": [ -73.985065, 40.690545 ] } },
{ "type": "Feature", "properties": { "Station ID": "341", "Complex ID": "341", "Stop Name": "Eastern Pkwy-Brooklyn Museum", "Line": "Eastern Pky", "ADA": "1", "Borough": "Bk", "Division": "IRT" }, "geometry": { "type": "Point", "coordinates": [ -73.964375, 40.671987 ] } },
{ "type": "Feature", "properties": { "Station ID": "345", "Complex ID": "345", "Stop Name": "Crown Hts-Utica Av", "Line": "Eastern Pky", "ADA": "1", "Borough": "Bk", "Division": "IRT" }, "geometry": { "type": "Point", "coordinates": [ -73.932942, 40.668897 ] } },
{ "type": "Feature", "properties": { "Station ID": "356", "Complex ID": "356", "Stop Name": "Church Av", "Line": "Nostrand", "ADA": "1", "Borough": "Bk", "Division": "IRT" }, "geometry": { "type": "Point", "coordinates": [ -73.949575, 40.650843 ] } },
{ "type": "Feature", "properties": { "Station ID": "359", "Complex ID": "359", "Stop Name": "Flatbush Av-Brooklyn College", "Line": "Nostrand", "ADA": "1", "Borough": "Bk", "Division": "IRT" }, "geometry": { "type": "Point", "coordinates": [ -73.947642, 40.632836 ] } },
{ "type": "Feature", "properties": { "Station ID": "360", "Complex ID": "360", "Stop Name": "Pelham Bay Park", "Line": "Pelham", "ADA": "1", "Borough": "Bx", "Division": "IRT" }, "geometry": { "type": "Point", "coordinates": [ -73.828121, 40.852462 ] } },
{ "type": "Feature", "properties": { "Station ID": "363", "Complex ID": "363", "Stop Name": "Westchester Sq-E Tremont Av", "Line": "Pelham", "ADA": "1", "Borough": "Bx", "Division": "IRT" }, "geometry": { "type": "Point", "coordinates": [ -73.842952, 40.839892 ] } },
{ "type": "Feature", "properties": { "Station ID": "371", "Complex ID": "371", "Stop Name": "Hunts Point Av", "Line": "Pelham", "ADA": "1", "Borough": "Bx", "Division": "IRT" }, "geometry": { "type": "Point", "coordinates": [ -73.890549, 40.820948 ] } },
{ "type": "Feature", "properties": { "Station ID": "373", "Complex ID": "373", "Stop Name": "E 149 St", "Line": "Pelham", "ADA": "1", "Borough": "Bx", "Division": "IRT" }, "geometry": { "type": "Point", "coordinates": [ -73.904098, 40.812118 ] } },
{ "type": "Feature", "properties": { "Station ID": "382", "Complex ID": "382", "Stop Name": "Fordham Rd", "Line": "Jerome Av", "ADA": "1", "Borough": "Bx", "Division": "IRT" }, "geometry": { "type": "Point", "coordinates": [ -73.901034, 40.862803 ] } },
{ "type": "Feature", "properties": { "Station ID": "387", "Complex ID": "387", "Stop Name": "170 St", "Line": "Jerome Av", "ADA": "1", "Borough": "Bx", "Division": "IRT" }, "geometry": { "type": "Point", "coordinates": [ -73.917791, 40.840075 ] } },
{ "type": "Feature", "properties": { "Station ID": "392", "Complex ID": "392", "Stop Name": "125 St", "Line": "Lexington Av", "ADA": "1", "Borough": "M", "Division": "IRT" }, "geometry": { "type": "Point", "coordinates": [ -73.937594, 40.804138 ] } },
{ "type": "Feature", "properties": { "Station ID": "397", "Complex ID": "397", "Stop Name": "86 St", "Line": "Lexington Av", "ADA": "2", "Borough": "M", "Division": "IRT" }, "geometry": { "type": "Point", "coordinates": [ -73.955589, 40.779492 ] } },
{ "type": "Feature", "properties": { "Station ID": "399", "Complex ID": "399", "Stop Name": "68 St-Hunter College", "Line": "Lexington Av", "ADA": "1", "Borough": "M", "Division": "IRT" }, "geometry": { "type": "Point", "coordinates": [ -73.96387, 40.768141 ] } },
{ "type": "Feature", "properties": { "Station ID": "402", "Complex ID": "610", "Stop Name": "Grand Central-42 St", "Line": "Lexington Av", "ADA": "1", "Borough": "M", "Division": "IRT" }, "geometry": { "type": "Point", "coordinates": [ -73.976848, 40.751776 ] } },
{ "type": "Feature", "properties": { "Station ID": "404", "Complex ID": "404", "Stop Name": "28 St", "Line": "Lexington Av", "ADA": "2", "Borough": "M", "Division": "IRT" }, "geometry": { "type": "Point", "coordinates": [ -73.984264, 40.74307 ] } },
{ "type": "Feature", "properties": { "Station ID": "405", "Complex ID": "405", "Stop Name": "23 St", "Line": "Lexington Av", "ADA": "1", "Borough": "M", "Division": "IRT" }, "geometry": { "type": "Point", "coordinates": [ -73.986599, 40.739864 ] } },
{ "type": "Feature", "properties": { "Station ID": "410", "Complex ID": "623", "Stop Name": "Canal St", "Line": "Lexington Av", "ADA": "1", "Borough": "M", "Division": "IRT" }, "geometry": { "type": "Point", "coordinates": [ -74.000193, 40.718803 ] } },
{ "type": "Feature", "properties": { "Station ID": "414", "Complex ID": "414", "Stop Name": "Bowling Green", "Line": "Lexington Av", "ADA": "1", "Borough": "M", "Division": "IRT" }, "geometry": { "type": "Point", "coordinates": [ -74.014065, 40.704817 ] } },
{ "type": "Feature", "properties": { "Station ID": "418", "Complex ID": "418", "Stop Name": "233 St", "Line": "Lenox - White Plains Rd", "ADA": "1", "Borough": "Bx", "Division": "IRT" }, "geometry": { "type": "Point", "coordinates": [ -73.857473, 40.893193 ] } },
{ "type": "Feature", "properties": { "Station ID": "421", "Complex ID": "421", "Stop Name": "Gun Hill Rd", "Line": "Lenox - White Plains Rd", "ADA": "1", "Borough": "Bx", "Division": "IRT" }, "geometry": { "type": "Point", "coordinates": [ -73.866256, 40.87785 ] } },
{ "type": "Feature", "properties": { "Station ID": "424", "Complex ID": "424", "Stop Name": "Pelham Pkwy", "Line": "Lenox - White Plains Rd", "ADA": "1", "Borough": "Bx", "Division": "IRT" }, "geometry": { "type": "Point", "coordinates": [ -73.867615, 40.857192 ] } },
{ "type": "Feature", "properties": { "Station ID": "426", "Complex ID": "426", "Stop Name": "E 180 St", "Line": "Lenox - White Plains Rd", "ADA": "1", "Borough": "Bx", "Division": "IRT" }, "geometry": { "type": "Point", "coordinates": [ -73.873488, 40.841894 ] } },
{ "type": "Feature", "properties": { "Station ID": "430", "Complex ID": "430", "Stop Name": "Simpson St", "Line": "Lenox - White Plains Rd", "ADA": "1", "Borough": "Bx", "Division": "IRT" }, "geometry": { "type": "Point", "coordinates": [ -73.893064, 40.824073 ] } },
{ "type": "Feature", "properties": { "Station ID": "434", "Complex ID": "434", "Stop Name": "3 Av-149 St", "Line": "Lenox - White Plains Rd", "ADA": "1", "Borough": "Bx", "Division": "IRT" }, "geometry": { "type": "Point", "coordinates": [ -73.917757, 40.816109 ] } },
{ "type": "Feature", "properties": { "Station ID": "438", "Complex ID": "438", "Stop Name": "135 St", "Line": "Lenox - White Plains Rd", "ADA": "1", "Borough": "M", "Division": "IRT" }, "geometry": { "type": "Point", "coordinates": [ -73.94077, 40.814229 ] } },
{ "type": "Feature", "properties": { "Station ID": "444", "Complex ID": "444", "Stop Name": "Gun Hill Rd", "Line": "Dyre Av", "ADA": "1", "Borough": "Bx", "Division": "IRT" }, "geometry": { "type": "Point", "coordinates": [ -73.846384, 40.869526 ] } },
{ "type": "Feature", "properties": { "Station ID": "447", "Complex ID": "447", "Stop Name": "Flushing-Main St", "Line": "Flushing", "ADA": "1", "Borough": "Q", "Division": "IRT" }, "geometry": { "type": "Point", "coordinates": [ -73.83003, 40.7596 ] } },
{ "type": "Feature", "properties": { "Station ID": "451", "Complex ID": "451", "Stop Name": "Junction Blvd", "Line": "Flushing", "ADA": "1", "Borough": "Q", "Division": "IRT" }, "geometry": { "type": "Point", "coordinates": [ -73.869527, 40.749145 ] } },
{ "type": "Feature", "properties": { "Station ID": "456", "Complex ID": "456", "Stop Name": "61 St-Woodside", "Line": "Flushing", "ADA": "1", "Borough": "Q", "Division": "IRT" }, "geometry": { "type": "Point", "coordinates": [ -73.902984, 40.74563 ] } },
{ "type": "Feature", "properties": { "Station ID": "461", "Complex ID": "461", "Stop Name": "Queensboro Plaza", "Line": "Astoria", "ADA": "1", "Borough": "Q", "Division": "BMT" }, "geometry": { "type": "Point", "coordinates": [ -73.940202, 40.750582 ] } },
{ "type": "Feature", "properties": { "Station ID": "471", "Complex ID": "471", "Stop Name": "34 St-Hudson Yards", "Line": "Flushing", "ADA": "1", "Borough": "M", "Division": "IRT" }, "geometry": { "type": "Point", "coordinates": [ -74.00191, 40.755882 ] } },
{ "type": "Feature", "properties": { "Station ID": "475", "Complex ID": "475", "Stop Name": "96 St", "Line": "Second Av", "ADA": "1", "Borough": "M", "Division": "IND" }, "geometry": { "type": "Point", "coordinates": [ -73.947152, 40.784318 ] } },
{ "type": "Feature", "properties": { "Station ID": "476", "Complex ID": "476", "Stop Name": "86 St", "Line": "Second Av", "ADA": "1", "Borough": "M", "Division": "IND" }, "geometry": { "type": "Point", "coordinates": [ -73.951787, 40.777891 ] } },
{ "type": "Feature", "properties": { "Station ID": "477", "Complex ID": "477", "Stop Name": "72 St", "Line": "Second Av", "ADA": "1", "Borough": "M", "Division": "IND" }, "geometry": { "type": "Point", "coordinates": [ -73.958424, 40.768799 ] } },
{ "type": "Feature", "properties": { "Station ID": "501", "Complex ID": "501", "Stop Name": "St George", "Line": "Staten Island", "ADA": "1", "Borough": "SI", "Division": "SIR" }, "geometry": { "type": "Point", "coordinates": [ -74.073643, 40.643748 ] } },
{ "type": "Feature", "properties": { "Station ID": "507", "Complex ID": "507", "Stop Name": "Dongan Hills", "Line": "Staten Island", "ADA": "1", "Borough": "SI", "Division": "SIR" }, "geometry": { "type": "Point", "coordinates": [ -74.09609, 40.588849 ] } },
{ "type": "Feature", "properties": { "Station ID": "510", "Complex ID": "510", "Stop Name": "New Dorp", "Line": "Staten Island", "ADA": "1", "Borough": "SI", "Division": "SIR" }, "geometry": { "type": "Point", "coordinates": [ -74.11721, 40.57348 ] } },
{ "type": "Feature", "properties": { "Station ID": "513", "Complex ID": "513", "Stop Name": "Great Kills", "Line": "Staten Island", "ADA": "1", "Borough": "SI", "Division": "SIR" }, "geometry": { "type": "Point", "coordinates": [ -74.151399, 40.551231 ] } },
{ "type": "Feature", "properties": { "Station ID": "522", "Complex ID": "522", "Stop Name": "Tottenville", "Line": "Staten Island", "ADA": "1", "Borough": "SI", "Division": "SIR" }, "geometry": { "type": "Point", "coordinates": [ -74.251961, 40.512764 ] } },
{ "type": "Feature", "properties": { "Station ID": "523", "Complex ID": "523", "Stop Name": "Arthur Kill", "Line": "Staten Island", "ADA": "1", "Borough": "SI", "Division": "SIR" }, "geometry": { "type": "Point", "coordinates": [ -74.242096, 40.516578 ] } }
]
}
