{
  "type": "FeatureCollection",
  "features": [
    {
      "type": "Feature",
      "properties": {},
      "geometry": {
        "coordinates": [
          -73.95117407555931,
          40.68056249732285
        ],
        "type": "Point"
      }
    },
    {
      "type": "Feature",
      "properties": {},
      "geometry": {
        "coordinates": [
          [
            [
              -73.96029080445463,
              40.673382832798154
            ],
            [
              -73.93486233308398,
              40.673382832798154
            ],
            [
              -73.93486233308398,
              40.69521614656253
            ],
            [
              -73.96029080445463,
              40.69521614656253
            ],
            [
              -73.96029080445463,
              40.673382832798154
            ]
          ]
        ],
        "type": "Polygon"
      }
    }
  ]
}