{
"type": "FeatureCollection",
"name": "bg_plus_isochrone_station_188",
"crs": { "type": "name", "properties": { "name": "urn:ogc:def:crs:OGC:1.3:CRS84" } },
"features": [
{ "type": "Feature", "properties": { "GEOID": "360471208013", "Shape_Leng": 2710.6641272543293, "Shape_Area": 448463.51722525968, "total": 1766.0, "population": 1429.0, "units_total": 330.0, "units_walk": 330.0, "pct_units_walk": 1.0, "pop_walk_est": 1429.0, "pct_pop_walk": 1.0, "feature_type": "block_group", "station": null }, "geometry": { "type": "Polygon", "coordinates": [ [ [ -73.869447000347165, 40.673142999674617 ], [ -73.868523000368597, 40.673278999705843 ], [ -73.867602999863863, 40.67341100043047 ], [ -73.866667999998867, 40.67354400030554 ], [ -73.866275000357845, 40.672010000257607 ], [ -73.867221000204481, 40.67187099992249 ], [ -73.868140000549687, 40.671737999731313 ], [ -73.869064000119749, 40.671608000212245 ], [ -73.869447000347165, 40.673142999674617 ] ] ] } },
{ "type": "Feature", "properties": { "GEOID": "360471208021", "Shape_Leng": 3713.5911008064286, "Shape_Area": 836713.43021042878, "total": 3571.0, "population": 3687.0, "units_total": 319.0, "units_walk": 319.0, "pct_units_walk": 1.0, "pop_walk_est": 3687.0, "pct_pop_walk": 1.0, "feature_type": "block_group", "station": null }, "geometry": { "type": "Polygon", "coordinates": [ [ [ -73.866667999998867, 40.67354400030554 ], [ -73.865754999463419, 40.673677999818274 ], [ -73.865323999671745, 40.67373799998439 ], [ -73.864899999669376, 40.6738079997832 ], [ -73.863919000029881, 40.673942000316814 ], [ -73.863551000589609, 40.672409000295318 ], [ -73.863536999939825, 40.672355000441101 ], [ -73.863206999726629, 40.671018999623413 ], [ -73.86592900008911, 40.670619000422263 ], [ -73.866232999418159, 40.671841999743066 ], [ -73.866275000357845, 40.672010000257607 ], [ -73.866667999998867, 40.67354400030554 ] ] ] } },
{ "type": "Feature", "properties": { "GEOID": "360471208031", "Shape_Leng": 6428.0568377259679, "Shape_Area": 1670988.4057868482, "total": 1951.0, "population": 1583.0, "units_total": 576.0, "units_walk": 0.0, "pct_units_walk": 0.0, "pop_walk_est": 0.0, "pct_pop_walk": 0.0, "feature_type": "block_group", "station": null }, "geometry": { "type": "Polygon", "coordinates": [ [ [ -73.863919000029881, 40.673942000316814 ], [ -73.862992000245484, 40.6740729995538 ], [ -73.862073999981732, 40.674208000404548 ], [ -73.861763999811686, 40.674233000396271 ], [ -73.861063999492373, 40.674342999938432 ], [ -73.861077000525171, 40.674021000081893 ], [ -73.860775000492609, 40.672805999867883 ], [ -73.860388999588935, 40.671268999967921 ], [ -73.859473999999707, 40.671380999838348 ], [ -73.859390999529921, 40.671394000040209 ], [ -73.858555000078724, 40.671533000162739 ], [ -73.857633000535614, 40.671656000011438 ], [ -73.857308999886399, 40.670419000338732 ], [ -73.857281999689192, 40.670311999885257 ], [ -73.858203999960764, 40.670178000341174 ], [ -73.859128000323111, 40.670049999603556 ], [ -73.860058999797147, 40.669921999961012 ], [ -73.860983999928123, 40.669804000182531 ], [ -73.861837000227695, 40.669675000366716 ], [ -73.862844999856463, 40.669522000251725 ], [ -73.862869000429214, 40.669623000184373 ], [ -73.863168000454763, 40.670862000436905 ], [ -73.863206999726629, 40.671018999623413 ], [ -73.863536999939825, 40.672355000441101 ], [ -73.863551000589609, 40.672409000295318 ], [ -73.863919000029881, 40.673942000316814 ] ] ] } },
{ "type": "Feature", "properties": { "GEOID": "360471208011", "Shape_Leng": 2188.9212162592112, "Shape_Area": 299939.60306474601, "total": 1364.0, "population": 549.0, "units_total": 271.0, "units_walk": 271.0, "pct_units_walk": 1.0, "pop_walk_est": 549.0, "pct_pop_walk": 1.0, "feature_type": "block_group", "station": null }, "geometry": { "type": "Polygon", "coordinates": [ [ [ -73.871302999879319, 40.672857999961771 ], [ -73.870367000570099, 40.673011000417581 ], [ -73.869447000347165, 40.673142999674617 ], [ -73.869064000119749, 40.671608000212245 ], [ -73.869984999783895, 40.671473999696495 ], [ -73.870943000563287, 40.671335000337251 ], [ -73.871302999879319, 40.672857999961771 ] ] ] } },
{ "type": "Feature", "properties": { "GEOID": "360471208012", "Shape_Leng": 3409.3967731657722, "Shape_Area": 587925.53053416917, "total": 1289.0, "population": 1481.0, "units_total": 290.0, "units_walk": 203.0, "pct_units_walk": 0.7, "pop_walk_est": 1036.7, "pct_pop_walk": 0.7, "feature_type": "block_group", "station": null }, "geometry": { "type": "Polygon", "coordinates": [ [ [ -73.870943000563287, 40.671335000337251 ], [ -73.869984999783895, 40.671473999696495 ], [ -73.869064000119749, 40.671608000212245 ], [ -73.868680000401397, 40.670070000212753 ], [ -73.868361000418972, 40.668848000357841 ], [ -73.868329999566726, 40.668727999863492 ], [ -73.868886000014484, 40.668662000254727 ], [ -73.869148000236081, 40.668612999777523 ], [ -73.869262000014018, 40.668567999998388 ], [ -73.869389000093065, 40.66851300022158 ], [ -73.869516999817449, 40.668438999637601 ], [ -73.869673000508485, 40.668335000207918 ], [ -73.869807000320662, 40.668237999699251 ], [ -73.870111999669575, 40.668013999657902 ], [ -73.870132000354602, 40.668148999774225 ], [ -73.870562000202924, 40.6697979996488 ], [ -73.870943000563287, 40.671335000337251 ] ] ] } },
{ "type": "Feature", "properties": { "GEOID": "360471208014", "Shape_Leng": 3710.6952213225286, "Shape_Area": 840024.63876814616, "total": 889.0, "population": 1061.0, "units_total": 347.0, "units_walk": 134.0, "pct_units_walk": 0.3861671469740634, "pop_walk_est": 409.72334293948126, "pct_pop_walk": 0.3861671469740634, "feature_type": "block_group", "station": null }, "geometry": { "type": "Polygon", "coordinates": [ [ [ -73.869064000119749, 40.671608000212245 ], [ -73.868140000549687, 40.671737999731313 ], [ -73.867221000204481, 40.67187099992249 ], [ -73.866275000357845, 40.672010000257607 ], [ -73.866232999418159, 40.671841999743066 ], [ -73.86592900008911, 40.670619000422263 ], [ -73.865891999786612, 40.6704700001739 ], [ -73.865578999692758, 40.669223000359828 ], [ -73.865554000536861, 40.669121999825421 ], [ -73.86650299993768, 40.668984999939788 ], [ -73.867426999491471, 40.668865999868181 ], [ -73.868329999566726, 40.668727999863492 ], [ -73.868361000418972, 40.668848000357841 ], [ -73.868680000401397, 40.670070000212753 ], [ -73.869064000119749, 40.671608000212245 ] ] ] } },
{ "type": "Feature", "properties": { "GEOID": "360471186002", "Shape_Leng": 3510.272000218587, "Shape_Area": 690654.90085181256, "total": 1573.0, "population": 1651.0, "units_total": 429.0, "units_walk": 58.0, "pct_units_walk": 0.1351981351981352, "pop_walk_est": 223.21212121212122, "pct_pop_walk": 0.1351981351981352, "feature_type": "block_group", "station": null }, "geometry": { "type": "Polygon", "coordinates": [ [ [ -73.871570000288372, 40.681685999695759 ], [ -73.870716000062302, 40.681929999658379 ], [ -73.869807999481921, 40.682186999570824 ], [ -73.868969999732172, 40.68242599961421 ], [ -73.86813200026512, 40.682666000330642 ], [ -73.86754099962981, 40.68042900008173 ], [ -73.868430999752846, 40.680311000085261 ], [ -73.869342000063853, 40.680190999900724 ], [ -73.869408000274262, 40.6804750000992 ], [ -73.871200000104693, 40.680222000367543 ], [ -73.871366999429156, 40.68089299990482 ], [ -73.871570000288372, 40.681685999695759 ] ] ] } },
{ "type": "Feature", "properties": { "GEOID": "360471118001", "Shape_Leng": 5340.3334983769955, "Shape_Area": 890409.8946716839, "total": 2325.0, "population": 2314.0, "units_total": 453.0, "units_walk": 18.0, "pct_units_walk": 0.039735099337748346, "pop_walk_est": 91.94701986754967, "pct_pop_walk": 0.039735099337748346, "feature_type": "block_group", "station": null }, "geometry": { "type": "Polygon", "coordinates": [ [ [ -73.878870999694158, 40.670194999559996 ], [ -73.877950000309397, 40.67032700000658 ], [ -73.877027000217325, 40.670460000422061 ], [ -73.876106000086608, 40.670591000043999 ], [ -73.875180000409131, 40.670724000424912 ], [ -73.874230999918225, 40.670862999870153 ], [ -73.873915999521984, 40.669747999570731 ], [ -73.873799999455613, 40.6693350000143 ], [ -73.87284100034033, 40.668031999751911 ], [ -73.873688000355273, 40.667664999778474 ], [ -73.874781999640874, 40.669186999760214 ], [ -73.874931000430294, 40.669699999631668 ], [ -73.875793999673448, 40.669334999853255 ], [ -73.87665700025417, 40.668967999853422 ], [ -73.876766999693132, 40.668910000206601 ], [ -73.877550000376971, 40.668588000238962 ], [ -73.878377999826185, 40.668234000341656 ], [ -73.878488999621041, 40.66865500011999 ], [ -73.878870999694158, 40.670194999559996 ] ] ] } },
{ "type": "Feature", "properties": { "GEOID": "360471188003", "Shape_Leng": 3294.1853467053302, "Shape_Area": 567352.89546952094, "total": 2477.0, "population": 2500.0, "units_total": 470.0, "units_walk": 335.0, "pct_units_walk": 0.71276595744680848, "pop_walk_est": 1781.9148936170211, "pct_pop_walk": 0.71276595744680848, "feature_type": "block_group", "station": null }, "geometry": { "type": "Polygon", "coordinates": [ [ [ -73.869342000063853, 40.680190999900724 ], [ -73.868430999752846, 40.680311000085261 ], [ -73.86754099962981, 40.68042900008173 ], [ -73.867152999835923, 40.678689999677026 ], [ -73.867004000100422, 40.678712999612699 ], [ -73.866700999508055, 40.677469999596951 ], [ -73.867622000129074, 40.6773369995568 ], [ -73.868547000490892, 40.677206000363576 ], [ -73.86885499941225, 40.678445000226489 ], [ -73.868964000440243, 40.67849899955602 ], [ -73.869104000399133, 40.679116999877827 ], [ -73.869252000165403, 40.6797989996927 ], [ -73.869342000063853, 40.680190999900724 ] ] ] } },
{ "type": "Feature", "properties": { "GEOID": "360471200002", "Shape_Leng": 4945.9859197878159, "Shape_Area": 839535.25492992182, "total": 1462.0, "population": 1535.0, "units_total": 427.0, "units_walk": 420.0, "pct_units_walk": 0.98360655737704916, "pop_walk_est": 1509.8360655737704, "pct_pop_walk": 0.98360655737704916, "feature_type": "block_group", "station": null }, "geometry": { "type": "Polygon", "coordinates": [ [ [ -73.869751999711852, 40.674404000251997 ], [ -73.868835000216222, 40.674533999768357 ], [ -73.867910999430393, 40.674668999814081 ], [ -73.866992000444768, 40.674801000406156 ], [ -73.866069000144591, 40.674930000189512 ], [ -73.865147999880293, 40.675059000317681 ], [ -73.864554000488823, 40.675150999882192 ], [ -73.864132999460679, 40.674996999740998 ], [ -73.863100999818272, 40.674647999842946 ], [ -73.861763999811686, 40.674233000396271 ], [ -73.862073999981732, 40.674208000404548 ], [ -73.862992000245484, 40.6740729995538 ], [ -73.863919000029881, 40.673942000316814 ], [ -73.864899999669376, 40.6738079997832 ], [ -73.865323999671745, 40.67373799998439 ], [ -73.865754999463419, 40.673677999818274 ], [ -73.866667999998867, 40.67354400030554 ], [ -73.867602999863863, 40.67341100043047 ], [ -73.868523000368597, 40.673278999705843 ], [ -73.869447000347165, 40.673142999674617 ], [ -73.869751999711852, 40.674404000251997 ] ] ] } },
{ "type": "Feature", "properties": { "GEOID": "360471202002", "Shape_Leng": 3925.9180725265601, "Shape_Area": 622835.1996693624, "total": 680.0, "population": 525.0, "units_total": 201.0, "units_walk": 192.0, "pct_units_walk": 0.95522388059701491, "pop_walk_est": 501.49253731343282, "pct_pop_walk": 0.95522388059701491, "feature_type": "block_group", "station": null }, "geometry": { "type": "Polygon", "coordinates": [ [ [ -73.869776000122613, 40.677027000329907 ], [ -73.868867999715619, 40.677155999915321 ], [ -73.868547000490892, 40.677206000363576 ], [ -73.867622000129074, 40.6773369995568 ], [ -73.866700999508055, 40.677469999596951 ], [ -73.865777999779652, 40.677602999840509 ], [ -73.865428000239731, 40.677655999697237 ], [ -73.865109000552593, 40.677704999626464 ], [ -73.864853000237403, 40.677719999876317 ], [ -73.863908999598593, 40.677769999555146 ], [ -73.863591999886651, 40.676494000390086 ], [ -73.864537000406557, 40.676448999663819 ], [ -73.865461999576468, 40.676328999850348 ], [ -73.866101000130229, 40.676239000298601 ], [ -73.867257999981859, 40.676112999929309 ], [ -73.868380999605805, 40.676529999669214 ], [ -73.869423999687356, 40.676911999964865 ], [ -73.869776000122613, 40.677027000329907 ] ] ] } },
{ "type": "Feature", "properties": { "GEOID": "360471192001", "Shape_Leng": 3945.2987182857514, "Shape_Area": 759532.85334086698, "total": 1402.0, "population": 1103.0, "units_total": 574.0, "units_walk": 560.0, "pct_units_walk": 0.97560975609756095, "pop_walk_est": 1076.0975609756097, "pct_pop_walk": 0.97560975609756084, "feature_type": "block_group", "station": null }, "geometry": { "type": "Polygon", "coordinates": [ [ [ -73.878379000357356, 40.679741999810453 ], [ -73.877429000187746, 40.680016999654377 ], [ -73.877338999553416, 40.680055000041811 ], [ -73.876565000007858, 40.680180000417288 ], [ -73.876098999880213, 40.678248000446722 ], [ -73.87589599980501, 40.677430000145165 ], [ -73.875588000358348, 40.67618900016106 ], [ -73.876509000399878, 40.676054999668864 ], [ -73.877430999604286, 40.675923000119838 ], [ -73.877738999521952, 40.677165000150794 ], [ -73.878379000357356, 40.679741999810453 ] ] ] } },
{ "type": "Feature", "properties": { "GEOID": "360471210001", "Shape_Leng": 4121.2984897060742, "Shape_Area": 1047315.9729616849, "total": 1486.0, "population": 1582.0, "units_total": 1444.0, "units_walk": 1444.0, "pct_units_walk": 1.0, "pop_walk_est": 1582.0, "pct_pop_walk": 1.0, "feature_type": "block_group", "station": null }, "geometry": { "type": "Polygon", "coordinates": [ [ [ -73.874624000356476, 40.672388999584697 ], [ -73.873719000043252, 40.672510999579558 ], [ -73.872803000392196, 40.672643000339718 ], [ -73.872041999788735, 40.672755000145266 ], [ -73.871854000276059, 40.67278100042018 ], [ -73.871302999879319, 40.672857999961771 ], [ -73.870943000563287, 40.671335000337251 ], [ -73.870562000202924, 40.6697979996488 ], [ -73.873799999455613, 40.6693350000143 ], [ -73.873915999521984, 40.669747999570731 ], [ -73.874230999918225, 40.670862999870153 ], [ -73.874479999852227, 40.671997999663027 ], [ -73.874495999748319, 40.672069000302322 ], [ -73.874624000356476, 40.672388999584697 ] ] ] } },
{ "type": "Feature", "properties": { "GEOID": "360471192002", "Shape_Leng": 3544.3482223994542, "Shape_Area": 612749.94148537039, "total": 1602.0, "population": 1361.0, "units_total": 475.0, "units_walk": 475.0, "pct_units_walk": 1.0, "pop_walk_est": 1361.0, "pct_pop_walk": 1.0, "feature_type": "block_group", "station": null }, "geometry": { "type": "Polygon", "coordinates": [ [ [ -73.88019900021132, 40.675524999716089 ], [ -73.879275000106972, 40.675657000430995 ], [ -73.878353999974806, 40.675790000073363 ], [ -73.877430999604286, 40.675923000119838 ], [ -73.876509000399878, 40.676054999668864 ], [ -73.875588000358348, 40.67618900016106 ], [ -73.875275000291495, 40.674918000252688 ], [ -73.876192999629467, 40.674786999553405 ], [ -73.877116999736927, 40.674655000169118 ], [ -73.878036000390097, 40.674518999681702 ], [ -73.878959999737106, 40.67438400028896 ], [ -73.879881999853012, 40.674254999631493 ], [ -73.88019900021132, 40.675524999716089 ] ] ] } },
{ "type": "Feature", "properties": { "GEOID": "360471194001", "Shape_Leng": 3542.35129743163, "Shape_Area": 611509.08306558407, "total": 1404.0, "population": 1014.0, "units_total": 446.0, "units_walk": 446.0, "pct_units_walk": 1.0, "pop_walk_est": 1014.0, "pct_pop_walk": 1.0, "feature_type": "block_group", "station": null }, "geometry": { "type": "Polygon", "coordinates": [ [ [ -73.879881999853012, 40.674254999631493 ], [ -73.878959999737106, 40.67438400028896 ], [ -73.878036000390097, 40.674518999681702 ], [ -73.877116999736927, 40.674655000169118 ], [ -73.876192999629467, 40.674786999553405 ], [ -73.875275000291495, 40.674918000252688 ], [ -73.874957000435828, 40.673651000246529 ], [ -73.875879999850667, 40.673516999753815 ], [ -73.876799999499482, 40.673385000398561 ], [ -73.877722000244546, 40.673253000317771 ], [ -73.878644999745859, 40.673119999733871 ], [ -73.879568000282148, 40.672986999852675 ], [ -73.879881999853012, 40.674254999631493 ] ] ] } },
{ "type": "Feature", "properties": { "GEOID": "360471188001", "Shape_Leng": 4014.9211558915231, "Shape_Area": 749541.33712539461, "total": 1276.0, "population": 1973.0, "units_total": 376.0, "units_walk": 0.0, "pct_units_walk": 0.0, "pop_walk_est": 0.0, "pct_pop_walk": 0.0, "feature_type": "block_group", "station": null }, "geometry": { "type": "Polygon", "coordinates": [ [ [ -73.865660999952667, 40.680590000179464 ], [ -73.864677000130058, 40.680860000403676 ], [ -73.863950000546808, 40.681067000052437 ], [ -73.863787000361839, 40.681113999613714 ], [ -73.863508000124028, 40.679991999652913 ], [ -73.863349000466812, 40.679352000090006 ], [ -73.863316000223534, 40.679214000114825 ], [ -73.863281999664125, 40.679073000222324 ], [ -73.86234600039694, 40.679165000247806 ], [ -73.862027999918894, 40.677885999749421 ], [ -73.862484000073536, 40.677856999736157 ], [ -73.862971000484819, 40.677827999719796 ], [ -73.863908999598593, 40.677769999555146 ], [ -73.864853000237403, 40.677719999876317 ], [ -73.865155000267464, 40.678956999850016 ], [ -73.865366000044034, 40.678940999836222 ], [ -73.865747999706116, 40.680652000442926 ], [ -73.865660999952667, 40.680590000179464 ] ] ] } },
{ "type": "Feature", "properties": { "GEOID": "360471190002", "Shape_Leng": 3281.03272577178, "Shape_Area": 558580.7027345472, "total": 870.0, "population": 831.0, "units_total": 292.0, "units_walk": 292.0, "pct_units_walk": 1.0, "pop_walk_est": 831.0, "pct_pop_walk": 1.0, "feature_type": "block_group", "station": null }, "geometry": { "type": "Polygon", "coordinates": [ [ [ -73.871200000104693, 40.680222000367543 ], [ -73.869408000274262, 40.6804750000992 ], [ -73.869342000063853, 40.680190999900724 ], [ -73.869252000165403, 40.6797989996927 ], [ -73.869104000399133, 40.679116999877827 ], [ -73.868964000440243, 40.67849899955602 ], [ -73.86885499941225, 40.678445000226489 ], [ -73.868547000490892, 40.677206000363576 ], [ -73.868867999715619, 40.677155999915321 ], [ -73.869563000548283, 40.677392999669451 ], [ -73.870570999612568, 40.677651999726933 ], [ -73.870696000037924, 40.678181000447971 ], [ -73.870866999649735, 40.678870000385139 ], [ -73.871040000073577, 40.679543999662876 ], [ -73.871200000104693, 40.680222000367543 ] ] ] } },
{ "type": "Feature", "properties": { "GEOID": "360471210002", "Shape_Leng": 3323.350293288403, "Shape_Area": 660993.43920309038, "total": 2702.0, "population": 2468.0, "units_total": 0.0, "units_walk": 0.0, "pct_units_walk": 0.0, "pop_walk_est": 0.0, "pct_pop_walk": 0.0, "feature_type": "block_group", "station": null }, "geometry": { "type": "Polygon", "coordinates": [ [ [ -73.873799999455613, 40.6693350000143 ], [ -73.870562000202924, 40.6697979996488 ], [ -73.870132000354602, 40.668148999774225 ], [ -73.870111999669575, 40.668013999657902 ], [ -73.870891000519549, 40.667432000041785 ], [ -73.871424999664455, 40.667041000315848 ], [ -73.871688000530895, 40.666860999706024 ], [ -73.871874999854128, 40.666764000048261 ], [ -73.871945000404068, 40.666856000036404 ], [ -73.87284100034033, 40.668031999751911 ], [ -73.873799999455613, 40.6693350000143 ] ] ] } },
{ "type": "Feature", "properties": { "GEOID": "360471166002", "Shape_Leng": 3390.6092958066165, "Shape_Area": 576361.1610635448, "total": 1267.0, "population": 1187.0, "units_total": 443.0, "units_walk": 72.0, "pct_units_walk": 0.16252821670428894, "pop_walk_est": 192.92099322799098, "pct_pop_walk": 0.16252821670428894, "feature_type": "block_group", "station": null }, "geometry": { "type": "Polygon", "coordinates": [ [ [ -73.884536999894721, 40.674888999869609 ], [ -73.883722000106431, 40.675009000372022 ], [ -73.882907999798022, 40.675130000194692 ], [ -73.882022000235665, 40.675260000352687 ], [ -73.881118999442506, 40.675391999582729 ], [ -73.88019900021132, 40.675524999716089 ], [ -73.879881999853012, 40.674254999631493 ], [ -73.8808029999783, 40.674120999892459 ], [ -73.881708000203005, 40.673992000310804 ], [ -73.88258500051991, 40.673861999687396 ], [ -73.883397999526608, 40.673741000231288 ], [ -73.884214000387999, 40.673621000326627 ], [ -73.884536999894721, 40.674888999869609 ] ] ] } },
{ "type": "Feature", "properties": { "GEOID": "360471166003", "Shape_Leng": 3384.268910324628, "Shape_Area": 574490.53320190858, "total": 698.0, "population": 728.0, "units_total": 321.0, "units_walk": 36.0, "pct_units_walk": 0.11214953271028037, "pop_walk_est": 81.644859813084111, "pct_pop_walk": 0.11214953271028037, "feature_type": "block_group", "station": null }, "geometry": { "type": "Polygon", "coordinates": [ [ [ -73.884214000387999, 40.673621000326627 ], [ -73.883397999526608, 40.673741000231288 ], [ -73.88258500051991, 40.673861999687396 ], [ -73.881708000203005, 40.673992000310804 ], [ -73.8808029999783, 40.674120999892459 ], [ -73.879881999853012, 40.674254999631493 ], [ -73.879568000282148, 40.672986999852675 ], [ -73.880486999474883, 40.672854000118541 ], [ -73.881391999690251, 40.672723000272562 ], [ -73.882261000518767, 40.672595000217932 ], [ -73.883073999479365, 40.672474999919181 ], [ -73.883889000225992, 40.67235500039947 ], [ -73.883943999665576, 40.672570999619118 ], [ -73.883968000512041, 40.672664999869511 ], [ -73.884129000023222, 40.673292000439631 ], [ -73.884214000387999, 40.673621000326627 ] ] ] } },
{ "type": "Feature", "properties": { "GEOID": "360471178001", "Shape_Leng": 5876.3487119797082, "Shape_Area": 1513370.8442193435, "total": 1803.0, "population": 1703.0, "units_total": 1554.0, "units_walk": 143.0, "pct_units_walk": 0.092020592020592026, "pop_walk_est": 156.71106821106821, "pct_pop_walk": 0.092020592020592026, "feature_type": "block_group", "station": null }, "geometry": { "type": "Polygon", "coordinates": [ [ [ -73.877673999560756, 40.682086999792233 ], [ -73.876616000081938, 40.682390999773567 ], [ -73.875361000395742, 40.682749000414177 ], [ -73.874105000405805, 40.683104000163844 ], [ -73.873199000568917, 40.68336300021712 ], [ -73.873032999517207, 40.683411000121268 ], [ -73.872187000131191, 40.683648999853936 ], [ -73.871570000288372, 40.681685999695759 ], [ -73.871366999429156, 40.68089299990482 ], [ -73.871200000104693, 40.680222000367543 ], [ -73.873276000015935, 40.679921000238771 ], [ -73.873439000064977, 40.680591999570694 ], [ -73.873603999546987, 40.681121000376734 ], [ -73.874871000327374, 40.680820000293295 ], [ -73.876095999990298, 40.680456000430745 ], [ -73.876370000447167, 40.68038699961302 ], [ -73.876911000299984, 40.680236999972081 ], [ -73.877338999553416, 40.680055000041811 ], [ -73.877429000187746, 40.680016999654377 ], [ -73.877639999677541, 40.681116000406305 ], [ -73.877866999553063, 40.682039000240088 ], [ -73.877673999560756, 40.682086999792233 ] ] ] } },
{ "type": "Feature", "properties": { "GEOID": "360471188002", "Shape_Leng": 3319.8545766420971, "Shape_Area": 560085.31712515466, "total": 1464.0, "population": 815.0, "units_total": 348.0, "units_walk": 101.0, "pct_units_walk": 0.29022988505747127, "pop_walk_est": 236.5373563218391, "pct_pop_walk": 0.29022988505747127, "feature_type": "block_group", "station": null }, "geometry": { "type": "Polygon", "coordinates": [ [ [ -73.86754099962981, 40.68042900008173 ], [ -73.866650999609945, 40.68054300031126 ], [ -73.865747999706116, 40.680652000442926 ], [ -73.865366000044034, 40.678940999836222 ], [ -73.865155000267464, 40.678956999850016 ], [ -73.864853000237403, 40.677719999876317 ], [ -73.865109000552593, 40.677704999626464 ], [ -73.865428000239731, 40.677655999697237 ], [ -73.865777999779652, 40.677602999840509 ], [ -73.866700999508055, 40.677469999596951 ], [ -73.867004000100422, 40.678712999612699 ], [ -73.867152999835923, 40.678689999677026 ], [ -73.86754099962981, 40.68042900008173 ] ] ] } },
{ "type": "Feature", "properties": { "GEOID": "360471190001", "Shape_Leng": 6408.8687300520696, "Shape_Area": 955007.32487250131, "total": 996.0, "population": 1046.0, "units_total": 300.0, "units_walk": 300.0, "pct_units_walk": 1.0, "pop_walk_est": 1046.0, "pct_pop_walk": 1.0, "feature_type": "block_group", "station": null }, "geometry": { "type": "Polygon", "coordinates": [ [ [ -73.876911000299984, 40.680236999972081 ], [ -73.876370000447167, 40.68038699961302 ], [ -73.876095999990298, 40.680456000430745 ], [ -73.874871000327374, 40.680820000293295 ], [ -73.873603999546987, 40.681121000376734 ], [ -73.873439000064977, 40.680591999570694 ], [ -73.873276000015935, 40.679921000238771 ], [ -73.871200000104693, 40.680222000367543 ], [ -73.871040000073577, 40.679543999662876 ], [ -73.870866999649735, 40.678870000385139 ], [ -73.870696000037924, 40.678181000447971 ], [ -73.870570999612568, 40.677651999726933 ], [ -73.869563000548283, 40.677392999669451 ], [ -73.868867999715619, 40.677155999915321 ], [ -73.869776000122613, 40.677027000329907 ], [ -73.870439000063698, 40.677217999854953 ], [ -73.871480999866037, 40.677501000150123 ], [ -73.872586999920188, 40.677865999787493 ], [ -73.873048000329447, 40.678193999836914 ], [ -73.873210999666568, 40.678358000443225 ], [ -73.873372999470163, 40.678580999685174 ], [ -73.873796999661209, 40.679161000319567 ], [ -73.874090000526223, 40.679499999738717 ], [ -73.874384000182374, 40.679715999902179 ], [ -73.874830999977817, 40.679963000390792 ], [ -73.875177000103903, 40.680080000191481 ], [ -73.87577700058327, 40.680198999738288 ], [ -73.875991999434575, 40.680207999969213 ], [ -73.876209999423978, 40.680207999675979 ], [ -73.876565000007858, 40.680180000417288 ], [ -73.877338999553416, 40.680055000041811 ], [ -73.876911000299984, 40.680236999972081 ] ] ] } },
{ "type": "Feature", "properties": { "GEOID": "360471192003", "Shape_Leng": 4272.0569081305639, "Shape_Area": 1054354.7962848155, "total": 1010.0, "population": 1185.0, "units_total": 368.0, "units_walk": 118.0, "pct_units_walk": 0.32065217391304346, "pop_walk_est": 379.9728260869565, "pct_pop_walk": 0.32065217391304346, "feature_type": "block_group", "station": null }, "geometry": { "type": "Polygon", "coordinates": [ [ [ -73.880608999742179, 40.679111000249108 ], [ -73.880162000031561, 40.67923900036665 ], [ -73.879708999680801, 40.679370000195185 ], [ -73.879278999834369, 40.679486999550591 ], [ -73.878625000003666, 40.679677999703301 ], [ -73.878379000357356, 40.679741999810453 ], [ -73.877738999521952, 40.677165000150794 ], [ -73.877430999604286, 40.675923000119838 ], [ -73.878353999974806, 40.675790000073363 ], [ -73.879275000106972, 40.675657000430995 ], [ -73.88019900021132, 40.675524999716089 ], [ -73.880504999450466, 40.67676599969986 ], [ -73.881055999499438, 40.678983999767873 ], [ -73.880608999742179, 40.679111000249108 ] ] ] } },
{ "type": "Feature", "properties": { "GEOID": "360471194002", "Shape_Leng": 3542.6358361609518, "Shape_Area": 607448.70944960567, "total": 2572.0, "population": 2815.0, "units_total": 398.0, "units_walk": 354.0, "pct_units_walk": 0.88944723618090449, "pop_walk_est": 2503.793969849246, "pct_pop_walk": 0.88944723618090438, "feature_type": "block_group", "station": null }, "geometry": { "type": "Polygon", "coordinates": [ [ [ -73.879568000282148, 40.672986999852675 ], [ -73.878644999745859, 40.673119999733871 ], [ -73.877722000244546, 40.673253000317771 ], [ -73.876799999499482, 40.673385000398561 ], [ -73.875879999850667, 40.673516999753815 ], [ -73.874957000435828, 40.673651000246529 ], [ -73.874624000356476, 40.672388999584697 ], [ -73.875566000476525, 40.672262999985684 ], [ -73.876487000083358, 40.672130000137514 ], [ -73.877411999515346, 40.671996999881856 ], [ -73.878333000020319, 40.67186399966873 ], [ -73.879253999758589, 40.671731999761178 ], [ -73.879568000282148, 40.672986999852675 ] ] ] } },
{ "type": "Feature", "properties": { "GEOID": "360471194003", "Shape_Leng": 3753.7627576952318, "Shape_Area": 749125.53674444451, "total": 1512.0, "population": 1573.0, "units_total": 514.0, "units_walk": 284.0, "pct_units_walk": 0.55252918287937747, "pop_walk_est": 869.1284046692607, "pct_pop_walk": 0.55252918287937747, "feature_type": "block_group", "station": null }, "geometry": { "type": "Polygon", "coordinates": [ [ [ -73.879253999758589, 40.671731999761178 ], [ -73.878333000020319, 40.67186399966873 ], [ -73.877411999515346, 40.671996999881856 ], [ -73.876487000083358, 40.672130000137514 ], [ -73.875566000476525, 40.672262999985684 ], [ -73.874624000356476, 40.672388999584697 ], [ -73.874495999748319, 40.672069000302322 ], [ -73.874479999852227, 40.671997999663027 ], [ -73.874230999918225, 40.670862999870153 ], [ -73.875180000409131, 40.670724000424912 ], [ -73.876106000086608, 40.670591000043999 ], [ -73.877027000217325, 40.670460000422061 ], [ -73.877950000309397, 40.67032700000658 ], [ -73.878870999694158, 40.670194999559996 ], [ -73.879253999758589, 40.671731999761178 ] ] ] } },
{ "type": "Feature", "properties": { "GEOID": "360471196001", "Shape_Leng": 5186.4103286323179, "Shape_Area": 1227671.942052546, "total": 1564.0, "population": 1771.0, "units_total": 515.0, "units_walk": 515.0, "pct_units_walk": 1.0, "pop_walk_est": 1771.0, "pct_pop_walk": 1.0, "feature_type": "block_group", "station": null }, "geometry": { "type": "Polygon", "coordinates": [ [ [ -73.876209999423978, 40.680207999675979 ], [ -73.875991999434575, 40.680207999969213 ], [ -73.87577700058327, 40.680198999738288 ], [ -73.875177000103903, 40.680080000191481 ], [ -73.874830999977817, 40.679963000390792 ], [ -73.874384000182374, 40.679715999902179 ], [ -73.874090000526223, 40.679499999738717 ], [ -73.873796999661209, 40.679161000319567 ], [ -73.873372999470163, 40.678580999685174 ], [ -73.873210999666568, 40.678358000443225 ], [ -73.873048000329447, 40.678193999836914 ], [ -73.872586999920188, 40.677865999787493 ], [ -73.871480999866037, 40.677501000150123 ], [ -73.870439000063698, 40.677217999854953 ], [ -73.870387000522143, 40.676939000263424 ], [ -73.871306999505578, 40.676804999750459 ], [ -73.872227999427167, 40.676671999771116 ], [ -73.872986000078825, 40.676563000448134 ], [ -73.87374000038065, 40.676453999847503 ], [ -73.874665999714352, 40.676321000252003 ], [ -73.875588000358348, 40.67618900016106 ], [ -73.87589599980501, 40.677430000145165 ], [ -73.876098999880213, 40.678248000446722 ], [ -73.876565000007858, 40.680180000417288 ], [ -73.876209999423978, 40.680207999675979 ] ] ] } },
{ "type": "Feature", "properties": { "GEOID": "360471196002", "Shape_Leng": 3878.3369606960459, "Shape_Area": 690576.13244700059, "total": 1067.0, "population": 1063.0, "units_total": 433.0, "units_walk": 433.0, "pct_units_walk": 1.0, "pop_walk_est": 1063.0, "pct_pop_walk": 1.0, "feature_type": "block_group", "station": null }, "geometry": { "type": "Polygon", "coordinates": [ [ [ -73.875588000358348, 40.67618900016106 ], [ -73.874665999714352, 40.676321000252003 ], [ -73.87374000038065, 40.676453999847503 ], [ -73.872986000078825, 40.676563000448134 ], [ -73.872227999427167, 40.676671999771116 ], [ -73.871306999505578, 40.676804999750459 ], [ -73.870387000522143, 40.676939000263424 ], [ -73.870072999654781, 40.675671000012557 ], [ -73.870994999611412, 40.675536999749738 ], [ -73.871915000049626, 40.675402000207569 ], [ -73.872669999725787, 40.675296999715421 ], [ -73.873429000275337, 40.675186000335849 ], [ -73.874350999742902, 40.67505200020139 ], [ -73.875275000291495, 40.674918000252688 ], [ -73.875588000358348, 40.67618900016106 ] ] ] } },
{ "type": "Feature", "properties": { "GEOID": "360471196003", "Shape_Leng": 3878.5191691298674, "Shape_Area": 691067.9865416059, "total": 1806.0, "population": 1903.0, "units_total": 548.0, "units_walk": 548.0, "pct_units_walk": 1.0, "pop_walk_est": 1903.0, "pct_pop_walk": 1.0, "feature_type": "block_group", "station": null }, "geometry": { "type": "Polygon", "coordinates": [ [ [ -73.875275000291495, 40.674918000252688 ], [ -73.874350999742902, 40.67505200020139 ], [ -73.873429000275337, 40.675186000335849 ], [ -73.872669999725787, 40.675296999715421 ], [ -73.871915000049626, 40.675402000207569 ], [ -73.870994999611412, 40.675536999749738 ], [ -73.870072999654781, 40.675671000012557 ], [ -73.869751999711852, 40.674404000251997 ], [ -73.870678999651886, 40.67426899960239 ], [ -73.871598999802288, 40.67413399988336 ], [ -73.872355000257627, 40.674026000254351 ], [ -73.873114999774103, 40.67391600002356 ], [ -73.874035000274333, 40.673784999833536 ], [ -73.874957000435828, 40.673651000246529 ], [ -73.875275000291495, 40.674918000252688 ] ] ] } },
{ "type": "Feature", "properties": { "GEOID": "360471196004", "Shape_Leng": 3867.9651956175403, "Shape_Area": 689269.4155301922, "total": 1275.0, "population": 1871.0, "units_total": 504.0, "units_walk": 504.0, "pct_units_walk": 1.0, "pop_walk_est": 1871.0, "pct_pop_walk": 1.0, "feature_type": "block_group", "station": null }, "geometry": { "type": "Polygon", "coordinates": [ [ [ -73.874957000435828, 40.673651000246529 ], [ -73.874035000274333, 40.673784999833536 ], [ -73.873114999774103, 40.67391600002356 ], [ -73.872355000257627, 40.674026000254351 ], [ -73.871598999802288, 40.67413399988336 ], [ -73.870678999651886, 40.67426899960239 ], [ -73.869751999711852, 40.674404000251997 ], [ -73.869447000347165, 40.673142999674617 ], [ -73.870367000570099, 40.673011000417581 ], [ -73.871302999879319, 40.672857999961771 ], [ -73.871854000276059, 40.67278100042018 ], [ -73.872041999788735, 40.672755000145266 ], [ -73.872803000392196, 40.672643000339718 ], [ -73.873719000043252, 40.672510999579558 ], [ -73.874624000356476, 40.672388999584697 ], [ -73.874957000435828, 40.673651000246529 ] ] ] } },
{ "type": "Feature", "properties": { "GEOID": "360471200001", "Shape_Leng": 4308.5961279740777, "Shape_Area": 780716.29359681054, "total": 1376.0, "population": 1200.0, "units_total": 300.0, "units_walk": 300.0, "pct_units_walk": 1.0, "pop_walk_est": 1200.0, "pct_pop_walk": 1.0, "feature_type": "block_group", "station": null }, "geometry": { "type": "Polygon", "coordinates": [ [ [ -73.870439000063698, 40.677217999854953 ], [ -73.869776000122613, 40.677027000329907 ], [ -73.869423999687356, 40.676911999964865 ], [ -73.868380999605805, 40.676529999669214 ], [ -73.867257999981859, 40.676112999929309 ], [ -73.86627300034678, 40.675763999937573 ], [ -73.86521499970371, 40.675386000329475 ], [ -73.864554000488823, 40.675150999882192 ], [ -73.865147999880293, 40.675059000317681 ], [ -73.866069000144591, 40.674930000189512 ], [ -73.866992000444768, 40.674801000406156 ], [ -73.867910999430393, 40.674668999814081 ], [ -73.868835000216222, 40.674533999768357 ], [ -73.869751999711852, 40.674404000251997 ], [ -73.870072999654781, 40.675671000012557 ], [ -73.870387000522143, 40.676939000263424 ], [ -73.870439000063698, 40.677217999854953 ] ] ] } },
{ "type": "Feature", "properties": { "GEOID": "360471202001", "Shape_Leng": 5212.4621424698562, "Shape_Area": 1024575.8546045773, "total": 1345.0, "population": 1488.0, "units_total": 236.0, "units_walk": 88.0, "pct_units_walk": 0.3728813559322034, "pop_walk_est": 554.84745762711862, "pct_pop_walk": 0.3728813559322034, "feature_type": "block_group", "station": null }, "geometry": { "type": "Polygon", "coordinates": [ [ [ -73.867257999981859, 40.676112999929309 ], [ -73.866101000130229, 40.676239000298601 ], [ -73.865461999576468, 40.676328999850348 ], [ -73.864537000406557, 40.676448999663819 ], [ -73.863591999886651, 40.676494000390086 ], [ -73.863908999598593, 40.677769999555146 ], [ -73.862971000484819, 40.677827999719796 ], [ -73.862484000073536, 40.677856999736157 ], [ -73.862027999918894, 40.677885999749421 ], [ -73.861915000104048, 40.677429999721326 ], [ -73.861711999912444, 40.676610999753919 ], [ -73.861553999563696, 40.675972999564586 ], [ -73.861397000502265, 40.675335000311634 ], [ -73.861372999494208, 40.675236000186366 ], [ -73.861318000259814, 40.67502099964635 ], [ -73.861063999492373, 40.674342999938432 ], [ -73.861763999811686, 40.674233000396271 ], [ -73.863100999818272, 40.674647999842946 ], [ -73.864132999460679, 40.674996999740998 ], [ -73.864554000488823, 40.675150999882192 ], [ -73.86521499970371, 40.675386000329475 ], [ -73.86627300034678, 40.675763999937573 ], [ -73.867257999981859, 40.676112999929309 ] ] ] } },
{ "type": "Feature", "properties": { "GEOID": null, "Shape_Leng": null, "Shape_Area": null, "total": null, "population": null, "units_total": null, "units_walk": null, "pct_units_walk": null, "pop_walk_est": null, "pct_pop_walk": null, "feature_type": "isochrone", "station": "188" }, "geometry": { "type": "Polygon", "coordinates": [ [ [ -73.8712093, 40.6690479 ], [ -73.872715, 40.6690754 ], [ -73.8738804, 40.6692452 ], [ -73.880873099999988, 40.6740307 ], [ -73.880891199999979, 40.6741084 ], [ -73.8809127, 40.6742126 ], [ -73.8773646, 40.679891499999989 ], [ -73.8737313, 40.6812259 ], [ -73.8735576, 40.6812711 ], [ -73.8714249, 40.6811579 ], [ -73.869250599999987, 40.6801566 ], [ -73.8647893, 40.6777843 ], [ -73.862652, 40.676553 ], [ -73.8631065, 40.6745742 ], [ -73.8687508, 40.6699859 ], [ -73.8712093, 40.6690479 ] ] ] } }
]
}
