{
"type": "FeatureCollection",
"name": "isochrones_union_ADA",
"crs": { "type": "name", "properties": { "name": "urn:ogc:def:crs:OGC:1.3:CRS84" } },
"features": [
{ "type": "Feature", "properties": { }, "geometry": { "type": "MultiPolygon", "coordinates": [ [ [ [ -74.251354, 40.5137653 ], [ -74.248390393887803, 40.514707318187043 ], [ -74.2395105, 40.5226517 ], [ -74.2392403, 40.5228599 ], [ -74.2389013, 40.5224837 ], [ -74.23448, 40.515048 ], [ -74.239520899999988, 40.5115581 ], [ -74.2405227, 40.5115402 ], [ -74.244833926248987, 40.512137840010027 ], [ -74.2453346, 40.5099236 ], [ -74.246447, 40.5079682 ], [ -74.2465268, 40.507953 ], [ -74.2491851, 40.5084441 ], [ -74.251337, 40.5089194 ], [ -74.2524978, 40.5094739 ], [ -74.252561799999981, 40.5095064 ], [ -74.2529586, 40.5121262 ], [ -74.251478, 40.5136975 ], [ -74.251354, 40.5137653 ] ] ], [ [ [ -74.1567869, 40.5540947 ], [ -74.15669029999998, 40.5542737 ], [ -74.1531417, 40.5574049 ], [ -74.1472433, 40.5551432 ], [ -74.14616239999998, 40.5546927 ], [ -74.14607, 40.554642 ], [ -74.1437319, 40.5523093 ], [ -74.144021, 40.551024 ], [ -74.1453961, 40.5472324 ], [ -74.1483839, 40.5447777 ], [ -74.1484946, 40.5446997 ], [ -74.151452799999987, 40.5453149 ], [ -74.154489, 40.5460548 ], [ -74.1574783, 40.5468851 ], [ -74.1577793, 40.547121 ], [ -74.1577946, 40.5471654 ], [ -74.1579746, 40.5517424 ], [ -74.1567869, 40.5540947 ] ] ], [ [ [ -74.116975899999986, 40.5783499 ], [ -74.1118911, 40.5776991 ], [ -74.1112962, 40.5773873 ], [ -74.1108236, 40.5753309 ], [ -74.1104864, 40.5726437 ], [ -74.1102836, 40.5708449 ], [ -74.1103337, 40.570787 ], [ -74.110671599999989, 40.5705684 ], [ -74.116425899999982, 40.5684296 ], [ -74.118482, 40.568128 ], [ -74.121088, 40.5678554 ], [ -74.1229501, 40.5680057 ], [ -74.1230943, 40.5680914 ], [ -74.123448, 40.5693206 ], [ -74.125205199999982, 40.5758128 ], [ -74.1251342, 40.575894 ], [ -74.122883499999986, 40.5773859 ], [ -74.121398, 40.5782621 ], [ -74.116975899999986, 40.5783499 ] ] ], [ [ [ -74.0917543, 40.5934869 ], [ -74.0909925, 40.5930974 ], [ -74.090143900000015, 40.5925799 ], [ -74.0892784, 40.5867727 ], [ -74.0895338, 40.5852325 ], [ -74.0895873, 40.5851706 ], [ -74.0936105, 40.5844569 ], [ -74.094838199999984, 40.584278 ], [ -74.0977885, 40.584109 ], [ -74.0978032, 40.5841086 ], [ -74.1012729, 40.5843451 ], [ -74.1032095, 40.5867074 ], [ -74.1035181, 40.5873202 ], [ -74.1030113, 40.5909485 ], [ -74.101591, 40.593146 ], [ -74.1004594, 40.5934558 ], [ -74.093766, 40.59355 ], [ -74.0917543, 40.5934869 ] ] ], [ [ [ -74.0271946, 40.6290097 ], [ -74.0257698, 40.62948 ], [ -74.0256311, 40.6294487 ], [ -74.0216803, 40.6225436 ], [ -74.0212979, 40.6186736 ], [ -74.0213685, 40.618444599999989 ], [ -74.0312281, 40.6161299 ], [ -74.033123599999982, 40.6187377 ], [ -74.0366533, 40.6239329 ], [ -74.0365664, 40.624672799999985 ], [ -74.036538899999982, 40.6247608 ], [ -74.0364972, 40.624867599999988 ], [ -74.0363324, 40.6252705 ], [ -74.0271946, 40.6290097 ] ] ], [ [ [ -74.003689399999985, 40.6309365 ], [ -74.0035895, 40.63103370000001 ], [ -74.0029302, 40.6313887 ], [ -73.9952629, 40.6333686 ], [ -73.991692299999983, 40.6321145 ], [ -73.9915358, 40.6320222 ], [ -73.9903951, 40.6296562 ], [ -73.9894653, 40.6232628 ], [ -73.99053259999998, 40.6222389 ], [ -73.9906411, 40.6221373 ], [ -73.991387049480366, 40.621923036226107 ], [ -73.9913923, 40.6216833 ], [ -73.9917018, 40.621119 ], [ -73.9918053, 40.6210168 ], [ -73.9922999, 40.6205553 ], [ -73.9989798, 40.6188311 ], [ -74.0006233, 40.61983 ], [ -74.0007993, 40.6199435 ], [ -74.0027271, 40.6212607 ], [ -74.0037319, 40.6274612 ], [ -74.003568276842103, 40.627618281519439 ], [ -74.0037443, 40.630052 ], [ -74.003689399999985, 40.6309365 ] ] ], [ [ [ -74.0243428, 40.6386365 ], [ -74.0246083, 40.6399514 ], [ -74.0247489, 40.6417464 ], [ -74.02397, 40.64578 ], [ -74.0237584, 40.64597 ], [ -74.016001099999983, 40.6467111 ], [ -74.012674, 40.6466194 ], [ -74.0125296, 40.6465331 ], [ -74.0123924, 40.6464335 ], [ -74.0114642, 40.6404146 ], [ -74.011241157440807, 40.638894396461311 ], [ -74.0081226, 40.639146599999989 ], [ -74.0060762, 40.6389785 ], [ -74.005903599999982, 40.6388828 ], [ -74.004525299999983, 40.633325 ], [ -74.006088099999985, 40.6307125 ], [ -74.0061408, 40.630663 ], [ -74.0067975, 40.6302408 ], [ -74.0106953, 40.6297899 ], [ -74.015457699999985, 40.6297095 ], [ -74.015615299999979, 40.6298067 ], [ -74.0161092, 40.6306322 ], [ -74.0169428, 40.6351504 ], [ -74.016706099999979, 40.6356507 ], [ -74.0158823, 40.6364656 ], [ -74.015551857190218, 40.636781121851861 ], [ -74.0230077, 40.6358917 ], [ -74.0243428, 40.6386365 ] ] ], [ [ [ -74.074174899999988, 40.6460869 ], [ -74.0718309, 40.644105 ], [ -74.07051730000002, 40.6426184 ], [ -74.0759231, 40.6386141 ], [ -74.0805507, 40.6416165 ], [ -74.0806303, 40.6417636 ], [ -74.0794021, 40.6449216 ], [ -74.0788656, 40.6462652 ], [ -74.0768284, 40.6467299 ], [ -74.076601899999986, 40.6466764 ], [ -74.074174899999988, 40.6460869 ] ] ], [ [ [ -74.0191896, 40.7057291 ], [ -74.0192018, 40.7057681 ], [ -74.018782, 40.7081709 ], [ -74.018532199999981, 40.7088399 ], [ -74.018135715951942, 40.708998694606777 ], [ -74.01843, 40.7096167 ], [ -74.017132, 40.7161362 ], [ -74.016985104491283, 40.716280526317639 ], [ -74.016907, 40.7173511 ], [ -74.016844399999982, 40.7176982 ], [ -74.016756799999982, 40.7181751 ], [ -74.0136612, 40.7203758 ], [ -74.01283429999998, 40.7209042 ], [ -74.0090561, 40.722068 ], [ -74.0083491, 40.7220618 ], [ -74.007539374868017, 40.722001273069232 ], [ -74.006228199999981, 40.7237717 ], [ -74.0060363, 40.7238556 ], [ -74.0042908, 40.7240801 ], [ -74.002705775436482, 40.72419553831206 ], [ -74.003305178769367, 40.726232563855866 ], [ -74.003608699999987, 40.7261846 ], [ -74.0039191, 40.7262025 ], [ -74.005398, 40.7272187 ], [ -74.007208899999981, 40.728852 ], [ -74.0083238, 40.7303036 ], [ -74.0086944, 40.7319404 ], [ -74.0087533, 40.7325341 ], [ -74.0087196, 40.7327494 ], [ -74.0084546, 40.7334794 ], [ -74.007649474911389, 40.734433650411646 ], [ -74.0083424, 40.7348714 ], [ -74.0097838, 40.7359305 ], [ -74.0109788, 40.738345 ], [ -74.0108548, 40.7422829 ], [ -74.0107358, 40.7424329 ], [ -74.008920593669984, 40.743906881435677 ], [ -74.0087696, 40.7446574 ], [ -74.008438700000013, 40.7447576 ], [ -74.0060414, 40.7453509 ], [ -74.0003693, 40.7465698 ], [ -73.998292116456511, 40.747003126810192 ], [ -73.999760972683845, 40.750805929050806 ], [ -74.0033353, 40.7498735 ], [ -74.006421299999985, 40.7495878 ], [ -74.0065339, 40.7496332 ], [ -74.007576, 40.7524138 ], [ -74.007506400000011, 40.753795 ], [ -74.0074205, 40.7540201 ], [ -74.0071521, 40.7546987 ], [ -74.0041039, 40.7602437 ], [ -74.0039047, 40.760592 ], [ -74.0036749, 40.7608396 ], [ -73.9974973, 40.76218 ], [ -73.99722629999998, 40.762065 ], [ -73.996635847314096, 40.760680138379762 ], [ -73.9942481, 40.7615543 ], [ -73.994026, 40.7616101 ], [ -73.992763262418862, 40.761884941435291 ], [ -73.993083299999981, 40.7627073 ], [ -73.993841499999988, 40.7655635 ], [ -73.9938048, 40.7656156 ], [ -73.99059459999998, 40.7665609 ], [ -73.990371199999984, 40.7666218 ], [ -73.988480429185572, 40.767049427640046 ], [ -73.9889682, 40.7683281 ], [ -73.989007499999985, 40.7685018 ], [ -73.98895427236053, 40.7697103091961 ], [ -73.9896331, 40.7720095 ], [ -73.9895924, 40.7720673 ], [ -73.98859378953, 40.772528199398828 ], [ -73.989464799999979, 40.7746476 ], [ -73.9897808, 40.7768857 ], [ -73.9897368, 40.7770732 ], [ -73.9895896, 40.7772085 ], [ -73.987983412096483, 40.777903773893684 ], [ -73.9883218, 40.7788958 ], [ -73.9879614, 40.7814798 ], [ -73.986909499999982, 40.78222980000001 ], [ -73.9853163, 40.7831117 ], [ -73.9837377, 40.7837879 ], [ -73.9813562, 40.7843132 ], [ -73.9796351, 40.7846783 ], [ -73.977196799999987, 40.7844809 ], [ -73.9758099, 40.7812563 ], [ -73.9741224, 40.7772929 ], [ -73.9743928, 40.7747695 ], [ -73.975259260823719, 40.774404835087516 ], [ -73.974589899999984, 40.7729265 ], [ -73.975501759571642, 40.771398099722717 ], [ -73.9745932, 40.7698488 ], [ -73.974559595609932, 40.76926775996148 ], [ -73.972832093111748, 40.762184428652702 ], [ -73.972539, 40.7622503 ], [ -73.972386263211064, 40.762283123991665 ], [ -73.9729064, 40.7635823 ], [ -73.973170399999987, 40.7642614 ], [ -73.9734461, 40.7650875 ], [ -73.9723928, 40.7677423 ], [ -73.972372799999988, 40.7677726 ], [ -73.972195299999981, 40.7680098 ], [ -73.971229226228715, 40.768818243568347 ], [ -73.9715911, 40.7703063 ], [ -73.9706153, 40.7716565 ], [ -73.9704068, 40.771869 ], [ -73.9670899, 40.7726064 ], [ -73.964631, 40.7730971 ], [ -73.9616997, 40.77367 ], [ -73.96006092025479, 40.773743816423412 ], [ -73.9635248, 40.781292 ], [ -73.9630276, 40.7821631 ], [ -73.958844899999988, 40.7841106 ], [ -73.956183899999985, 40.7846658 ], [ -73.95433824699883, 40.785016373972859 ], [ -73.9547782, 40.7861995 ], [ -73.9548026, 40.786547 ], [ -73.954341199999988, 40.7871848 ], [ -73.9542085, 40.787368 ], [ -73.9538237, 40.7878968 ], [ -73.9537419, 40.7880092 ], [ -73.948198299999987, 40.7897815 ], [ -73.946039899999988, 40.7903777 ], [ -73.9425043, 40.7905284 ], [ -73.9414332, 40.7877532 ], [ -73.9411316, 40.7864928 ], [ -73.9410081, 40.7851114 ], [ -73.9410405, 40.7850458 ], [ -73.9445865, 40.7792224 ], [ -73.9446933, 40.7790739 ], [ -73.945274497249727, 40.778981869554407 ], [ -73.9450949, 40.7784944 ], [ -73.9438069, 40.774982 ], [ -73.943813599999984, 40.7746111 ], [ -73.9438916, 40.7745081 ], [ -73.9451841, 40.7741471 ], [ -73.9489198, 40.7732368 ], [ -73.9524723, 40.7723741 ], [ -73.9528932, 40.7723102 ], [ -73.952985374750099, 40.772298283744682 ], [ -73.951948099999981, 40.7695477 ], [ -73.9510157, 40.7665323 ], [ -73.9521132, 40.7653538 ], [ -73.953189, 40.7649057 ], [ -73.9555401, 40.7641866 ], [ -73.958903067193617, 40.763404283737039 ], [ -73.95808049999998, 40.7611633 ], [ -73.963233799445291, 40.759957531881604 ], [ -73.9617932, 40.7560603 ], [ -73.9619669, 40.75545540000001 ], [ -73.9623719, 40.7549568 ], [ -73.9637461, 40.7536238 ], [ -73.9647437, 40.7532862 ], [ -73.9648503, 40.753262 ], [ -73.969461217749995, 40.752273449085152 ], [ -73.968695, 40.7501297 ], [ -73.9684787, 40.7493023 ], [ -73.9683096, 40.7480478 ], [ -73.96877, 40.7475579 ], [ -73.971359, 40.7469892 ], [ -73.978046899999981, 40.7455876 ], [ -73.978110976666784, 40.7455892048268 ], [ -73.9770366, 40.7428605 ], [ -73.976069199999984, 40.7400257 ], [ -73.97613939999998, 40.7399306 ], [ -73.979051772521245, 40.739250779758315 ], [ -73.978037348139154, 40.736638994803116 ], [ -73.9750875, 40.7336016 ], [ -73.9746296, 40.7329504 ], [ -73.9738575, 40.7311712 ], [ -73.9738068, 40.7308375 ], [ -73.9740105, 40.7294689 ], [ -73.9749449, 40.7271626 ], [ -73.980847, 40.7257165 ], [ -73.983892200000014, 40.7253751 ], [ -73.9865276, 40.7256792 ], [ -73.988136809742059, 40.729195130752665 ], [ -73.988593251417413, 40.729039376154837 ], [ -73.986673, 40.7233155 ], [ -73.9869506, 40.722593 ], [ -73.98885970794133, 40.721942136029845 ], [ -73.989279199999984, 40.7216851 ], [ -73.9929573, 40.7201833 ], [ -73.993643757338376, 40.719936791178121 ], [ -73.9929634, 40.7179688 ], [ -73.992457499999986, 40.7151687 ], [ -73.9926723, 40.715056 ], [ -73.994076400000012, 40.7143439 ], [ -73.996142591891413, 40.713581733597515 ], [ -73.9958246, 40.712259099999983 ], [ -73.9958141, 40.7121906 ], [ -73.995888599999986, 40.7119323 ], [ -73.99688860000002, 40.7101172 ], [ -73.9975863, 40.7090209 ], [ -73.9996017, 40.7078062 ], [ -73.9999932, 40.70762 ], [ -74.0007167, 40.7054094 ], [ -74.0008443, 40.7053256 ], [ -74.0014483, 40.7049405 ], [ -74.0029293, 40.704154 ], [ -74.00612677728391, 40.703857721535783 ], [ -74.0064863, 40.7034073 ], [ -74.013026, 40.7005491 ], [ -74.0154503, 40.7012176 ], [ -74.0156486, 40.7013154 ], [ -74.0165278, 40.7020413 ], [ -74.0172629, 40.702856 ], [ -74.0185507, 40.7043384 ], [ -74.018908, 40.7049264 ], [ -74.0191896, 40.7057291 ] ], [ [ -73.9955062, 40.7440494 ], [ -73.995353158225441, 40.743618825626122 ], [ -73.992630601999423, 40.744174524620547 ], [ -73.992689238820034, 40.744317356872536 ], [ -73.9954338, 40.7441431 ], [ -73.996283946551657, 40.746252466429844 ], [ -73.996591544906778, 40.746197670578347 ], [ -73.995765790482281, 40.744004820630416 ], [ -73.9955062, 40.7440494 ] ] ], [ [ [ -73.9862686, 40.580682 ], [ -73.982979, 40.5838786 ], [ -73.9755689, 40.5807474 ], [ -73.9745518, 40.5801197 ], [ -73.974109199999987, 40.575065 ], [ -73.9768266, 40.5733606 ], [ -73.980456, 40.5722707 ], [ -73.9849777, 40.57257 ], [ -73.9886146, 40.5744288 ], [ -73.9899073, 40.5755946 ], [ -73.9901494, 40.575944 ], [ -73.9901826, 40.5761183 ], [ -73.990261599999982, 40.5765391 ], [ -73.9884578, 40.5784326 ], [ -73.9862686, 40.580682 ] ] ], [ [ [ -73.9881014, 40.6072669 ], [ -73.987483199999986, 40.6062612 ], [ -73.986535499999988, 40.5984368 ], [ -73.9864596, 40.5974765 ], [ -73.9864617, 40.5973484 ], [ -73.9868823, 40.597280499999989 ], [ -73.994532199999981, 40.5965098 ], [ -73.997208499999985, 40.5962459 ], [ -73.9987188, 40.5962316 ], [ -73.9996075, 40.5966065 ], [ -74.000107699999987, 40.597301 ], [ -74.000147, 40.5975468 ], [ -74.0004432, 40.6026196 ], [ -74.0006237, 40.6059099 ], [ -74.000459299999989, 40.6060854 ], [ -73.995442899999986, 40.6067031 ], [ -73.9881014, 40.6072669 ] ] ], [ [ [ -73.9837686, 40.648837 ], [ -73.9786649, 40.65042 ], [ -73.9760526, 40.64946230000001 ], [ -73.9757843, 40.6492302 ], [ -73.973044799999983, 40.6455776 ], [ -73.9730106, 40.6454061 ], [ -73.9737273, 40.6432744 ], [ -73.975848899999988, 40.6405928 ], [ -73.9783858, 40.6379577 ], [ -73.9786895, 40.6378346 ], [ -73.9788356, 40.6378209 ], [ -73.9794628, 40.6379185 ], [ -73.9840686, 40.639191 ], [ -73.9842494, 40.6392945 ], [ -73.987458899999979, 40.6430826 ], [ -73.9874911, 40.6441308 ], [ -73.9838545, 40.6488013 ], [ -73.9837686, 40.648837 ] ] ], [ [ [ -73.9858497, 40.669894 ], [ -73.978122699999986, 40.6712238 ], [ -73.9755131, 40.6716555 ], [ -73.9741438, 40.6716901 ], [ -73.9727189, 40.6673878 ], [ -73.972087300000013, 40.6624166 ], [ -73.977401, 40.6607367 ], [ -73.9802378, 40.6604027 ], [ -73.983897899999988, 40.66002 ], [ -73.984075499999989, 40.6601289 ], [ -73.9851589, 40.662777 ], [ -73.9868556, 40.6686876 ], [ -73.9868957, 40.6692493 ], [ -73.9868384, 40.6693185 ], [ -73.98677069999998, 40.6694002 ], [ -73.9858497, 40.669894 ] ] ], [ [ [ -73.983656301381487, 40.697332387408636 ], [ -73.982988, 40.6976044 ], [ -73.9804362, 40.6967932 ], [ -73.9757475, 40.6934462 ], [ -73.973061499999986, 40.6896992 ], [ -73.973026299999987, 40.689541 ], [ -73.973816305470436, 40.688287550038098 ], [ -73.9704016, 40.6862622 ], [ -73.9685762, 40.6821404 ], [ -73.9686962, 40.6818558 ], [ -73.972100899999987, 40.6784151 ], [ -73.973086, 40.6778355 ], [ -73.9733086, 40.6778088 ], [ -73.9761402, 40.6779799 ], [ -73.978758404813249, 40.678241431284555 ], [ -73.9824927, 40.6779364 ], [ -73.982822, 40.6780617 ], [ -73.9842837, 40.6802345 ], [ -73.98615136713866, 40.684684690402776 ], [ -73.9886136, 40.684194 ], [ -73.9891532, 40.6844045 ], [ -73.989247899999981, 40.6845686 ], [ -73.99014570721404, 40.686146432044822 ], [ -73.9908657, 40.686006 ], [ -73.991020300000017, 40.6860656 ], [ -73.991736328677177, 40.686888829535114 ], [ -73.9938138, 40.6864791 ], [ -73.996511399999989, 40.6900436 ], [ -73.9991897, 40.6938321 ], [ -73.9992619, 40.6939658 ], [ -73.998332942577377, 40.694664794408205 ], [ -73.9982724, 40.6954341 ], [ -73.9977605, 40.6964919 ], [ -73.9953664, 40.69815890000001 ], [ -73.9911357, 40.6999518 ], [ -73.9898595, 40.7000614 ], [ -73.989590100000015, 40.7000502 ], [ -73.9883205, 40.6992238 ], [ -73.987857814882801, 40.698873945961232 ], [ -73.986975299999983, 40.6992847 ], [ -73.986860399999983, 40.6992284 ], [ -73.98665219999998, 40.6991126 ], [ -73.985137780996325, 40.697945066063667 ], [ -73.9841244, 40.6976521 ], [ -73.983656301381487, 40.697332387408636 ] ] ], [ [ [ -73.9498908, 40.6114803 ], [ -73.9496861, 40.6112857 ], [ -73.9502131, 40.6090644 ], [ -73.9545328, 40.603866 ], [ -73.9552883, 40.6036185 ], [ -73.9573518, 40.6033921 ], [ -73.960465099999979, 40.6030525 ], [ -73.9606245, 40.6030394 ], [ -73.966615399999981, 40.6056982 ], [ -73.9670923, 40.6073681 ], [ -73.9653307, 40.6097734 ], [ -73.9626915, 40.6125075 ], [ -73.959522199999981, 40.6157118 ], [ -73.9539407, 40.6136072 ], [ -73.9498908, 40.6114803 ] ] ], [ [ [ -73.960506399999986, 40.6354171 ], [ -73.9603334, 40.6353197 ], [ -73.955318311018289, 40.632481010861902 ], [ -73.954491899999979, 40.6357884 ], [ -73.9533548, 40.6383475 ], [ -73.948528, 40.6399183 ], [ -73.9483031, 40.6399293 ], [ -73.9452964, 40.6380709 ], [ -73.94315229999998, 40.6366581 ], [ -73.9400404, 40.6345665 ], [ -73.9388606, 40.6322811 ], [ -73.9417333, 40.627398 ], [ -73.9430133, 40.6271256 ], [ -73.9430796, 40.6271178 ], [ -73.9440967, 40.6270019 ], [ -73.9449353, 40.6269096 ], [ -73.9467428, 40.6267109 ], [ -73.9477797, 40.6266043 ], [ -73.9479497, 40.6265922 ], [ -73.9538118, 40.6301298 ], [ -73.9557199, 40.6281663 ], [ -73.9603691, 40.6252114 ], [ -73.962222699999984, 40.6250114 ], [ -73.9623916, 40.6249938 ], [ -73.968784, 40.628473 ], [ -73.968989599999986, 40.629148 ], [ -73.969020599999979, 40.6293067 ], [ -73.966897099999983, 40.6321534 ], [ -73.9657759, 40.6328963 ], [ -73.9612296, 40.6350792 ], [ -73.960506399999986, 40.6354171 ] ] ], [ [ [ -73.9502151, 40.6578454 ], [ -73.942973899999984, 40.6531363 ], [ -73.940116299999985, 40.6512714 ], [ -73.94705, 40.6451729 ], [ -73.9479075, 40.6444199 ], [ -73.9487137, 40.6437769 ], [ -73.9488141, 40.6437709 ], [ -73.9497764, 40.6443436 ], [ -73.9507893, 40.6449467 ], [ -73.958805600000019, 40.6502762 ], [ -73.958827, 40.65035 ], [ -73.9588478, 40.6504355 ], [ -73.95663949999998, 40.6526958 ], [ -73.9504415, 40.6578309 ], [ -73.9502151, 40.6578454 ] ] ], [ [ [ -73.9709989, 40.6753976 ], [ -73.9696113, 40.6760072 ], [ -73.9660479, 40.6771507 ], [ -73.965853078102683, 40.67718102021071 ], [ -73.9637981, 40.6785758 ], [ -73.962329913822714, 40.678960971886447 ], [ -73.9659359, 40.6831964 ], [ -73.9659718, 40.6833807 ], [ -73.9641419, 40.6847375 ], [ -73.9598221, 40.6874662 ], [ -73.959810299999987, 40.6874731 ], [ -73.9596352, 40.6874933 ], [ -73.9571007, 40.6877855 ], [ -73.956877, 40.6876789 ], [ -73.9546505, 40.686434 ], [ -73.9504227, 40.6840672 ], [ -73.950068499999986, 40.6833567 ], [ -73.949941158229194, 40.683024886648333 ], [ -73.9475603, 40.6784982 ], [ -73.947564799999981, 40.6784386 ], [ -73.949751, 40.6768046 ], [ -73.950849586748319, 40.676227617996204 ], [ -73.949893799999984, 40.6752869 ], [ -73.9500654, 40.6734166 ], [ -73.950074699999988, 40.6733503 ], [ -73.950350199999988, 40.6726137 ], [ -73.953097, 40.6708325 ], [ -73.9585449, 40.6688148 ], [ -73.959603092119409, 40.667971910567204 ], [ -73.95904849999998, 40.6679827 ], [ -73.9588587, 40.667941 ], [ -73.953969699999988, 40.6636173 ], [ -73.95384, 40.6633791 ], [ -73.9536847, 40.6630469 ], [ -73.953681399999979, 40.6630213 ], [ -73.953666499999983, 40.6628889 ], [ -73.9534938, 40.6613211 ], [ -73.9536437, 40.6605845 ], [ -73.959712, 40.6549178 ], [ -73.9598286, 40.6549101 ], [ -73.9679169, 40.6583302 ], [ -73.968401900000018, 40.662629 ], [ -73.967770799999983, 40.6651518 ], [ -73.966238882900171, 40.667734262559151 ], [ -73.971866, 40.6707391 ], [ -73.9728401, 40.6735258 ], [ -73.9709989, 40.6753976 ] ] ], [ [ [ -73.965570899999989, 40.7106039 ], [ -73.965488099999988, 40.7109807 ], [ -73.965442, 40.7110978 ], [ -73.9650131, 40.7117617 ], [ -73.9625922, 40.7126165 ], [ -73.962269287736007, 40.712715377552954 ], [ -73.963155799999981, 40.7143893 ], [ -73.9631589, 40.7144021 ], [ -73.9635321, 40.7167474 ], [ -73.9638039, 40.7210695 ], [ -73.962977399999986, 40.7217964 ], [ -73.9519997, 40.7226342 ], [ -73.949981699999981, 40.7221883 ], [ -73.9498896, 40.7220832 ], [ -73.949541645729525, 40.720696050242346 ], [ -73.9455555, 40.719638 ], [ -73.943742101817421, 40.717938123936065 ], [ -73.9433843, 40.7182869 ], [ -73.9407644, 40.71853 ], [ -73.936771199999981, 40.7164483 ], [ -73.9333366, 40.7144659 ], [ -73.932823699999986, 40.7138832 ], [ -73.9325433, 40.7133151 ], [ -73.934771, 40.709546 ], [ -73.938656487707505, 40.705680881325762 ], [ -73.9327603, 40.7030628 ], [ -73.9328156, 40.702522 ], [ -73.933387599999989, 40.6976579 ], [ -73.933721299999988, 40.6962246 ], [ -73.9346345, 40.6954791 ], [ -73.9372386, 40.6944294 ], [ -73.9400085, 40.6933639 ], [ -73.9402137, 40.6933393 ], [ -73.9452076, 40.6959248 ], [ -73.950189, 40.6996945 ], [ -73.948313, 40.7039314 ], [ -73.9480801, 40.7043581 ], [ -73.9478554, 40.7047203 ], [ -73.946138199999979, 40.7055273 ], [ -73.9431982, 40.7066602 ], [ -73.942811287540295, 40.706696723079325 ], [ -73.944915699999981, 40.7078647 ], [ -73.945104599999979, 40.7079731 ], [ -73.946372469413348, 40.708750172373563 ], [ -73.9468598, 40.7083994 ], [ -73.9477386, 40.7077875 ], [ -73.94821, 40.7075402 ], [ -73.9483854, 40.70752130000001 ], [ -73.948514871254389, 40.707563437662877 ], [ -73.949647821155992, 40.706564221004584 ], [ -73.9494817, 40.7051355 ], [ -73.9538275, 40.7030854 ], [ -73.9569992, 40.7029767 ], [ -73.9598737, 40.7028784 ], [ -73.9606861, 40.7028871 ], [ -73.9635984, 40.7035504 ], [ -73.9636721, 40.7036133 ], [ -73.964209899999986, 40.7041417 ], [ -73.9660522, 40.7073196 ], [ -73.966027399999987, 40.7082712 ], [ -73.96591979999998, 40.7088567 ], [ -73.965570899999989, 40.7106039 ] ] ], [ [ [ -73.956551200000021, 40.7374283 ], [ -73.9557043, 40.7378933 ], [ -73.955239399999982, 40.7380956 ], [ -73.952559, 40.7369048 ], [ -73.9499895, 40.735319 ], [ -73.946551699999986, 40.7314749 ], [ -73.9473356, 40.7300395 ], [ -73.9485307, 40.728411 ], [ -73.9504174, 40.7259568 ], [ -73.9507617, 40.7256918 ], [ -73.9508417, 40.7256626 ], [ -73.9517863, 40.7253464 ], [ -73.9525656, 40.725247 ], [ -73.9552496, 40.7261916 ], [ -73.9573408, 40.72696830000001 ], [ -73.9625074, 40.7297559 ], [ -73.9619696, 40.7323158 ], [ -73.9592277, 40.7350825 ], [ -73.9586404, 40.7356129 ], [ -73.956551200000021, 40.7374283 ] ] ], [ [ [ -73.9500619, 40.7560375 ], [ -73.9491933, 40.7571628 ], [ -73.947930199999988, 40.7578466 ], [ -73.943314799999982, 40.7590906 ], [ -73.9375349, 40.7601287 ], [ -73.9374453, 40.7600881 ], [ -73.9369753, 40.759875 ], [ -73.936188973560647, 40.755863944453111 ], [ -73.9358284, 40.755909699999989 ], [ -73.9350494, 40.7555056 ], [ -73.934909, 40.7554297 ], [ -73.934565733984456, 40.754603871419057 ], [ -73.9335843, 40.7547167 ], [ -73.933444499999979, 40.7546433 ], [ -73.9328103, 40.7543081 ], [ -73.931963300000021, 40.7538592 ], [ -73.9303515, 40.752994 ], [ -73.9297231, 40.7525611 ], [ -73.929701399999985, 40.7524631 ], [ -73.930108499999989, 40.7468949 ], [ -73.9306513, 40.7447043 ], [ -73.9308742, 40.7444162 ], [ -73.9339286, 40.7429656 ], [ -73.9340692, 40.7429815 ], [ -73.937039442543778, 40.743699479092214 ], [ -73.937551499999984, 40.74339 ], [ -73.947255456606428, 40.742205410973114 ], [ -73.9495193, 40.7416251 ], [ -73.951881, 40.7428182 ], [ -73.9525012, 40.7431637 ], [ -73.9530631, 40.7454797 ], [ -73.953121950485993, 40.746612495956107 ], [ -73.9543388, 40.7494155 ], [ -73.9522616, 40.7505913 ], [ -73.949130776762999, 40.752174662708747 ], [ -73.9500619, 40.7560375 ] ] ], [ [ [ -73.947336, 40.7643188 ], [ -73.9470626, 40.7634297 ], [ -73.9475358, 40.7628382 ], [ -73.9523911, 40.7569275 ], [ -73.952488099999982, 40.756818 ], [ -73.9525825, 40.75671160000001 ], [ -73.956155099999989, 40.753811 ], [ -73.9583623, 40.753528 ], [ -73.958421299999983, 40.7536468 ], [ -73.95756609999998, 40.7549466 ], [ -73.9541219, 40.7588504 ], [ -73.9509316, 40.7624006 ], [ -73.9483162, 40.7650942 ], [ -73.9481687, 40.765107 ], [ -73.947336, 40.7643188 ] ] ], [ [ [ -73.9790861, 40.7930389 ], [ -73.979129499999985, 40.7943536 ], [ -73.9787354, 40.7949007 ], [ -73.9743746, 40.7987512 ], [ -73.9726641, 40.7991688 ], [ -73.9697987, 40.7997171 ], [ -73.968383299999985, 40.7999386 ], [ -73.967973500000014, 40.799765 ], [ -73.96696, 40.7985238 ], [ -73.9665659, 40.7975373 ], [ -73.964986599999989, 40.7934528 ], [ -73.96433, 40.791413 ], [ -73.9655499, 40.790266 ], [ -73.970135, 40.7890628 ], [ -73.970374899999982, 40.7890051 ], [ -73.974433599999983, 40.7882666 ], [ -73.9763932, 40.7881415 ], [ -73.9765143, 40.7881939 ], [ -73.9767865, 40.7883144 ], [ -73.977532499999981, 40.7895617 ], [ -73.9787197, 40.7917445 ], [ -73.9787594, 40.7918335 ], [ -73.978975599999984, 40.7924433 ], [ -73.9790861, 40.7930389 ] ] ], [ [ [ -73.960130699999979, 40.8123242 ], [ -73.9599411, 40.8137861 ], [ -73.9583613, 40.815984899999989 ], [ -73.9577687, 40.8162318 ], [ -73.952305699999982, 40.8171725 ], [ -73.952195, 40.817185 ], [ -73.948365371938536, 40.817121874265517 ], [ -73.948364, 40.8172146 ], [ -73.948289, 40.8173272 ], [ -73.947780300000019, 40.8179834 ], [ -73.936482199999986, 40.8204219 ], [ -73.9361492, 40.8202816 ], [ -73.9347009, 40.8165439 ], [ -73.9341955, 40.8142114 ], [ -73.9345793, 40.8101608 ], [ -73.936259715212202, 40.809800134308915 ], [ -73.9359554, 40.8096696 ], [ -73.9355855, 40.8094611 ], [ -73.9351556, 40.8092046 ], [ -73.9313055, 40.8034994 ], [ -73.9307963, 40.8026118 ], [ -73.931003799999985, 40.8018194 ], [ -73.9313837, 40.8004419 ], [ -73.931423099999989, 40.800388 ], [ -73.9316474, 40.800236 ], [ -73.9326483, 40.7997827 ], [ -73.9420799, 40.7980133 ], [ -73.9443876, 40.8032398 ], [ -73.945605472384784, 40.807324262725004 ], [ -73.9457669, 40.8071017 ], [ -73.9458645, 40.8069737 ], [ -73.952175, 40.8040384 ], [ -73.952582799999988, 40.804065 ], [ -73.9554376, 40.8043253 ], [ -73.9567963, 40.8049002 ], [ -73.956893, 40.804942 ], [ -73.9569887, 40.8049834 ], [ -73.9581588, 40.8068322 ], [ -73.958349499999983, 40.8073074 ], [ -73.960130699999979, 40.8123242 ] ], [ [ -73.944876141385038, 40.808329793238002 ], [ -73.945188216355007, 40.807899536544426 ], [ -73.941371282250998, 40.808784830679215 ], [ -73.944876141385038, 40.808329793238002 ] ] ], [ [ [ -73.8978103, 40.6482165 ], [ -73.8977355, 40.6481424 ], [ -73.897653299999988, 40.6480607 ], [ -73.8982787, 40.6422749 ], [ -73.8986448, 40.6420128 ], [ -73.8988661, 40.6418665 ], [ -73.899238200000013, 40.6417408 ], [ -73.9067502, 40.6422027 ], [ -73.90911269999998, 40.6432202 ], [ -73.90894849999998, 40.6449095 ], [ -73.9084167, 40.6495043 ], [ -73.9075825, 40.6500494 ], [ -73.9056962, 40.6512762 ], [ -73.902070399999985, 40.6509552 ], [ -73.8978103, 40.6482165 ] ] ], [ [ [ -73.9012117, 40.6698597 ], [ -73.9001195, 40.670015 ], [ -73.8980416, 40.6690421 ], [ -73.893386699999979, 40.6665348 ], [ -73.8933659, 40.6664577 ], [ -73.8933495, 40.6663946 ], [ -73.8964305, 40.6627331 ], [ -73.8980005, 40.661051 ], [ -73.8987254, 40.6608033 ], [ -73.8988924, 40.6607786 ], [ -73.8995841, 40.6606787 ], [ -73.902062, 40.6619741 ], [ -73.9042739, 40.663176 ], [ -73.9053753, 40.6661754 ], [ -73.905398799999986, 40.6662643 ], [ -73.9036939, 40.6681996 ], [ -73.9019508, 40.6697455 ], [ -73.9012117, 40.6698597 ] ] ], [ [ [ -73.940931, 40.671126 ], [ -73.938305, 40.6728877 ], [ -73.934777257854549, 40.675132906652735 ], [ -73.9361084, 40.6760617 ], [ -73.938142699999986, 40.67792450000001 ], [ -73.9398871, 40.679865 ], [ -73.939888, 40.679959 ], [ -73.9397064, 40.6802037 ], [ -73.9327526, 40.6859557 ], [ -73.932570299999981, 40.6859769 ], [ -73.9295492, 40.6849607 ], [ -73.92334959999998, 40.6817364 ], [ -73.9214407, 40.6789495 ], [ -73.9215564, 40.6787757 ], [ -73.927682, 40.6748171 ], [ -73.930530399999981, 40.6740758 ], [ -73.930729852928621, 40.674086527345125 ], [ -73.9302147, 40.6736672 ], [ -73.9254178, 40.6694813 ], [ -73.9251505, 40.6682148 ], [ -73.926113, 40.666929 ], [ -73.9292641, 40.6651818 ], [ -73.9332502, 40.6630807 ], [ -73.9343555, 40.6625038 ], [ -73.934584, 40.6624923 ], [ -73.939682100000013, 40.6665129 ], [ -73.942309, 40.6691451 ], [ -73.9422764, 40.6695481 ], [ -73.9422647, 40.6696862 ], [ -73.9421099, 40.6702994 ], [ -73.9420156, 40.6703915 ], [ -73.940931, 40.671126 ] ] ], [ [ [ -73.9035495, 40.6929527 ], [ -73.9028025, 40.692524 ], [ -73.902732499999985, 40.6924791 ], [ -73.9024774, 40.6921613 ], [ -73.9014109, 40.6885833 ], [ -73.9014891, 40.6881807 ], [ -73.901591, 40.6877515 ], [ -73.9061102, 40.6848764 ], [ -73.9086419, 40.6839831 ], [ -73.909873499999989, 40.6839344 ], [ -73.9099206, 40.6839612 ], [ -73.9101303, 40.6848368 ], [ -73.911124799999982, 40.6900134 ], [ -73.9111797, 40.6923435 ], [ -73.911066, 40.6924592 ], [ -73.9081098, 40.6930819 ], [ -73.9044144, 40.6932597 ], [ -73.9035495, 40.6929527 ] ] ], [ [ [ -73.920093899999983, 40.7023588 ], [ -73.9186344, 40.703843 ], [ -73.9185172, 40.7039531 ], [ -73.9140368, 40.7046635 ], [ -73.9063732, 40.7053788 ], [ -73.9062421, 40.7053047 ], [ -73.90563010000001, 40.7049427 ], [ -73.905495299999984, 40.7048629 ], [ -73.902807399999986, 40.7014672 ], [ -73.902546199999989, 40.7004154 ], [ -73.903835, 40.6955406 ], [ -73.906592881507294, 40.695224435225619 ], [ -73.9071786, 40.6950125 ], [ -73.9074271, 40.69497770000001 ], [ -73.9140747, 40.694171 ], [ -73.9177562, 40.6937828 ], [ -73.9178867, 40.693865700000011 ], [ -73.9183949, 40.6943272 ], [ -73.921465499999982, 40.6983705 ], [ -73.92148779999998, 40.6984045 ], [ -73.921451799999986, 40.6985659 ], [ -73.9210029, 40.7002314 ], [ -73.9201965, 40.7022444 ], [ -73.920093899999983, 40.7023588 ] ] ], [ [ [ -73.9148022, 40.7537979 ], [ -73.913537099999985, 40.7563144 ], [ -73.913425099999984, 40.7564598 ], [ -73.912811499999989, 40.7572023 ], [ -73.910358499999987, 40.7580732 ], [ -73.9097057, 40.7582872 ], [ -73.9065093, 40.7593272 ], [ -73.904921799999983, 40.7588852 ], [ -73.8972425, 40.7543221 ], [ -73.8972185, 40.7541963 ], [ -73.8972583, 40.7523523 ], [ -73.897528306173484, 40.751318649748882 ], [ -73.8935628, 40.7533132 ], [ -73.893405199999989, 40.7533285 ], [ -73.8914782, 40.7531587 ], [ -73.8883379, 40.7514911 ], [ -73.8853354, 40.7497265 ], [ -73.8825369, 40.7478819 ], [ -73.8825003, 40.7477107 ], [ -73.8825, 40.7476971 ], [ -73.8826654, 40.745227 ], [ -73.8838685, 40.7433049 ], [ -73.8874326, 40.7410372 ], [ -73.8898906, 40.7400745 ], [ -73.892567199999988, 40.7412244 ], [ -73.8956541, 40.7425984 ], [ -73.8957900905976, 40.742695765480207 ], [ -73.899480399999987, 40.7409356 ], [ -73.899736, 40.7408577 ], [ -73.902924499999983, 40.7399514 ], [ -73.9033501, 40.739885 ], [ -73.9077123, 40.7410533 ], [ -73.912381, 40.7442995 ], [ -73.912506399999984, 40.7460233 ], [ -73.9107911, 40.7480924 ], [ -73.910525007502372, 40.748338997558555 ], [ -73.9141115, 40.7522899 ], [ -73.9148338, 40.7535671 ], [ -73.9148022, 40.7537979 ] ] ], [ [ [ -73.923989799999987, 40.7747518 ], [ -73.9217769, 40.7749706 ], [ -73.9163301, 40.7751377 ], [ -73.9138471, 40.7751736 ], [ -73.9122171, 40.7747379 ], [ -73.911914899999985, 40.7744475 ], [ -73.9115015, 40.7739401 ], [ -73.911444, 40.7738695 ], [ -73.910957, 40.7730838 ], [ -73.909510499999982, 40.770028 ], [ -73.9089746, 40.768465 ], [ -73.91409, 40.7657614 ], [ -73.917268399999983, 40.7650674 ], [ -73.9232684, 40.7643922 ], [ -73.9262529, 40.7716422 ], [ -73.9264316, 40.7722568 ], [ -73.9264386, 40.7722977 ], [ -73.9264449, 40.7723632 ], [ -73.9242071, 40.7746198 ], [ -73.9240994, 40.7746862 ], [ -73.923989799999987, 40.7747518 ] ] ], [ [ [ -73.9243607, 40.811348 ], [ -73.9256141, 40.8120563 ], [ -73.9263684, 40.8183301 ], [ -73.924042300000011, 40.8192967 ], [ -73.9215954, 40.8202217 ], [ -73.914957, 40.8223395 ], [ -73.914843, 40.822305 ], [ -73.913215, 40.821807 ], [ -73.912168, 40.821486 ], [ -73.908945952189299, 40.816136830101222 ], [ -73.9050078, 40.8178792 ], [ -73.902107, 40.818505 ], [ -73.8970923, 40.8150126 ], [ -73.896475, 40.8142528 ], [ -73.8956333, 40.812002 ], [ -73.9008213, 40.8066386 ], [ -73.9023486, 40.8056269 ], [ -73.9085969, 40.8063957 ], [ -73.910712299999986, 40.8088028 ], [ -73.9117626, 40.810613 ], [ -73.912318975897335, 40.811978576761959 ], [ -73.921848699999984, 40.8103034 ], [ -73.9219673, 40.8103522 ], [ -73.9243607, 40.811348 ] ] ], [ [ [ -73.923184599999985, 40.8345693 ], [ -73.9239831, 40.8350475 ], [ -73.925268, 40.840176 ], [ -73.925487, 40.841771 ], [ -73.9230914, 40.8439982 ], [ -73.9181767, 40.8462517 ], [ -73.916781200000017, 40.846583699999989 ], [ -73.9133221, 40.8461011 ], [ -73.910519099999988, 40.8403184 ], [ -73.909882, 40.838709 ], [ -73.909292799999989, 40.8371137 ], [ -73.9097405, 40.8367964 ], [ -73.9212376, 40.8338405 ], [ -73.921864428215486, 40.834053004079983 ], [ -73.9194625, 40.8304788 ], [ -73.9179306, 40.8265285 ], [ -73.9184066, 40.825437 ], [ -73.9187993, 40.8247321 ], [ -73.9253949, 40.8223204 ], [ -73.928695499999989, 40.8216604 ], [ -73.9291648, 40.8217711 ], [ -73.9301948, 40.8233366 ], [ -73.9330874, 40.8281577 ], [ -73.931818600000014, 40.8317003 ], [ -73.9232297, 40.8344483 ], [ -73.922835690645442, 40.834423884752262 ], [ -73.923184599999985, 40.8345693 ] ] ], [ [ [ -73.942148525315503, 40.851447316477731 ], [ -73.9418189, 40.8523089 ], [ -73.9361731, 40.8580318 ], [ -73.9345972, 40.8586564 ], [ -73.934341299999986, 40.8582888 ], [ -73.93207529999998, 40.8536164 ], [ -73.9317792, 40.8493342 ], [ -73.931825, 40.8492703 ], [ -73.9318628, 40.8492183 ], [ -73.932753356863969, 40.848004330885168 ], [ -73.9319232, 40.8456491 ], [ -73.933732882574773, 40.843706896190739 ], [ -73.9334356, 40.8417688 ], [ -73.9376044, 40.8349583 ], [ -73.937751, 40.834889 ], [ -73.939193599999982, 40.8342246 ], [ -73.9409937, 40.8340603 ], [ -73.9411475, 40.8340575 ], [ -73.944227, 40.8353321 ], [ -73.9447044, 40.8363642 ], [ -73.945543, 40.839232 ], [ -73.9455129, 40.8399401 ], [ -73.9453361, 40.8415024 ], [ -73.943313522105754, 40.845054205409127 ], [ -73.943652899999989, 40.8493543 ], [ -73.942148525315503, 40.851447316477731 ] ] ], [ [ [ -73.907648, 40.854765 ], [ -73.9016921, 40.8563637 ], [ -73.9005249, 40.8560402 ], [ -73.900498, 40.856031 ], [ -73.8991835, 40.8541154 ], [ -73.8988704, 40.8521755 ], [ -73.8991868, 40.8473517 ], [ -73.899226399999989, 40.8472795 ], [ -73.8993612, 40.8471975 ], [ -73.9038539, 40.8451628 ], [ -73.905774799999989, 40.8446517 ], [ -73.907574499999981, 40.8447427 ], [ -73.91045339999998, 40.8453799 ], [ -73.9113198, 40.8458239 ], [ -73.9119903, 40.8482313 ], [ -73.9125849, 40.8518353 ], [ -73.9093597, 40.8540378 ], [ -73.907648, 40.854765 ] ] ], [ [ [ -73.9288615, 40.8667376 ], [ -73.9287809, 40.8667913 ], [ -73.9286975, 40.8668466 ], [ -73.927895770896455, 40.866744732541818 ], [ -73.9240853, 40.8733471 ], [ -73.9239447, 40.8735372 ], [ -73.9198094, 40.8740587 ], [ -73.912848, 40.8723804 ], [ -73.9124477, 40.8722503 ], [ -73.91221, 40.870492 ], [ -73.9127171, 40.8694612 ], [ -73.9158603, 40.8631901 ], [ -73.917648014321799, 40.86256132394039 ], [ -73.9175729, 40.8619577 ], [ -73.9184565, 40.8601061 ], [ -73.9238433, 40.8554566 ], [ -73.9295207, 40.8548559 ], [ -73.9296932, 40.85484120000001 ], [ -73.9298216, 40.8548968 ], [ -73.931286, 40.8570263 ], [ -73.9319273, 40.8583743 ], [ -73.9319252, 40.8586617 ], [ -73.9298298, 40.865811 ], [ -73.9297622, 40.8659003 ], [ -73.9288615, 40.8667376 ] ] ], [ [ [ -73.901466099999979, 40.8683832 ], [ -73.8997016, 40.8700417 ], [ -73.893919346177512, 40.871567316359567 ], [ -73.894237799999985, 40.8755466 ], [ -73.8941709, 40.8756331 ], [ -73.894103099999981, 40.8757206 ], [ -73.8912227, 40.8777902 ], [ -73.8857953, 40.8797016 ], [ -73.88444149999998, 40.8795601 ], [ -73.87999, 40.87327 ], [ -73.880684, 40.8709167 ], [ -73.8808682, 40.8703101 ], [ -73.8817796, 40.8684035 ], [ -73.8818517, 40.8683583 ], [ -73.8835024, 40.8673329 ], [ -73.883625, 40.867258 ], [ -73.886673770861023, 40.867432664048835 ], [ -73.88657139999998, 40.8666551 ], [ -73.886664699999983, 40.8653776 ], [ -73.8894028, 40.8629803 ], [ -73.8900711, 40.8624787 ], [ -73.891311099999982, 40.8617587 ], [ -73.892468789104086, 40.861316950280454 ], [ -73.8927848, 40.8603022 ], [ -73.893035199999986, 40.859893 ], [ -73.893169299999983, 40.8597539 ], [ -73.896363, 40.858376 ], [ -73.899735399999983, 40.8574251 ], [ -73.902779, 40.856734 ], [ -73.905095099999983, 40.8564246 ], [ -73.9052296, 40.8564705 ], [ -73.907359, 40.85879 ], [ -73.910179099999979, 40.8622729 ], [ -73.9088882, 40.8640883 ], [ -73.9029497, 40.8678838 ], [ -73.901433851803034, 40.868194133791796 ], [ -73.901453, 40.8682582 ], [ -73.901466099999979, 40.8683832 ] ] ], [ [ [ -73.900793199999981, 40.8851235 ], [ -73.9006455, 40.885082 ], [ -73.9005655, 40.8850592 ], [ -73.89891369999998, 40.8830569 ], [ -73.89785, 40.879932 ], [ -73.897849199999982, 40.8786688 ], [ -73.8979961, 40.8784037 ], [ -73.8994308, 40.8765996 ], [ -73.9002002, 40.875649 ], [ -73.9027457, 40.8739866 ], [ -73.907232, 40.8723057 ], [ -73.9105305, 40.8741489 ], [ -73.9123099, 40.8794871 ], [ -73.910484299999979, 40.8831224 ], [ -73.9095631, 40.8837244 ], [ -73.9010845, 40.8851091 ], [ -73.9008548, 40.8851408 ], [ -73.900793199999981, 40.8851235 ] ] ], [ [ [ -73.831553099999979, 40.5842883 ], [ -73.8293248, 40.5841683 ], [ -73.82768249999998, 40.5829023 ], [ -73.8287505, 40.581032 ], [ -73.828920599999989, 40.5807888 ], [ -73.8292293, 40.580629 ], [ -73.8358917, 40.5778265 ], [ -73.8361668, 40.5777391 ], [ -73.840652, 40.5788016 ], [ -73.8432142, 40.579702 ], [ -73.8432654, 40.5797721 ], [ -73.8441193, 40.5814271 ], [ -73.8441566, 40.5815111 ], [ -73.8439709, 40.5815833 ], [ -73.831553099999979, 40.5842883 ] ] ], [ [ [ -73.7966259, 40.5969942 ], [ -73.7965228, 40.597000199999989 ], [ -73.789062, 40.5932111 ], [ -73.7889403, 40.5930606 ], [ -73.788951, 40.5921369 ], [ -73.7895122, 40.5906429 ], [ -73.7934332, 40.5877202 ], [ -73.7939717, 40.5876136 ], [ -73.7963958, 40.5871468 ], [ -73.8008328, 40.5863337 ], [ -73.801357199999984, 40.5862731 ], [ -73.8032402, 40.5873565 ], [ -73.8042673, 40.5882345 ], [ -73.8054165, 40.5898579 ], [ -73.8053597, 40.5904261 ], [ -73.805342, 40.590558 ], [ -73.8040277, 40.5924277 ], [ -73.7985589, 40.5968816 ], [ -73.7966259, 40.5969942 ] ] ], [ [ [ -73.757712, 40.6088342 ], [ -73.755820699999987, 40.6095767 ], [ -73.7533865, 40.6105239 ], [ -73.753147199999987, 40.6106142 ], [ -73.7513426, 40.6092526 ], [ -73.749580199999983, 40.6072759 ], [ -73.749538099999981, 40.6071831 ], [ -73.7487464, 40.6028764 ], [ -73.748810399999982, 40.6019847 ], [ -73.7536773, 40.6006454 ], [ -73.7584965, 40.6002838 ], [ -73.759318599999986, 40.6005262 ], [ -73.7608765, 40.6013853 ], [ -73.7611267, 40.6018093 ], [ -73.7613889, 40.6025263 ], [ -73.762619199999989, 40.6065987 ], [ -73.7618974, 40.606968 ], [ -73.7605724, 40.6075687 ], [ -73.757712, 40.6088342 ] ] ], [ [ [ -73.835089199999985, 40.6654368 ], [ -73.8343371, 40.6653033 ], [ -73.833675699999986, 40.6651826 ], [ -73.8323129, 40.6640354 ], [ -73.830111299999984, 40.6604806 ], [ -73.828585, 40.656016 ], [ -73.8283704, 40.6551994 ], [ -73.8282417, 40.6547096 ], [ -73.828115, 40.6542271 ], [ -73.8281668, 40.6542192 ], [ -73.8319755, 40.6552681 ], [ -73.8344407, 40.6564389 ], [ -73.836692, 40.6578394 ], [ -73.838069899999979, 40.6595285 ], [ -73.8380751, 40.6595496 ], [ -73.8375541, 40.6613088 ], [ -73.835089199999985, 40.6654368 ] ] ], [ [ [ -73.8432814, 40.672151 ], [ -73.8416703, 40.674397 ], [ -73.8401173, 40.6762442 ], [ -73.839977, 40.6762935 ], [ -73.831092899999987, 40.6764585 ], [ -73.8303013, 40.6680936 ], [ -73.8303847, 40.6679038 ], [ -73.8304856, 40.6676966 ], [ -73.8306957, 40.6672653 ], [ -73.8316873, 40.6668254 ], [ -73.8332335, 40.6668309 ], [ -73.8339006, 40.666931 ], [ -73.8347364, 40.6671462 ], [ -73.8391127, 40.6688384 ], [ -73.841807, 40.6707531 ], [ -73.8432621, 40.6720732 ], [ -73.8432814, 40.672151 ] ] ], [ [ [ -73.8737313, 40.6812259 ], [ -73.8735576, 40.6812711 ], [ -73.8714249, 40.6811579 ], [ -73.869250599999987, 40.6801566 ], [ -73.8647893, 40.6777843 ], [ -73.862652, 40.676553 ], [ -73.8631065, 40.6745742 ], [ -73.8687508, 40.6699859 ], [ -73.8712093, 40.6690479 ], [ -73.872715, 40.6690754 ], [ -73.8738804, 40.6692452 ], [ -73.880873099999988, 40.6740307 ], [ -73.880891199999979, 40.6741084 ], [ -73.8809127, 40.6742126 ], [ -73.8773646, 40.679891499999989 ], [ -73.8737313, 40.6812259 ] ] ], [ [ [ -73.8289926, 40.6923221 ], [ -73.8280085, 40.6922218 ], [ -73.8175966, 40.6888908 ], [ -73.817637199999979, 40.6887812 ], [ -73.818937, 40.6855118 ], [ -73.8203148, 40.6827029 ], [ -73.8221071, 40.6802039 ], [ -73.8221845, 40.6801808 ], [ -73.8237578, 40.679729 ], [ -73.8238372, 40.6797099 ], [ -73.823909299999983, 40.6796927 ], [ -73.827225899999988, 40.6807394 ], [ -73.834477, 40.6832271 ], [ -73.834575700000016, 40.6832695 ], [ -73.833525099999989, 40.6856275 ], [ -73.831953299999981, 40.6883629 ], [ -73.829806, 40.6917064 ], [ -73.829072, 40.6923007 ], [ -73.8289926, 40.6923221 ] ] ], [ [ [ -73.8580617, 40.6955395 ], [ -73.8566404, 40.6970579 ], [ -73.8535781, 40.7000411 ], [ -73.8520543, 40.699722 ], [ -73.8478904, 40.6985842 ], [ -73.847815699999984, 40.6985577 ], [ -73.843861099999984, 40.6960481 ], [ -73.8429119, 40.695276 ], [ -73.8428564, 40.6951266 ], [ -73.8429301, 40.6943005 ], [ -73.842975, 40.694217 ], [ -73.8430283, 40.6941482 ], [ -73.8477829, 40.6882999 ], [ -73.8489348, 40.6879743 ], [ -73.849040299999984, 40.687945 ], [ -73.850787, 40.688125 ], [ -73.8541735, 40.6887573 ], [ -73.858297, 40.6906171 ], [ -73.8583855, 40.6906587 ], [ -73.8589202, 40.6919015 ], [ -73.8591889, 40.6925856 ], [ -73.858111699999981, 40.6954643 ], [ -73.8580617, 40.6955395 ] ] ], [ [ [ -73.825878499999988, 40.704397899999989 ], [ -73.823941399999981, 40.7067961 ], [ -73.8209684, 40.7083336 ], [ -73.8182749, 40.7081764 ], [ -73.8168626, 40.7078548 ], [ -73.8131381, 40.7069723 ], [ -73.8130526, 40.7069298 ], [ -73.810984310366052, 40.705835028043069 ], [ -73.8094594, 40.7067302 ], [ -73.809380099999984, 40.7067501 ], [ -73.807215078055208, 40.70605470203293 ], [ -73.8067314, 40.7067289 ], [ -73.803005, 40.7081112 ], [ -73.8028738, 40.7081192 ], [ -73.7939005, 40.7057653 ], [ -73.7928399, 40.7045449 ], [ -73.792692, 40.7043733 ], [ -73.793715799999987, 40.702294 ], [ -73.7955704, 40.6990036 ], [ -73.7956733, 40.6989447 ], [ -73.7957517, 40.6989116 ], [ -73.802002358854324, 40.696689996939867 ], [ -73.8027798, 40.695129 ], [ -73.8028579, 40.6950605 ], [ -73.8029224, 40.6950053 ], [ -73.8063728, 40.6944616 ], [ -73.812592, 40.6965264 ], [ -73.812701599999983, 40.696577499999989 ], [ -73.8135009, 40.6962031 ], [ -73.8159174, 40.6967573 ], [ -73.825737300000014, 40.7008549 ], [ -73.8258125, 40.7009873 ], [ -73.825878499999988, 40.704397899999989 ] ] ], [ [ [ -73.7917827, 40.7134879 ], [ -73.7878259, 40.7177673 ], [ -73.787769899999986, 40.7178156 ], [ -73.781598, 40.717987 ], [ -73.7814988, 40.7179519 ], [ -73.7751889, 40.7148604 ], [ -73.7750258, 40.7147638 ], [ -73.7761934, 40.7115141 ], [ -73.778620099999983, 40.708673 ], [ -73.779373, 40.707812 ], [ -73.781348, 40.706907 ], [ -73.7822847, 40.7066029 ], [ -73.783255, 40.7067961 ], [ -73.783371, 40.706832 ], [ -73.788184199999989, 40.708532399999989 ], [ -73.7896371, 40.7090823 ], [ -73.7918491, 40.7106291 ], [ -73.791901, 40.7107124 ], [ -73.792167299999988, 40.7111522 ], [ -73.7917827, 40.7134879 ] ] ], [ [ [ -73.8975894, 40.7135351 ], [ -73.896285, 40.714818 ], [ -73.8878873, 40.715938 ], [ -73.8863039, 40.7160918 ], [ -73.8849909, 40.7153486 ], [ -73.8840625, 40.7147945 ], [ -73.8809285, 40.7126415 ], [ -73.8809039, 40.7125668 ], [ -73.8907429, 40.7095112 ], [ -73.8913975, 40.7093318 ], [ -73.891617199999985, 40.7093161 ], [ -73.8918309, 40.7093437 ], [ -73.8920486, 40.7094295 ], [ -73.8941502, 40.7103173 ], [ -73.897061, 40.7119452 ], [ -73.8977779, 40.7125113 ], [ -73.8978824, 40.7125966 ], [ -73.8978658, 40.7126682 ], [ -73.8975894, 40.7135351 ] ] ], [ [ [ -73.8385291, 40.717226 ], [ -73.8418424, 40.7161199 ], [ -73.8449423, 40.7152093 ], [ -73.8480056, 40.715268 ], [ -73.8496312, 40.7167397 ], [ -73.8534287, 40.7219311 ], [ -73.853476, 40.722013 ], [ -73.8535092, 40.722102 ], [ -73.853405, 40.7233737 ], [ -73.851926399999982, 40.7259134 ], [ -73.8470969, 40.7278587 ], [ -73.8470028, 40.7278761 ], [ -73.843982399999987, 40.7268888 ], [ -73.8392655, 40.7252369 ], [ -73.8372597, 40.7225374 ], [ -73.836958899999985, 40.7220998 ], [ -73.8366828, 40.7206992 ], [ -73.836723281085213, 40.719224938991182 ], [ -73.8361083, 40.7194072 ], [ -73.8351441, 40.7196925 ], [ -73.8223872, 40.7161713 ], [ -73.822887, 40.7141389 ], [ -73.8230491, 40.7135193 ], [ -73.8237714, 40.711596 ], [ -73.82435839999998, 40.7106491 ], [ -73.826959099999982, 40.7091512 ], [ -73.8296855, 40.7092569 ], [ -73.8350569, 40.7098505 ], [ -73.8354354, 40.7099626 ], [ -73.8359682, 40.7104795 ], [ -73.8371592, 40.712307 ], [ -73.837961483548327, 40.717478011813036 ], [ -73.8385291, 40.717226 ] ] ], [ [ [ -73.8718338, 40.7552233 ], [ -73.8709051, 40.7551304 ], [ -73.865272399999981, 40.7529812 ], [ -73.8623414, 40.7509569 ], [ -73.8610205, 40.7499679 ], [ -73.861212399999985, 40.749123 ], [ -73.8627486, 40.747123 ], [ -73.8661685, 40.7431661 ], [ -73.8675697, 40.7432594 ], [ -73.8737426, 40.7444847 ], [ -73.8759496, 40.7454552 ], [ -73.8786373, 40.7481171 ], [ -73.8768055, 40.7506275 ], [ -73.873256399999988, 40.754944 ], [ -73.8728505, 40.7551219 ], [ -73.8718338, 40.7552233 ] ] ], [ [ [ -73.8334764, 40.7651418 ], [ -73.8316487, 40.7655458 ], [ -73.8309473, 40.7655559 ], [ -73.8277212, 40.7646227 ], [ -73.8246001, 40.7633324 ], [ -73.8220185, 40.7617238 ], [ -73.821768099999986, 40.7612148 ], [ -73.8217734, 40.7609918 ], [ -73.8224363, 40.7583172 ], [ -73.8226336, 40.7575318 ], [ -73.823688, 40.7546229 ], [ -73.823724299999981, 40.7545248 ], [ -73.82704050000001, 40.7529952 ], [ -73.8271578, 40.752945 ], [ -73.833230599999979, 40.7545871 ], [ -73.8353459, 40.7552747 ], [ -73.836610099999987, 40.7556862 ], [ -73.8382131, 40.7571999 ], [ -73.8359607, 40.7634775 ], [ -73.835881, 40.7636142 ], [ -73.8334764, 40.7651418 ] ] ], [ [ [ -73.897569, 40.829423 ], [ -73.8920725, 40.8308338 ], [ -73.8918605, 40.8308061 ], [ -73.889021, 40.829835 ], [ -73.888054, 40.829503 ], [ -73.887613, 40.829337 ], [ -73.88529, 40.8282762 ], [ -73.886148447668177, 40.825892914877819 ], [ -73.881889799999982, 40.8234658 ], [ -73.884740099999988, 40.8192163 ], [ -73.8861878, 40.8173671 ], [ -73.886973499999982, 40.816694 ], [ -73.887771699999988, 40.8162391 ], [ -73.8917898, 40.8158243 ], [ -73.8962218, 40.8163105 ], [ -73.897851676653474, 40.818776403063552 ], [ -73.8983515, 40.81892520000001 ], [ -73.9006597, 40.8206112 ], [ -73.9014672, 40.8236901 ], [ -73.901176, 40.824389 ], [ -73.897569, 40.829423 ] ] ], [ [ [ -73.8356247, 40.8442553 ], [ -73.834919099999979, 40.8398192 ], [ -73.835475299999985, 40.8386807 ], [ -73.8401035, 40.8345961 ], [ -73.84011959999998, 40.834582 ], [ -73.840984, 40.8338647 ], [ -73.8417458, 40.8335221 ], [ -73.8484683, 40.8344474 ], [ -73.848701, 40.835103 ], [ -73.849373, 40.838633 ], [ -73.849992, 40.842852 ], [ -73.8472667, 40.8454274 ], [ -73.8449169, 40.8454169 ], [ -73.8364214, 40.8446524 ], [ -73.8356247, 40.8442553 ] ] ], [ [ [ -73.8677846, 40.844873199999988 ], [ -73.865465, 40.840857 ], [ -73.8672371, 40.83797 ], [ -73.8691514, 40.8361892 ], [ -73.8752466, 40.8367397 ], [ -73.8784451, 40.8387003 ], [ -73.8815083, 40.840669 ], [ -73.8818664, 40.8436187 ], [ -73.881665699999985, 40.8445889 ], [ -73.879194, 40.845321 ], [ -73.868045400000014, 40.8449441 ], [ -73.8677846, 40.844873199999988 ] ] ], [ [ [ -73.835260599999984, 40.852534 ], [ -73.835006899999982, 40.8529785 ], [ -73.8347776, 40.8533739 ], [ -73.834254299999984, 40.8542604 ], [ -73.8327779, 40.8554691 ], [ -73.8324443, 40.8557201 ], [ -73.828350299999983, 40.8563039 ], [ -73.8208734, 40.8568017 ], [ -73.8248355, 40.8482188 ], [ -73.8259221, 40.8469466 ], [ -73.8271152, 40.8466102 ], [ -73.832489699999982, 40.8468603 ], [ -73.8325014, 40.8468723 ], [ -73.83256369999998, 40.8469593 ], [ -73.8340919, 40.8494912 ], [ -73.835559, 40.851964 ], [ -73.8353186, 40.8524272 ], [ -73.835260599999984, 40.852534 ] ] ], [ [ [ -73.8674016, 40.8638655 ], [ -73.8671644, 40.8638603 ], [ -73.8669449, 40.8638549 ], [ -73.864533, 40.8631601 ], [ -73.8627139, 40.8612616 ], [ -73.8591441, 40.856851 ], [ -73.8597324, 40.8562656 ], [ -73.8662643, 40.8506124 ], [ -73.8679763, 40.8507527 ], [ -73.868361, 40.8509619 ], [ -73.8695665, 40.8518866 ], [ -73.870578, 40.8530786 ], [ -73.871700899999979, 40.8567482 ], [ -73.870972599999988, 40.8615223 ], [ -73.8693752, 40.8632469 ], [ -73.8674016, 40.8638655 ] ] ], [ [ [ -73.845114, 40.874715 ], [ -73.840792, 40.872147 ], [ -73.839068, 40.870569 ], [ -73.8394553, 40.8670622 ], [ -73.8396593, 40.8669289 ], [ -73.841739, 40.8660655 ], [ -73.843336199999982, 40.8655676 ], [ -73.85012, 40.863988 ], [ -73.851985, 40.8642567 ], [ -73.852891, 40.865388 ], [ -73.854697, 40.86766 ], [ -73.85565, 40.869497 ], [ -73.8543127, 40.8735182 ], [ -73.8510734, 40.875874 ], [ -73.8497984, 40.8759048 ], [ -73.845114, 40.874715 ] ] ], [ [ [ -73.8624165, 40.8842816 ], [ -73.860701, 40.881249 ], [ -73.859278, 40.877728 ], [ -73.858942899999988, 40.8768542 ], [ -73.858915, 40.874985 ], [ -73.867175599999982, 40.8709878 ], [ -73.8695947, 40.872403 ], [ -73.870691399999984, 40.8732348 ], [ -73.8730058, 40.8760221 ], [ -73.875295799999989, 40.8795455 ], [ -73.8751914, 40.8796354 ], [ -73.8675615, 40.8829351 ], [ -73.8642451, 40.884033 ], [ -73.8624165, 40.8842816 ] ] ], [ [ [ -73.8489515, 40.8917476 ], [ -73.848742299999984, 40.8906515 ], [ -73.8487939, 40.8905568 ], [ -73.8608562, 40.8871026 ], [ -73.8658455, 40.8959118 ], [ -73.8658211, 40.895992 ], [ -73.8637426, 40.8967536 ], [ -73.858651, 40.898564 ], [ -73.855392, 40.8988775 ], [ -73.8526006, 40.8978192 ], [ -73.850399, 40.895523 ], [ -73.8489515, 40.8917476 ] ] ] ] } }
]
}
