{
    "type": "FeatureCollection",
    "features": [
    {
    "type": "Feature",
    "id": 1,
    "geometry": {
    "type": "MultiPolygon",
    "coordinates": [
    [
    [
    [
    -73.94384570199998,
    40.70300583900007
    ],
    [
    -73.94349969199999,
    40.70303890900004
    ],
    [
    -73.94301548599998,
    40.70308518500008
    ],
    [
    -73.94303968699995,
    40.70323356800003
    ],
    [
    -73.94305113799999,
    40.703303782000035
    ],
    [
    -73.94306131199994,
    40.703366163000055
    ],
    [
    -73.94307327199994,
    40.70343949000005
    ],
    [
    -73.94308510499997,
    40.703512051000075
    ],
    [
    -73.94310757599999,
    40.703649831000064
    ],
    [
    -73.94322058299997,
    40.703793580000024
    ],
    [
    -73.94326708699998,
    40.704070013000035
    ],
    [
    -73.94317151099995,
    40.70407899600008
    ],
    [
    -73.94318234999997,
    40.70414342400005
    ],
    [
    -73.94321833199996,
    40.70435731500004
    ],
    [
    -73.94333994599998,
    40.70434556400005
    ],
    [
    -73.94403077199996,
    40.704278815000066
    ],
    [
    -73.94429954799995,
    40.70425284300006
    ],
    [
    -73.94420775399993,
    40.70370078700006
    ],
    [
    -73.94418285499995,
    40.70355001000007
    ],
    [
    -73.94409029099995,
    40.70298246300007
    ],
    [
    -73.94384570199998,
    40.70300583900007
    ]
    ]
    ],
    [
    [
    [
    -73.91560138799997,
    40.70205430100003
    ],
    [
    -73.91632622399999,
    40.70250696800008
    ],
    [
    -73.91705180499997,
    40.70296109100008
    ],
    [
    -73.91777872099993,
    40.70341314600006
    ],
    [
    -73.91850475999996,
    40.70386592700004
    ],
    [
    -73.91923176599994,
    40.70431962300006
    ],
    [
    -73.91995893599994,
    40.70477239500008
    ],
    [
    -73.92068499299995,
    40.70522486400006
    ],
    [
    -73.92141110499995,
    40.70567871500003
    ],
    [
    -73.92213739199997,
    40.706131923000044
    ],
    [
    -73.92286487599995,
    40.70658389500005
    ],
    [
    -73.92359234399999,
    40.707037211000056
    ],
    [
    -73.92393539499994,
    40.707254129000034
    ],
    [
    -73.92417044099994,
    40.70740275000003
    ],
    [
    -73.92490845799995,
    40.706752695000034
    ],
    [
    -73.92513901299998,
    40.70654720500005
    ],
    [
    -73.92589755699998,
    40.705885108000075
    ],
    [
    -73.92609069199995,
    40.705688002000045
    ],
    [
    -73.92657938499997,
    40.705564638000055
    ],
    [
    -73.92811071399996,
    40.704972240000075
    ],
    [
    -73.92873912399995,
    40.70472525100007
    ],
    [
    -73.92980133499998,
    40.70431283000005
    ],
    [
    -73.93023828199995,
    40.704139431000044
    ],
    [
    -73.93115673199998,
    40.703780635000044
    ],
    [
    -73.93173010999999,
    40.703554291000046
    ],
    [
    -73.93269924199996,
    40.70317869000007
    ],
    [
    -73.93352401899995,
    40.702857281000036
    ],
    [
    -73.93395232199998,
    40.70268289200004
    ],
    [
    -73.93533792299996,
    40.70232312500008
    ],
    [
    -73.93698213399995,
    40.70191857700007
    ],
    [
    -73.93714466799997,
    40.70230450200006
    ],
    [
    -73.93726459999993,
    40.702591151000036
    ],
    [
    -73.93731934899995,
    40.70272200100004
    ],
    [
    -73.93763268899994,
    40.70338177900004
    ],
    [
    -73.93778503399994,
    40.70353294100005
    ],
    [
    -73.93794718699996,
    40.703628544000026
    ],
    [
    -73.93841097599994,
    40.703908384000044
    ],
    [
    -73.93848943599994,
    40.70396287300008
    ],
    [
    -73.93860044299998,
    40.704074938000076
    ],
    [
    -73.93881530299996,
    40.70427149000005
    ],
    [
    -73.93912847999997,
    40.70457421900005
    ],
    [
    -73.93931377099995,
    40.704823040000065
    ],
    [
    -73.93951182099994,
    40.704866938000066
    ],
    [
    -73.93951754899996,
    40.70487190800003
    ],
    [
    -73.93954949299996,
    40.70508060000003
    ],
    [
    -73.93961308799999,
    40.70550173000004
    ],
    [
    -73.93964321199996,
    40.705701618000035
    ],
    [
    -73.93966775799998,
    40.70586477400008
    ],
    [
    -73.93970680899997,
    40.706121894000034
    ],
    [
    -73.94006375999999,
    40.70609303900005
    ],
    [
    -73.94052622999999,
    40.70605057100005
    ],
    [
    -73.94101226899994,
    40.70600896800005
    ],
    [
    -73.94114247699997,
    40.70599793100007
    ],
    [
    -73.94136779599995,
    40.70597508600008
    ],
    [
    -73.94195518499998,
    40.705919753000046
    ],
    [
    -73.94244627499995,
    40.705873489000055
    ],
    [
    -73.94243473299997,
    40.705798945000026
    ],
    [
    -73.94241300699997,
    40.705658612000036
    ],
    [
    -73.94240266299994,
    40.705591809000055
    ],
    [
    -73.94239168899998,
    40.70552093400005
    ],
    [
    -73.94235933999994,
    40.70531198700007
    ],
    [
    -73.94233621299998,
    40.70516261900008
    ],
    [
    -73.94242037199996,
    40.70515469000003
    ],
    [
    -73.94238664399995,
    40.70494274600003
    ],
    [
    -73.94229802899997,
    40.70495109600006
    ],
    [
    -73.94228776599994,
    40.70488659800003
    ],
    [
    -73.94220240299995,
    40.70489463900003
    ],
    [
    -73.94205746899996,
    40.70490829200003
    ],
    [
    -73.94201246399996,
    40.704625485000065
    ],
    [
    -73.94141103799996,
    40.70468193200003
    ],
    [
    -73.94116261499994,
    40.70470524700005
    ],
    [
    -73.94103149299997,
    40.70464448100006
    ],
    [
    -73.94089426699998,
    40.70392245700003
    ],
    [
    -73.94078078899997,
    40.70323076900007
    ],
    [
    -73.94076620799996,
    40.70314233300007
    ],
    [
    -73.94067715099999,
    40.70260024000004
    ],
    [
    -73.94062136299993,
    40.70226375000004
    ],
    [
    -73.94060034599994,
    40.70213625800005
    ],
    [
    -73.94054595999995,
    40.70180634400003
    ],
    [
    -73.94042197399995,
    40.701084897000044
    ],
    [
    -73.94193218399994,
    40.70073353300006
    ],
    [
    -73.94438928199997,
    40.70043282200004
    ],
    [
    -73.94424425799997,
    40.69970757800007
    ],
    [
    -73.94409730899997,
    40.698981253000056
    ],
    [
    -73.94395086899993,
    40.69822957800005
    ],
    [
    -73.94495472699998,
    40.69812041500006
    ],
    [
    -73.94515195799994,
    40.69809801700006
    ],
    [
    -73.94525058899995,
    40.69808681500007
    ],
    [
    -73.94557933099998,
    40.698049479000076
    ],
    [
    -73.94567836099998,
    40.698038232000044
    ],
    [
    -73.94607995799998,
    40.69799261900005
    ],
    [
    -73.94618299799998,
    40.69798091500007
    ],
    [
    -73.94634375999993,
    40.697962655000026
    ],
    [
    -73.94644279999994,
    40.697951405000026
    ],
    [
    -73.94679745399998,
    40.69791112100006
    ],
    [
    -73.94964872199995,
    40.697591344000045
    ],
    [
    -73.94969328999997,
    40.69782113100007
    ],
    [
    -73.94971243599997,
    40.697919840000054
    ],
    [
    -73.94974360299994,
    40.69808052600007
    ],
    [
    -73.94976179599996,
    40.69817432100007
    ],
    [
    -73.94977403599995,
    40.69823742700004
    ],
    [
    -73.94978974099996,
    40.698318398000026
    ],
    [
    -73.94981192399996,
    40.69842390600007
    ],
    [
    -73.94988458999995,
    40.698769507000065
    ],
    [
    -73.94990779499994,
    40.69887986600003
    ],
    [
    -73.94991673699997,
    40.69892239200004
    ],
    [
    -73.94994474099997,
    40.69905558100004
    ],
    [
    -73.95000280299996,
    40.699347970000076
    ],
    [
    -73.95006648799995,
    40.699668677000034
    ],
    [
    -73.95009234499997,
    40.69979889100006
    ],
    [
    -73.95101251999995,
    40.69968628400005
    ],
    [
    -73.95137418499996,
    40.69964202300008
    ],
    [
    -73.95153878799994,
    40.69962187700003
    ],
    [
    -73.95177397799995,
    40.69959309300003
    ],
    [
    -73.95195302099995,
    40.69957118000008
    ],
    [
    -73.95216223999995,
    40.69954557300008
    ],
    [
    -73.95254939999995,
    40.69950307500005
    ],
    [
    -73.95337140699996,
    40.69941283900005
    ],
    [
    -73.95335403599995,
    40.69932707400005
    ],
    [
    -73.95329467899995,
    40.69903401600004
    ],
    [
    -73.95323808999996,
    40.69875461400005
    ],
    [
    -73.95320788599997,
    40.69860548500003
    ],
    [
    -73.95318189499994,
    40.69847716100003
    ],
    [
    -73.95313887699996,
    40.698264762000065
    ],
    [
    -73.95310005099998,
    40.69807306200005
    ],
    [
    -73.95299306299995,
    40.69754480900008
    ],
    [
    -73.95297022099999,
    40.69743202400008
    ],
    [
    -73.95292579099998,
    40.69721264300006
    ],
    [
    -73.95277947699998,
    40.696473310000044
    ],
    [
    -73.95274769699995,
    40.69631272000004
    ],
    [
    -73.95272433199995,
    40.696194655000056
    ],
    [
    -73.95270003399997,
    40.696071869000036
    ],
    [
    -73.95265424199994,
    40.69584048200005
    ],
    [
    -73.95259828799993,
    40.695557732000054
    ],
    [
    -73.95249030799994,
    40.69501206900003
    ],
    [
    -73.95234218999997,
    40.69427134400007
    ],
    [
    -73.95219495899994,
    40.69353434000004
    ],
    [
    -73.95217385799998,
    40.69342720700007
    ],
    [
    -73.95309955799996,
    40.69331623000005
    ],
    [
    -73.95399078599996,
    40.69321357000007
    ],
    [
    -73.95488181099995,
    40.69310983300005
    ],
    [
    -73.95582802799998,
    40.69300068000007
    ],
    [
    -73.95677470299995,
    40.69289223100003
    ],
    [
    -73.95768235399999,
    40.69278703700007
    ],
    [
    -73.95899501399998,
    40.69263612700007
    ],
    [
    -73.95857984899999,
    40.69055399000007
    ],
    [
    -73.95886853699994,
    40.69052054400004
    ],
    [
    -73.95899470499995,
    40.690505925000025
    ],
    [
    -73.95928273799996,
    40.69047255300006
    ],
    [
    -73.95935002499994,
    40.69046475700003
    ],
    [
    -73.95942931499997,
    40.69045557100003
    ],
    [
    -73.95957731999994,
    40.69043828400004
    ],
    [
    -73.96008476899993,
    40.69037901200005
    ],
    [
    -73.96013900899999,
    40.69037267700003
    ],
    [
    -73.96029421799994,
    40.69035454600004
    ],
    [
    -73.96023880399997,
    40.69007051900007
    ],
    [
    -73.96022444599998,
    40.68999692400007
    ],
    [
    -73.96022131899997,
    40.68998090000008
    ],
    [
    -73.96069339499996,
    40.68992642100005
    ],
    [
    -73.96066448799996,
    40.68978027500003
    ],
    [
    -73.96098540199995,
    40.68974349700005
    ],
    [
    -73.96083186599998,
    40.68896724100006
    ],
    [
    -73.96078115099994,
    40.68880006200004
    ],
    [
    -73.96000659899994,
    40.68888932900006
    ],
    [
    -73.95986079599999,
    40.68815574700005
    ],
    [
    -73.95971514899998,
    40.68742393000008
    ],
    [
    -73.95956910299998,
    40.68669085100004
    ],
    [
    -73.95942399299997,
    40.68595860100004
    ],
    [
    -73.95927738799998,
    40.68522500100005
    ],
    [
    -73.95913346799995,
    40.684493444000054
    ],
    [
    -73.95898467999996,
    40.683758210000065
    ],
    [
    -73.95884202099995,
    40.683026348000055
    ],
    [
    -73.95858706699994,
    40.68175077700005
    ],
    [
    -73.95839711599996,
    40.680806086000075
    ],
    [
    -73.95824710399995,
    40.67999339900007
    ],
    [
    -73.95827070299998,
    40.67991518900004
    ],
    [
    -73.95829356799999,
    40.67983942800004
    ],
    [
    -73.95831528699995,
    40.67977769700008
    ],
    [
    -73.95856912899995,
    40.67905611500004
    ],
    [
    -73.95884602099994,
    40.67828964300003
    ],
    [
    -73.95912479999998,
    40.67752193600006
    ],
    [
    -73.95915502299994,
    40.67743589400004
    ],
    [
    -73.95943402699999,
    40.67664156700005
    ],
    [
    -73.95975947199997,
    40.67576430100007
    ],
    [
    -73.96007568399995,
    40.67488636300004
    ],
    [
    -73.96039441899995,
    40.67400689500005
    ],
    [
    -73.95810475999997,
    40.67351226900007
    ],
    [
    -73.95702179499995,
    40.67330219300004
    ],
    [
    -73.95431786899996,
    40.67276172600003
    ],
    [
    -73.95302069799999,
    40.67268935900006
    ],
    [
    -73.95025252999994,
    40.67253816200008
    ],
    [
    -73.94748190199994,
    40.67238794000008
    ],
    [
    -73.94471179599998,
    40.672236706000035
    ],
    [
    -73.94462948499995,
    40.67312804200003
    ],
    [
    -73.94454549399995,
    40.67401347800006
    ],
    [
    -73.94446322799996,
    40.674915043000055
    ],
    [
    -73.94437767099998,
    40.67580219900003
    ],
    [
    -73.94430471699997,
    40.676581019000025
    ],
    [
    -73.94423160799994,
    40.677359514000045
    ],
    [
    -73.94415746899995,
    40.67808180000003
    ],
    [
    -73.94415259699997,
    40.67816465200008
    ],
    [
    -73.94414275899999,
    40.678245254000046
    ],
    [
    -73.94404938599996,
    40.67934440400006
    ],
    [
    -73.94397487299995,
    40.680096423000066
    ],
    [
    -73.94326316399997,
    40.68005890100005
    ],
    [
    -73.94331453699994,
    40.68032202100005
    ],
    [
    -73.94344912899999,
    40.681055152000056
    ],
    [
    -73.94360242999994,
    40.681782690000034
    ],
    [
    -73.94374600599997,
    40.68251587800006
    ],
    [
    -73.94389254399994,
    40.683247779000055
    ],
    [
    -73.94396115399996,
    40.68359343000003
    ],
    [
    -73.94403804299998,
    40.683980778000034
    ],
    [
    -73.94418464599994,
    40.68471385000004
    ],
    [
    -73.94432965499993,
    40.68544659600008
    ],
    [
    -73.94447667799994,
    40.686179767000056
    ],
    [
    -73.94462267499995,
    40.68691265800004
    ],
    [
    -73.94471437099998,
    40.68738163800003
    ],
    [
    -73.94472823899997,
    40.68745256500006
    ],
    [
    -73.94476595399993,
    40.68764545800008
    ],
    [
    -73.94489636899993,
    40.688295150000044
    ],
    [
    -73.94491310499996,
    40.688378519000025
    ],
    [
    -73.94207824399996,
    40.68870549900004
    ],
    [
    -73.93924388799996,
    40.68903185000005
    ],
    [
    -73.93632169599994,
    40.68936230000003
    ],
    [
    -73.93588270799995,
    40.68941324200006
    ],
    [
    -73.93432840699995,
    40.68959361100008
    ],
    [
    -73.93339399899997,
    40.689702028000056
    ],
    [
    -73.93248869499996,
    40.68980625700004
    ],
    [
    -73.93047105699998,
    40.690038532000074
    ],
    [
    -73.92754838899998,
    40.69037742100005
    ],
    [
    -73.92456281699998,
    40.69072216300003
    ],
    [
    -73.92439322299998,
    40.69084004700005
    ],
    [
    -73.92429352199997,
    40.69078165500008
    ],
    [
    -73.92364518799997,
    40.690407135000044
    ],
    [
    -73.92317105599994,
    40.690131704000066
    ],
    [
    -73.92280841299998,
    40.68993222300003
    ],
    [
    -73.92141161799998,
    40.69136101300006
    ],
    [
    -73.92030202999996,
    40.69249285300003
    ],
    [
    -73.91851281699996,
    40.694312006000075
    ],
    [
    -73.91749585099996,
    40.695356555000046
    ],
    [
    -73.91746361399998,
    40.69538966600004
    ],
    [
    -73.91707301799994,
    40.69579084500003
    ],
    [
    -73.91699320599997,
    40.69587144500008
    ],
    [
    -73.91684666499998,
    40.696019430000035
    ],
    [
    -73.91679005299994,
    40.69607660100007
    ],
    [
    -73.91671529099995,
    40.696152099000074
    ],
    [
    -73.91666033699994,
    40.69620759400004
    ],
    [
    -73.91659712199998,
    40.69627143100007
    ],
    [
    -73.91641132099994,
    40.69645906100004
    ],
    [
    -73.91636735899993,
    40.69650345500003
    ],
    [
    -73.91633241699998,
    40.69653874000005
    ],
    [
    -73.91629849899994,
    40.69657299200003
    ],
    [
    -73.91626679999996,
    40.69660500200007
    ],
    [
    -73.91623094299996,
    40.69664121300008
    ],
    [
    -73.91618561699994,
    40.69668698400005
    ],
    [
    -73.91613808899996,
    40.69673497900004
    ],
    [
    -73.91609722699997,
    40.696776244000034
    ],
    [
    -73.91601882099997,
    40.69685542000008
    ],
    [
    -73.91597017299995,
    40.69690454500005
    ],
    [
    -73.91568360899998,
    40.69719392400003
    ],
    [
    -73.91561744199998,
    40.69726073900006
    ],
    [
    -73.91406225199995,
    40.69884650000006
    ],
    [
    -73.91360709199995,
    40.699308923000046
    ],
    [
    -73.91256971399997,
    40.700366648000056
    ],
    [
    -73.91332931999995,
    40.70078574400003
    ],
    [
    -73.91408918199994,
    40.70120604200008
    ],
    [
    -73.91485111299994,
    40.70162552700003
    ],
    [
    -73.91560138799997,
    40.70205430100003
    ]
    ]
    ]
    ]
    },
    "properties": {
    "OBJECTID": 1,
    "OBJECTID_1": 62,
    "Label": "Brooklyn: Bed Stuy and Bushwick",
    "NRRType": "RMZ Zone",
    "Shape_Length": 0.1698510006675418,
    "Shape_Area": 0.0007424085602248892
    }
    },
    {
    "type": "Feature",
    "id": 2,
    "geometry": {
    "type": "Polygon",
    "coordinates": [
    [
    [
    -73.88379509799995,
    40.86417990500007
    ],
    [
    -73.88379525199997,
    40.86418015700008
    ],
    [
    -73.88386930799999,
    40.86429922200006
    ],
    [
    -73.88392534599996,
    40.864426095000056
    ],
    [
    -73.88396141099997,
    40.86455805200006
    ],
    [
    -73.88397653799996,
    40.86469233100007
    ],
    [
    -73.88397061099994,
    40.864826074000064
    ],
    [
    -73.88394441799994,
    40.86495652000008
    ],
    [
    -73.88399974899994,
    40.86497787300004
    ],
    [
    -73.88518741399997,
    40.86543614800007
    ],
    [
    -73.88309141799994,
    40.866599843000074
    ],
    [
    -73.88362656799995,
    40.86726592100007
    ],
    [
    -73.88443000099994,
    40.86680871200008
    ],
    [
    -73.88514046499995,
    40.86639120700005
    ],
    [
    -73.88593842299997,
    40.86593273100004
    ],
    [
    -73.88683455899996,
    40.86539832600005
    ],
    [
    -73.88812417699995,
    40.86426290300005
    ],
    [
    -73.88945415899997,
    40.86309989600005
    ],
    [
    -73.89010707599994,
    40.862623746000054
    ],
    [
    -73.89065531999995,
    40.86296316600004
    ],
    [
    -73.89179201899998,
    40.86365841700007
    ],
    [
    -73.89244142099994,
    40.86404947700004
    ],
    [
    -73.89213264599994,
    40.864641955000025
    ],
    [
    -73.89276153299994,
    40.865029194000044
    ],
    [
    -73.89323331299994,
    40.865281210000035
    ],
    [
    -73.89346777199995,
    40.86539073700004
    ],
    [
    -73.89362540699994,
    40.86533487200006
    ],
    [
    -73.89371737599998,
    40.86530143200008
    ],
    [
    -73.89382301599994,
    40.86525570300006
    ],
    [
    -73.89398759699998,
    40.865009228000076
    ],
    [
    -73.89432450299995,
    40.86429906800004
    ],
    [
    -73.89459270899994,
    40.86397204900004
    ],
    [
    -73.89560545299997,
    40.864161667000076
    ],
    [
    -73.89562987699998,
    40.86416970800008
    ],
    [
    -73.89579447299997,
    40.86422389900008
    ],
    [
    -73.89596320499999,
    40.864298630000064
    ],
    [
    -73.89683301799994,
    40.864683908000075
    ],
    [
    -73.89749660499996,
    40.86367774200005
    ],
    [
    -73.89804078299994,
    40.862840016000064
    ],
    [
    -73.89919910099997,
    40.863337312000056
    ],
    [
    -73.90027726499994,
    40.863795968000034
    ],
    [
    -73.89964300799994,
    40.86460806200006
    ],
    [
    -73.89887422299995,
    40.865592364000065
    ],
    [
    -73.89980293299999,
    40.86600707000008
    ],
    [
    -73.90118390299995,
    40.86419125200007
    ],
    [
    -73.90229437199997,
    40.86272593000007
    ],
    [
    -73.90255042799998,
    40.862710271000026
    ],
    [
    -73.90280791299995,
    40.86270798400005
    ],
    [
    -73.90306498799998,
    40.86271914200006
    ],
    [
    -73.90331984699998,
    40.862743615000056
    ],
    [
    -73.90389363399999,
    40.86274869400006
    ],
    [
    -73.90404837099999,
    40.86275006300008
    ],
    [
    -73.90425900399998,
    40.862751926000044
    ],
    [
    -73.90493525299996,
    40.862757911000074
    ],
    [
    -73.90399386399997,
    40.86425645500003
    ],
    [
    -73.90416788199997,
    40.86426484900005
    ],
    [
    -73.90434456899999,
    40.864257089000034
    ],
    [
    -73.90443567399996,
    40.86424447200005
    ],
    [
    -73.90469017199996,
    40.86419233200007
    ],
    [
    -73.90485132999999,
    40.86413679700007
    ],
    [
    -73.90512846299998,
    40.863995224000064
    ],
    [
    -73.90524122099998,
    40.86393132000006
    ],
    [
    -73.90549224499995,
    40.86380465600007
    ],
    [
    -73.90568105199998,
    40.863720303000036
    ],
    [
    -73.90601997099998,
    40.86358341300007
    ],
    [
    -73.90629426499999,
    40.86348978700005
    ],
    [
    -73.90650960699998,
    40.86342147100004
    ],
    [
    -73.90675004599996,
    40.863413327000046
    ],
    [
    -73.90697254799994,
    40.86346681400005
    ],
    [
    -73.90710631499996,
    40.86351240600004
    ],
    [
    -73.90724777399998,
    40.863544982000064
    ],
    [
    -73.90754007499999,
    40.86356791900005
    ],
    [
    -73.90784043599996,
    40.86353949700003
    ],
    [
    -73.90811563699998,
    40.86348729000008
    ],
    [
    -73.90836394399997,
    40.86341563600007
    ],
    [
    -73.90883978799997,
    40.86318921700007
    ],
    [
    -73.90905381999994,
    40.863041345000056
    ],
    [
    -73.90904090099997,
    40.86268721700003
    ],
    [
    -73.90855532599994,
    40.86278588700003
    ],
    [
    -73.90830559599993,
    40.86281556700004
    ],
    [
    -73.90797006999998,
    40.862832549000075
    ],
    [
    -73.90755118099997,
    40.862823304000074
    ],
    [
    -73.90616034699997,
    40.86278731600004
    ],
    [
    -73.90861019899995,
    40.86004868800006
    ],
    [
    -73.91020957699999,
    40.85829712000003
    ],
    [
    -73.90980409399998,
    40.857615879000036
    ],
    [
    -73.90976305799995,
    40.85719094400008
    ],
    [
    -73.90976307099999,
    40.857190897000066
    ],
    [
    -73.90988806199994,
    40.85663712000007
    ],
    [
    -73.91041361899994,
    40.855736696000065
    ],
    [
    -73.91059009099996,
    40.85550094000007
    ],
    [
    -73.91077986099998,
    40.855270921000056
    ],
    [
    -73.91083171699995,
    40.85521366300003
    ],
    [
    -73.91087489099993,
    40.85516599700003
    ],
    [
    -73.91098242899994,
    40.855047279000075
    ],
    [
    -73.91112774099997,
    40.85490069200006
    ],
    [
    -73.91119720199998,
    40.854830625000034
    ],
    [
    -73.91090512799997,
    40.854738875000066
    ],
    [
    -73.91042359499994,
    40.85458760900008
    ],
    [
    -73.91007414799998,
    40.85447783400008
    ],
    [
    -73.90997127099996,
    40.85435975200005
    ],
    [
    -73.90997111699994,
    40.85435957200008
    ],
    [
    -73.90997095099993,
    40.85435941000003
    ],
    [
    -73.90985391699996,
    40.85424814400005
    ],
    [
    -73.90985386999995,
    40.85424809800003
    ],
    [
    -73.90985382199995,
    40.85424806200007
    ],
    [
    -73.90972388599994,
    40.85414499900003
    ],
    [
    -73.90972368499996,
    40.854144845000064
    ],
    [
    -73.90972345999995,
    40.85414469300008
    ],
    [
    -73.90958232699995,
    40.85405121900004
    ],
    [
    -73.90958210199994,
    40.85405106500008
    ],
    [
    -73.90958185299996,
    40.85405093000003
    ],
    [
    -73.90943096999996,
    40.853967769000064
    ],
    [
    -73.90928952599995,
    40.853912223000066
    ],
    [
    -73.90913902799997,
    40.85386833200005
    ],
    [
    -73.90898210999995,
    40.853837258000055
    ],
    [
    -73.90898205099995,
    40.85383724900004
    ],
    [
    -73.90882174499995,
    40.853819689000034
    ],
    [
    -73.90882149599997,
    40.853819662000035
    ],
    [
    -73.90882124699993,
    40.85381965200003
    ],
    [
    -73.90866035399995,
    40.85381579800003
    ],
    [
    -73.90850161299994,
    40.85382533400008
    ],
    [
    -73.91017622599998,
    40.85199088100006
    ],
    [
    -73.91077812799995,
    40.85194708800003
    ],
    [
    -73.91098043099998,
    40.85190524500007
    ],
    [
    -73.91098053799993,
    40.85190521900006
    ],
    [
    -73.91098064499994,
    40.85190519100007
    ],
    [
    -73.91117781199995,
    40.85184578500008
    ],
    [
    -73.91117801399997,
    40.851845722000064
    ],
    [
    -73.91117821599994,
    40.85184564100007
    ],
    [
    -73.91136643999994,
    40.85176928900006
    ],
    [
    -73.91136660599994,
    40.851769227000034
    ],
    [
    -73.91136675999996,
    40.85176914600004
    ],
    [
    -73.91142812799995,
    40.85173700100006
    ],
    [
    -73.91154240999998,
    40.85167714200003
    ],
    [
    -73.91154261199995,
    40.85167703400003
    ],
    [
    -73.91154278999994,
    40.85167691700008
    ],
    [
    -73.91170264899995,
    40.85157115900006
    ],
    [
    -73.91170279199997,
    40.85157106100007
    ],
    [
    -73.91170293399995,
    40.85157094400006
    ],
    [
    -73.91184459299996,
    40.85145367300004
    ],
    [
    -73.91195550199996,
    40.851335505000065
    ],
    [
    -73.91204959499998,
    40.85120769800005
    ],
    [
    -73.91212485299997,
    40.851072412000065
    ],
    [
    -73.91217992199995,
    40.85093209300004
    ],
    [
    -73.91221416999997,
    40.85078933700004
    ],
    [
    -73.91215804099994,
    40.85078903400006
    ],
    [
    -73.91215760299997,
    40.85078903400006
    ],
    [
    -73.91215723499994,
    40.850788935000026
    ],
    [
    -73.91209448799998,
    40.85077220900007
    ],
    [
    -73.91209427399997,
    40.85077215500007
    ],
    [
    -73.91209415599997,
    40.85077207300003
    ],
    [
    -73.91203775599996,
    40.85073460600006
    ],
    [
    -73.91203744799998,
    40.85073440800005
    ],
    [
    -73.91203725899999,
    40.850734110000076
    ],
    [
    -73.91200414799994,
    40.85068055100004
    ],
    [
    -73.91200395899995,
    40.850680253000064
    ],
    [
    -73.91200394799995,
    40.85067994800005
    ],
    [
    -73.91200199499997,
    40.85062308100004
    ],
    [
    -73.91200199499997,
    40.850622936000036
    ],
    [
    -73.91200208999999,
    40.850622748000035
    ],
    [
    -73.91202520699994,
    40.850575425000045
    ],
    [
    -73.91202533699999,
    40.85057516400008
    ],
    [
    -73.91202559899995,
    40.85057492100003
    ],
    [
    -73.91206115899996,
    40.85054190900007
    ],
    [
    -73.91210674499996,
    40.850506573000075
    ],
    [
    -73.91210698099997,
    40.850506394000035
    ],
    [
    -73.91210713699996,
    40.850506186000075
    ],
    [
    -73.91214315799994,
    40.850456723000036
    ],
    [
    -73.91214327699998,
    40.85045657000006
    ],
    [
    -73.91214331299994,
    40.85045643400008
    ],
    [
    -73.91215988999994,
    40.85039498000003
    ],
    [
    -73.91215992599996,
    40.85039482700006
    ],
    [
    -73.91215988999994,
    40.85039464700003
    ],
    [
    -73.91214891299995,
    40.85032907300007
    ],
    [
    -73.91214886599994,
    40.850328768000054
    ],
    [
    -73.91214868799995,
    40.85032849600003
    ],
    [
    -73.91210972699997,
    40.85026933200004
    ],
    [
    -73.91210964399994,
    40.850269214000036
    ],
    [
    -73.91210953699994,
    40.85026913300004
    ],
    [
    -73.91205073999998,
    40.85022506400003
    ],
    [
    -73.91205057399998,
    40.850224937000064
    ],
    [
    -73.91205031299995,
    40.85022483000006
    ],
    [
    -73.91198416299994,
    40.85019898000007
    ],
    [
    -73.91198390199997,
    40.85019888100004
    ],
    [
    -73.91198360599998,
    40.85019883600006
    ],
    [
    -73.91191980599996,
    40.850188728000035
    ],
    [
    -73.91161795399995,
    40.85014126600004
    ],
    [
    -73.91212686299997,
    40.849649455000076
    ],
    [
    -73.91297978799997,
    40.848440812000035
    ],
    [
    -73.91394864299997,
    40.84708596400003
    ],
    [
    -73.91438904599994,
    40.846462133000045
    ],
    [
    -73.91524240899997,
    40.84681066100006
    ],
    [
    -73.91526785299999,
    40.84682105200005
    ],
    [
    -73.91575835799995,
    40.84670026500004
    ],
    [
    -73.91686062199994,
    40.84646441000007
    ],
    [
    -73.91753421899995,
    40.84633507800004
    ],
    [
    -73.91817967199995,
    40.84624826100003
    ],
    [
    -73.91918379499998,
    40.84610639500005
    ],
    [
    -73.91930691299996,
    40.845319044000064
    ],
    [
    -73.91833787899998,
    40.845315923000044
    ],
    [
    -73.91837183099994,
    40.84512577400005
    ],
    [
    -73.91838845599995,
    40.84506246800004
    ],
    [
    -73.91877318899998,
    40.84504279500004
    ],
    [
    -73.91935022199993,
    40.84500075400007
    ],
    [
    -73.91935130299998,
    40.844953831000055
    ],
    [
    -73.91935044199994,
    40.844871382000065
    ],
    [
    -73.91944807499993,
    40.84461039300004
    ],
    [
    -73.92003689599994,
    40.843669427000066
    ],
    [
    -73.92091478299994,
    40.842442075000065
    ],
    [
    -73.92189247399995,
    40.84112598400003
    ],
    [
    -73.92194654599996,
    40.841053199000044
    ],
    [
    -73.92243704599997,
    40.84182556800005
    ],
    [
    -73.92282014199998,
    40.842759483000066
    ],
    [
    -73.92289352199998,
    40.84295831500003
    ],
    [
    -73.92294734599994,
    40.84316192600005
    ],
    [
    -73.92298090099996,
    40.84336863000004
    ],
    [
    -73.92299381099997,
    40.84357667100005
    ],
    [
    -73.92298605299999,
    40.84378425700004
    ],
    [
    -73.92295794799998,
    40.84398964900004
    ],
    [
    -73.92305283799993,
    40.844058086000075
    ],
    [
    -73.92306726999993,
    40.84406849700008
    ],
    [
    -73.92319230399994,
    40.844135676000064
    ],
    [
    -73.92332955599994,
    40.84418866200008
    ],
    [
    -73.92347470099998,
    40.84422579500006
    ],
    [
    -73.92362300699995,
    40.84424641600003
    ],
    [
    -73.92381706599997,
    40.842894698000066
    ],
    [
    -73.92413765399994,
    40.84247410000006
    ],
    [
    -73.92485000999994,
    40.84150377000003
    ],
    [
    -73.92509604599996,
    40.84119210800003
    ],
    [
    -73.92526903799995,
    40.84018419800003
    ],
    [
    -73.92596159599998,
    40.840133551000065
    ],
    [
    -73.92646098099993,
    40.84018781000003
    ],
    [
    -73.92548774599999,
    40.84177912300004
    ],
    [
    -73.92623188399995,
    40.84210759700005
    ],
    [
    -73.92582881699997,
    40.84256146600006
    ],
    [
    -73.92491687399996,
    40.84329051800006
    ],
    [
    -73.92543435299996,
    40.84369325800003
    ],
    [
    -73.92558240099999,
    40.843804789000046
    ],
    [
    -73.92747148599994,
    40.84208419500004
    ],
    [
    -73.92768164899996,
    40.84210549800008
    ],
    [
    -73.92803992399996,
    40.84126945200006
    ],
    [
    -73.92820786399994,
    40.84099005200005
    ],
    [
    -73.92835464499996,
    40.84070304000005
    ],
    [
    -73.92847941399998,
    40.84040980900005
    ],
    [
    -73.92858156299997,
    40.84011183500007
    ],
    [
    -73.92866068899997,
    40.83981064100004
    ],
    [
    -73.92985092499998,
    40.838233040000034
    ],
    [
    -73.92999103599993,
    40.83786126600006
    ],
    [
    -73.93007666699998,
    40.83763401600004
    ],
    [
    -73.93011439399999,
    40.837533922000034
    ],
    [
    -73.93019149399998,
    40.83731179000006
    ],
    [
    -73.93024784099998,
    40.83714945500003
    ],
    [
    -73.93035854699997,
    40.83683052300006
    ],
    [
    -73.93048816199996,
    40.83642249700006
    ],
    [
    -73.93057475999996,
    40.83614985200006
    ],
    [
    -73.93058319599999,
    40.83612330200003
    ],
    [
    -73.93067010799996,
    40.835822058000076
    ],
    [
    -73.93078820699998,
    40.83541272800005
    ],
    [
    -73.93079968399996,
    40.83536855600005
    ],
    [
    -73.93090916299997,
    40.83494688400003
    ],
    [
    -73.93097345599995,
    40.83469927800007
    ],
    [
    -73.93115800399994,
    40.834732218000056
    ],
    [
    -73.93121400499996,
    40.834738247000075
    ],
    [
    -73.93159433799997,
    40.83338385400003
    ],
    [
    -73.93171326199996,
    40.83295779300005
    ],
    [
    -73.93184826499999,
    40.832472479000046
    ],
    [
    -73.93210194099998,
    40.831577150000044
    ],
    [
    -73.93216639799994,
    40.83102069100005
    ],
    [
    -73.93217259699998,
    40.83076791600007
    ],
    [
    -73.93216401799998,
    40.83064092800004
    ],
    [
    -73.93215037799996,
    40.83051419800006
    ],
    [
    -73.93213168599993,
    40.830387839000025
    ],
    [
    -73.93210796099999,
    40.83026196900005
    ],
    [
    -73.93207922399995,
    40.83013670200006
    ],
    [
    -73.93204550199994,
    40.83001215500008
    ],
    [
    -73.93182543899997,
    40.82946378400004
    ],
    [
    -73.93177054499995,
    40.829354487000046
    ],
    [
    -73.93163973599997,
    40.829134913000075
    ],
    [
    -73.93144094299998,
    40.828783944000065
    ],
    [
    -73.93134954799996,
    40.828628329000026
    ],
    [
    -73.93126949999998,
    40.82846901100004
    ],
    [
    -73.93124830399995,
    40.82841865700004
    ],
    [
    -73.93120118099995,
    40.82830671100004
    ],
    [
    -73.93118113499997,
    40.82822281600005
    ],
    [
    -73.93104181799998,
    40.827639798000064
    ],
    [
    -73.93101940299994,
    40.82739902900005
    ],
    [
    -73.93101320299996,
    40.82715754800006
    ],
    [
    -73.93102322099998,
    40.82691629300007
    ],
    [
    -73.93095943499998,
    40.826970320000044
    ],
    [
    -73.93068701599998,
    40.82706892300007
    ],
    [
    -73.93060450099995,
    40.827029604000074
    ],
    [
    -73.93024122699995,
    40.82687894700007
    ],
    [
    -73.92985745399994,
    40.82672205500006
    ],
    [
    -73.92975314899996,
    40.82659382500003
    ],
    [
    -73.92959471299997,
    40.82633912400007
    ],
    [
    -73.92871884299996,
    40.824931046000074
    ],
    [
    -73.92853770999994,
    40.82465254300007
    ],
    [
    -73.92847458399996,
    40.824557250000055
    ],
    [
    -73.92814205999997,
    40.82406948000005
    ],
    [
    -73.92748984999997,
    40.82318077700006
    ],
    [
    -73.92691670699998,
    40.82246569100005
    ],
    [
    -73.92722549199993,
    40.82171735800006
    ],
    [
    -73.92748061999998,
    40.82111965200005
    ],
    [
    -73.92802543799996,
    40.81979655200007
    ],
    [
    -73.92730330999996,
    40.81960308600003
    ],
    [
    -73.92695675899995,
    40.81950879200008
    ],
    [
    -73.92687921499999,
    40.81948719500008
    ],
    [
    -73.92731792999996,
    40.81856795700003
    ],
    [
    -73.92724802599997,
    40.81855130800005
    ],
    [
    -73.92635998899993,
    40.81832901400003
    ],
    [
    -73.92582210499995,
    40.81818865900004
    ],
    [
    -73.92538678299996,
    40.81807373700008
    ],
    [
    -73.92518626199995,
    40.818020991000026
    ],
    [
    -73.92454865799994,
    40.81872094500005
    ],
    [
    -73.92402696999994,
    40.819293653000045
    ],
    [
    -73.92265400899998,
    40.82050263800005
    ],
    [
    -73.92194903799998,
    40.82103986800007
    ],
    [
    -73.92114548699993,
    40.821571325000036
    ],
    [
    -73.92066678899994,
    40.82184521600004
    ],
    [
    -73.92054486599994,
    40.821942180000065
    ],
    [
    -73.92048742999998,
    40.821987860000036
    ],
    [
    -73.92040303399995,
    40.82206954000003
    ],
    [
    -73.91963374299996,
    40.82186838900003
    ],
    [
    -73.91929239599995,
    40.82177861000008
    ],
    [
    -73.91917055999994,
    40.82174656500007
    ],
    [
    -73.91910883199995,
    40.82173032900005
    ],
    [
    -73.91860567399993,
    40.821597988000065
    ],
    [
    -73.91855738999999,
    40.82158528900004
    ],
    [
    -73.91844209499999,
    40.82155496300004
    ],
    [
    -73.91814925899996,
    40.82147794100007
    ],
    [
    -73.91805561599995,
    40.82145330900005
    ],
    [
    -73.91794823699996,
    40.82142506500003
    ],
    [
    -73.91778707799995,
    40.82138267500005
    ],
    [
    -73.91741795299998,
    40.821285587000034
    ],
    [
    -73.91657044399994,
    40.82283667400003
    ],
    [
    -73.91833759899998,
    40.823393044000056
    ],
    [
    -73.91788411699997,
    40.82368710000003
    ],
    [
    -73.91782291199996,
    40.82372669500006
    ],
    [
    -73.91756738999999,
    40.82389199600004
    ],
    [
    -73.91746912299999,
    40.82395443000007
    ],
    [
    -73.91740598599995,
    40.82399454600005
    ],
    [
    -73.91731921999997,
    40.82404967400004
    ],
    [
    -73.91725149899997,
    40.82409270100004
    ],
    [
    -73.91719146999998,
    40.824130841000056
    ],
    [
    -73.91712833299994,
    40.82417095400007
    ],
    [
    -73.91689335299998,
    40.82432025000003
    ],
    [
    -73.91677540099994,
    40.82439541100007
    ],
    [
    -73.91608922399996,
    40.82484617600005
    ],
    [
    -73.91551663399997,
    40.82471538400006
    ],
    [
    -73.91475260499993,
    40.82520879800006
    ],
    [
    -73.91394603299995,
    40.825728757000036
    ],
    [
    -73.91316813899994,
    40.82546477900007
    ],
    [
    -73.91289227499993,
    40.82601539600006
    ],
    [
    -73.91217731199998,
    40.82743554800004
    ],
    [
    -73.91209786099995,
    40.82768718500006
    ],
    [
    -73.91203366299999,
    40.827869028000066
    ],
    [
    -73.91186569899997,
    40.82781833700005
    ],
    [
    -73.91167423599995,
    40.82815747200004
    ],
    [
    -73.91167033799996,
    40.82797336900006
    ],
    [
    -73.91169569599998,
    40.82776704100007
    ],
    [
    -73.91030909699998,
    40.82878081100006
    ],
    [
    -73.90948317699997,
    40.82960044400005
    ],
    [
    -73.90896129599997,
    40.830234559000075
    ],
    [
    -73.90914605099994,
    40.83029405600007
    ],
    [
    -73.90971513099998,
    40.83047833900008
    ],
    [
    -73.90875094599994,
    40.832015752000075
    ],
    [
    -73.90851975599998,
    40.831939169000066
    ],
    [
    -73.90821794599998,
    40.831839192000075
    ],
    [
    -73.90802525999999,
    40.83177666100005
    ],
    [
    -73.90683914599998,
    40.83139254100007
    ],
    [
    -73.90626245699997,
    40.83243637700008
    ],
    [
    -73.90609375099996,
    40.83274173700005
    ],
    [
    -73.90591592899995,
    40.833063596000045
    ],
    [
    -73.90572415199995,
    40.83298636400008
    ],
    [
    -73.90562360799998,
    40.832945874000075
    ],
    [
    -73.90505270199998,
    40.83271595400004
    ],
    [
    -73.90483120099998,
    40.83303875900003
    ],
    [
    -73.90476954299999,
    40.83312861400003
    ],
    [
    -73.90422314499995,
    40.83392489400006
    ],
    [
    -73.90415109899999,
    40.83403733100005
    ],
    [
    -73.90367433899996,
    40.834781372000066
    ],
    [
    -73.90360311499995,
    40.834892522000075
    ],
    [
    -73.90352248299996,
    40.83501835700008
    ],
    [
    -73.90308643999998,
    40.83566837600006
    ],
    [
    -73.90303877799994,
    40.83573942400005
    ],
    [
    -73.90290734899997,
    40.83593534500005
    ],
    [
    -73.90197074499997,
    40.837177100000076
    ],
    [
    -73.90123783999996,
    40.836868888000026
    ],
    [
    -73.90122310099997,
    40.836972556000035
    ],
    [
    -73.90121186499994,
    40.83696656800004
    ],
    [
    -73.90096731699998,
    40.83730630400004
    ],
    [
    -73.90080207999995,
    40.83725064300006
    ],
    [
    -73.90084602999997,
    40.83719003700003
    ],
    [
    -73.90076621899993,
    40.83716520000007
    ],
    [
    -73.90078763199995,
    40.83713532300004
    ],
    [
    -73.90085748999996,
    40.83704740700006
    ],
    [
    -73.90050791099998,
    40.836928380000074
    ],
    [
    -73.90045266299995,
    40.837023997000074
    ],
    [
    -73.90040191599996,
    40.83711705300004
    ],
    [
    -73.90032862899994,
    40.83724083900006
    ],
    [
    -73.90031960899995,
    40.83725620600006
    ],
    [
    -73.90025534199998,
    40.83736633500007
    ],
    [
    -73.90018204699999,
    40.83749524500007
    ],
    [
    -73.90017415299997,
    40.837509759000056
    ],
    [
    -73.90013806799993,
    40.83757464300004
    ],
    [
    -73.90016391699999,
    40.83758662300005
    ],
    [
    -73.90021898399993,
    40.83761229400005
    ],
    [
    -73.90027742499996,
    40.83763967700003
    ],
    [
    -73.90033698699995,
    40.837667915000054
    ],
    [
    -73.90039430199994,
    40.83769529700004
    ],
    [
    -73.90044487599994,
    40.83771840300005
    ],
    [
    -73.90044599899994,
    40.83771925800005
    ],
    [
    -73.90050106699994,
    40.83774578400005
    ],
    [
    -73.90056062899998,
    40.83777402100003
    ],
    [
    -73.90059546899994,
    40.837790279000046
    ],
    [
    -73.90067301199997,
    40.837827928000024
    ],
    [
    -73.90071122299997,
    40.83784589800007
    ],
    [
    -73.90082698099997,
    40.837898100000075
    ],
    [
    -73.90087430999995,
    40.83783493400006
    ],
    [
    -73.90088444999998,
    40.83782213200004
    ],
    [
    -73.90097234299998,
    40.83770689800008
    ],
    [
    -73.90128253799998,
    40.83784297200003
    ],
    [
    -73.90144998299996,
    40.83791571200004
    ],
    [
    -73.90147290399995,
    40.837889664000045
    ],
    [
    -73.90201257899997,
    40.837194692000025
    ],
    [
    -73.90288117899996,
    40.83749309700005
    ],
    [
    -73.90293777099998,
    40.837512538000055
    ],
    [
    -73.90334020999995,
    40.837650792000034
    ],
    [
    -73.90450992399997,
    40.83802559700007
    ],
    [
    -73.90381710499997,
    40.839276942000026
    ],
    [
    -73.90400349199996,
    40.839337071000045
    ],
    [
    -73.90454634699995,
    40.83950629200007
    ],
    [
    -73.90538497299997,
    40.839777311000034
    ],
    [
    -73.90486704799997,
    40.84070515900004
    ],
    [
    -73.90474696899997,
    40.84092026800005
    ],
    [
    -73.90415621199998,
    40.841978579000056
    ],
    [
    -73.90357694699998,
    40.84301239500007
    ],
    [
    -73.90291754699996,
    40.84418966000004
    ],
    [
    -73.90278597299994,
    40.844424074000074
    ],
    [
    -73.90271430799999,
    40.84455111800003
    ],
    [
    -73.90268949299997,
    40.84458980100004
    ],
    [
    -73.90266491499995,
    40.84463690200005
    ],
    [
    -73.90246813699997,
    40.84498103000004
    ],
    [
    -73.90209830999999,
    40.84565020800005
    ],
    [
    -73.90141442399994,
    40.84687152200007
    ],
    [
    -73.90102429699994,
    40.84767680500005
    ],
    [
    -73.90088224999994,
    40.84783188200004
    ],
    [
    -73.90075671999995,
    40.84799607800005
    ],
    [
    -73.90064913299994,
    40.848167799000066
    ],
    [
    -73.90056056999998,
    40.84834534500004
    ],
    [
    -73.90049171899994,
    40.84852687100005
    ],
    [
    -73.90009835199999,
    40.849217370000076
    ],
    [
    -73.89851421399999,
    40.84870618300005
    ],
    [
    -73.89776218299994,
    40.850028982000026
    ],
    [
    -73.89659774299997,
    40.84965087200004
    ],
    [
    -73.89575409299994,
    40.849380964000034
    ],
    [
    -73.89494766899998,
    40.84911318200005
    ],
    [
    -73.89557894899997,
    40.84786297200003
    ],
    [
    -73.89473265699996,
    40.84757146900006
    ],
    [
    -73.89387726299998,
    40.847273262000044
    ],
    [
    -73.89433738199995,
    40.84649501000007
    ],
    [
    -73.89409440299994,
    40.846496552000076
    ],
    [
    -73.89385124999995,
    40.846482722000076
    ],
    [
    -73.89361045399994,
    40.84645358600005
    ],
    [
    -73.89337448699996,
    40.846409523000034
    ],
    [
    -73.89290241199996,
    40.84627665900007
    ],
    [
    -73.89223898699998,
    40.84597370100005
    ],
    [
    -73.89187795499998,
    40.84658567100007
    ],
    [
    -73.89133540599994,
    40.84747790900008
    ],
    [
    -73.89086761999994,
    40.84724995800008
    ],
    [
    -73.88996626299996,
    40.84680070100006
    ],
    [
    -73.88892250499998,
    40.846290751000026
    ],
    [
    -73.88783784499998,
    40.84575073900004
    ],
    [
    -73.88734224899997,
    40.846336981000036
    ],
    [
    -73.88699307099995,
    40.84674499800008
    ],
    [
    -73.88686594399996,
    40.84670994100003
    ],
    [
    -73.88596735099998,
    40.84628893900003
    ],
    [
    -73.88595568099998,
    40.84628347200004
    ],
    [
    -73.88587882199994,
    40.84623045500007
    ],
    [
    -73.88560455699997,
    40.84655189100005
    ],
    [
    -73.88492548199997,
    40.847348244000045
    ],
    [
    -73.88377894299998,
    40.848690513000065
    ],
    [
    -73.88323016299995,
    40.848354208000046
    ],
    [
    -73.88312121199993,
    40.84822942200003
    ],
    [
    -73.88288407799996,
    40.84908237600007
    ],
    [
    -73.88285070099994,
    40.84920085700003
    ],
    [
    -73.88255883899996,
    40.85023258800004
    ],
    [
    -73.88232395199998,
    40.85106912200007
    ],
    [
    -73.88200437599994,
    40.852197689000036
    ],
    [
    -73.88166898699995,
    40.85335653100003
    ],
    [
    -73.88103497499998,
    40.85560828400003
    ],
    [
    -73.88073181299995,
    40.85668493700007
    ],
    [
    -73.88073092699995,
    40.856815607000044
    ],
    [
    -73.88077270799994,
    40.85704809300006
    ],
    [
    -73.88079293899995,
    40.85713584000007
    ],
    [
    -73.88080948699996,
    40.85720678000007
    ],
    [
    -73.88088363699995,
    40.85751787700008
    ],
    [
    -73.88094323499996,
    40.857702827000026
    ],
    [
    -73.88094331799994,
    40.85770307100006
    ],
    [
    -73.88094337699994,
    40.85770332300007
    ],
    [
    -73.88098432399994,
    40.857892324000034
    ],
    [
    -73.88100602899993,
    40.85808399000007
    ],
    [
    -73.88100817599997,
    40.858276354000054
    ],
    [
    -73.88099081399997,
    40.858467691000044
    ],
    [
    -73.88096724799993,
    40.858553537000034
    ],
    [
    -73.88076009999997,
    40.85950275700003
    ],
    [
    -73.88061035399994,
    40.860365426000044
    ],
    [
    -73.88061865399999,
    40.86050534300006
    ],
    [
    -73.88064508899998,
    40.86064565000004
    ],
    [
    -73.88068978099994,
    40.860784326000044
    ],
    [
    -73.88075237599998,
    40.86091932000005
    ],
    [
    -73.88083194499995,
    40.86104867700004
    ],
    [
    -73.88092711199994,
    40.86117062100004
    ],
    [
    -73.88103607699998,
    40.861283627000034
    ],
    [
    -73.88200932799998,
    40.86205518500003
    ],
    [
    -73.88379509799995,
    40.86417990500007
    ]
    ]
    ]
    },
    "properties": {
    "OBJECTID": 2,
    "OBJECTID_1": 63,
    "Label": "Bronx: Grand Concourse",
    "NRRType": "RMZ Zone",
    "Shape_Length": 0.23567741528327665,
    "Shape_Area": 0.0010085330994299014
    }
    },
    {
    "type": "Feature",
    "id": 3,
    "geometry": {
    "type": "MultiPolygon",
    "coordinates": [
    [
    [
    [
    -73.98590414199998,
    40.710658704000025
    ],
    [
    -73.98593664999999,
    40.71086285000007
    ],
    [
    -73.98596355199999,
    40.711039663000065
    ],
    [
    -73.98595344999995,
    40.711043078000046
    ],
    [
    -73.98598147899997,
    40.711199392000026
    ],
    [
    -73.98622057499995,
    40.71117550400004
    ],
    [
    -73.98655171699994,
    40.71114308500006
    ],
    [
    -73.98654947499995,
    40.711131127000044
    ],
    [
    -73.98649229599994,
    40.71078946000006
    ],
    [
    -73.98646090599993,
    40.71059727200003
    ],
    [
    -73.98590414199998,
    40.710658704000025
    ]
    ]
    ],
    [
    [
    [
    -73.98247017299997,
    40.73132318800003
    ],
    [
    -73.98255770399999,
    40.73135843700004
    ],
    [
    -73.98238769799997,
    40.731419548000076
    ],
    [
    -73.98232423699994,
    40.73150619300003
    ],
    [
    -73.98196923199998,
    40.73199086400007
    ],
    [
    -73.98207584299996,
    40.73203861700006
    ],
    [
    -73.98364739199997,
    40.73270701000007
    ],
    [
    -73.98444206799996,
    40.73304155900007
    ],
    [
    -73.98524341599995,
    40.73338068000004
    ],
    [
    -73.98668122199996,
    40.73398650000007
    ],
    [
    -73.98828741599993,
    40.73466730700005
    ],
    [
    -73.98991831399996,
    40.73535764600007
    ],
    [
    -73.98993480399997,
    40.73528377000008
    ],
    [
    -73.98994694499999,
    40.73520940900005
    ],
    [
    -73.98995471099994,
    40.73513471100006
    ],
    [
    -73.98995808899997,
    40.73505982200004
    ],
    [
    -73.98995707199998,
    40.734984893000046
    ],
    [
    -73.98995166099996,
    40.73491007400003
    ],
    [
    -73.98990437399993,
    40.73444309400003
    ],
    [
    -73.98986993499994,
    40.73353541800003
    ],
    [
    -73.99002828999994,
    40.732764588000066
    ],
    [
    -73.99021332299998,
    40.732004638000035
    ],
    [
    -73.99039151399995,
    40.73129682700005
    ],
    [
    -73.99146112499994,
    40.73174646200005
    ],
    [
    -73.99192211099995,
    40.73117460100008
    ],
    [
    -73.99240904999994,
    40.73059951500005
    ],
    [
    -73.99108111099997,
    40.730040925000026
    ],
    [
    -73.99072671699997,
    40.72988699000007
    ],
    [
    -73.99075869799998,
    40.72974913400003
    ],
    [
    -73.99093194899996,
    40.729150599000036
    ],
    [
    -73.99112397999994,
    40.72857626900003
    ],
    [
    -73.99136010499996,
    40.72779077300004
    ],
    [
    -73.99136529899994,
    40.727568087000066
    ],
    [
    -73.99136531899995,
    40.72756804100004
    ],
    [
    -73.99154974699997,
    40.72709777500006
    ],
    [
    -73.99154976399996,
    40.72709772800005
    ],
    [
    -73.99179521399998,
    40.726399763000074
    ],
    [
    -73.99179522999998,
    40.72639971600006
    ],
    [
    -73.99206308799995,
    40.72565074700003
    ],
    [
    -73.99206310499994,
    40.72565070100006
    ],
    [
    -73.99221113099998,
    40.72523959400007
    ],
    [
    -73.99221114699998,
    40.72523954800005
    ],
    [
    -73.99232784199995,
    40.72491653600008
    ],
    [
    -73.99232785799995,
    40.724916489000066
    ],
    [
    -73.99258129499998,
    40.72420985800005
    ],
    [
    -73.99258131099998,
    40.724209812000026
    ],
    [
    -73.99260464299994,
    40.724144753000076
    ],
    [
    -73.99260465999998,
    40.72414470700005
    ],
    [
    -73.99263396399994,
    40.72406516800004
    ],
    [
    -73.99280504199999,
    40.723600841000064
    ],
    [
    -73.99309000699998,
    40.72282739900004
    ],
    [
    -73.99326056799998,
    40.72236161200004
    ],
    [
    -73.99352439499995,
    40.72163999400004
    ],
    [
    -73.99379668799997,
    40.720944744000064
    ],
    [
    -73.99403640699995,
    40.72033131200004
    ],
    [
    -73.99437887299996,
    40.71952739000005
    ],
    [
    -73.99442259199998,
    40.71939960000003
    ],
    [
    -73.99480920399998,
    40.71846572700008
    ],
    [
    -73.99543017299999,
    40.717287543000054
    ],
    [
    -73.99632861599997,
    40.71760446400003
    ],
    [
    -73.99710964999997,
    40.71787791700007
    ],
    [
    -73.99793191399993,
    40.71816699200008
    ],
    [
    -73.99875392399997,
    40.71845266200006
    ],
    [
    -73.99942471999998,
    40.718688575000044
    ],
    [
    -73.99995762499998,
    40.71802539500004
    ],
    [
    -74.00027585199996,
    40.71762770200007
    ],
    [
    -74.00081984199994,
    40.71693800800006
    ],
    [
    -74.00121228699999,
    40.71639989500005
    ],
    [
    -74.00168447799996,
    40.715752423000026
    ],
    [
    -74.00168526599998,
    40.715751354000076
    ],
    [
    -74.00211597299995,
    40.715167215000065
    ],
    [
    -74.00131510099999,
    40.714795743000025
    ],
    [
    -74.00126057799997,
    40.71476910600006
    ],
    [
    -74.00074793899995,
    40.71451865300003
    ],
    [
    -74.00045608399995,
    40.714373366000075
    ],
    [
    -74.00045607199996,
    40.71437330400005
    ],
    [
    -74.00093316499994,
    40.71327155400007
    ],
    [
    -74.00093319099994,
    40.71327151000003
    ],
    [
    -74.00089255999995,
    40.713023356000065
    ],
    [
    -74.00087421099994,
    40.71170522400007
    ],
    [
    -74.00087417799995,
    40.71170522700004
    ],
    [
    -74.00086923099997,
    40.711576458000025
    ],
    [
    -74.00084103999995,
    40.71144695500004
    ],
    [
    -74.00078942899995,
    40.71132040700007
    ],
    [
    -74.00071551199994,
    40.711200432000055
    ],
    [
    -74.00062166599997,
    40.71109028300003
    ],
    [
    -74.00051127599994,
    40.71099256800005
    ],
    [
    -74.00066508499998,
    40.71079610100003
    ],
    [
    -74.00075430899994,
    40.710682130000066
    ],
    [
    -74.00090775199999,
    40.71048613000005
    ],
    [
    -74.00100466899994,
    40.71036232900008
    ],
    [
    -74.00113788299996,
    40.71018426300003
    ],
    [
    -74.00065548599997,
    40.70985017000004
    ],
    [
    -74.00012459799996,
    40.70946789800007
    ],
    [
    -73.99928276799994,
    40.70877410200006
    ],
    [
    -73.99865262699996,
    40.70886951800003
    ],
    [
    -73.99802073899997,
    40.70892947300007
    ],
    [
    -73.99606275599996,
    40.709212867000076
    ],
    [
    -73.99608388799999,
    40.709290330000044
    ],
    [
    -73.99614688599996,
    40.70952122500006
    ],
    [
    -73.99616305899997,
    40.70958049400008
    ],
    [
    -73.99621806799996,
    40.709782104000055
    ],
    [
    -73.99623890699996,
    40.70986533400003
    ],
    [
    -73.99625189399995,
    40.70991720300003
    ],
    [
    -73.99632952999997,
    40.71022726700005
    ],
    [
    -73.99621244399998,
    40.71024295800004
    ],
    [
    -73.99587604799996,
    40.71029530200008
    ],
    [
    -73.99515259999998,
    40.71040787900006
    ],
    [
    -73.99414435599994,
    40.71056695900006
    ],
    [
    -73.99278980999998,
    40.71077467500004
    ],
    [
    -73.99272766599995,
    40.71078430400007
    ],
    [
    -73.99260383099994,
    40.71080844000005
    ],
    [
    -73.99248283699995,
    40.71083011600007
    ],
    [
    -73.99242276599995,
    40.71084460000003
    ],
    [
    -73.99219299999999,
    40.710899994000044
    ],
    [
    -73.99208965199995,
    40.71091171100005
    ],
    [
    -73.99197816199995,
    40.71091956500004
    ],
    [
    -73.99161697799997,
    40.710972609000066
    ],
    [
    -73.99150826299996,
    40.710988574000055
    ],
    [
    -73.98993899299995,
    40.71121902400006
    ],
    [
    -73.98973530999996,
    40.71125118100008
    ],
    [
    -73.98949345199998,
    40.711275095000076
    ],
    [
    -73.98873864399997,
    40.71134972100003
    ],
    [
    -73.98860534399995,
    40.71136289800006
    ],
    [
    -73.98831333899994,
    40.711391768000055
    ],
    [
    -73.98769375599994,
    40.711452218000034
    ],
    [
    -73.98758046199998,
    40.71146327200006
    ],
    [
    -73.98742085999999,
    40.711478843000066
    ],
    [
    -73.98690695899995,
    40.71152897800005
    ],
    [
    -73.98674391699996,
    40.711544882000055
    ],
    [
    -73.98610354499993,
    40.71160480800006
    ],
    [
    -73.98600615299995,
    40.711613922000026
    ],
    [
    -73.98485421999999,
    40.71170644100005
    ],
    [
    -73.98478547199994,
    40.711237089000065
    ],
    [
    -73.98391507499997,
    40.71131163200005
    ],
    [
    -73.98361603099994,
    40.71133394000003
    ],
    [
    -73.98331910599995,
    40.71135013500003
    ],
    [
    -73.98320299999995,
    40.71135781100003
    ],
    [
    -73.98310467799996,
    40.71136481900004
    ],
    [
    -73.98301716799995,
    40.71137105500003
    ],
    [
    -73.98291851899995,
    40.71137808700007
    ],
    [
    -73.98281810299994,
    40.71138524300005
    ],
    [
    -73.98270485099994,
    40.711393316000056
    ],
    [
    -73.98259628799997,
    40.71140105300003
    ],
    [
    -73.98251079799996,
    40.71140714500007
    ],
    [
    -73.98243601699994,
    40.71141247500003
    ],
    [
    -73.98235586599998,
    40.71141818600006
    ],
    [
    -73.98229925399994,
    40.71142222100008
    ],
    [
    -73.98224218099995,
    40.71142628900003
    ],
    [
    -73.98209211699998,
    40.711436983000056
    ],
    [
    -73.98187558199999,
    40.71145241500005
    ],
    [
    -73.98181420099996,
    40.71145678900007
    ],
    [
    -73.98175942499995,
    40.71146069200006
    ],
    [
    -73.98170625899996,
    40.71146448200005
    ],
    [
    -73.98152133499997,
    40.711477658000035
    ],
    [
    -73.98141553799996,
    40.71148519700006
    ],
    [
    -73.98135190699998,
    40.711489732000075
    ],
    [
    -73.98107904899996,
    40.71150917500006
    ],
    [
    -73.98071801399993,
    40.71153490100005
    ],
    [
    -73.98062180399995,
    40.711541759000056
    ],
    [
    -73.98059319399994,
    40.71103793100008
    ],
    [
    -73.98037918299997,
    40.71056052200004
    ],
    [
    -73.98037647799998,
    40.71053748400004
    ],
    [
    -73.98037090899999,
    40.71049002700005
    ],
    [
    -73.98035913499996,
    40.71038982300007
    ],
    [
    -73.98034736699998,
    40.71028961900004
    ],
    [
    -73.98032873999995,
    40.71013101200003
    ],
    [
    -73.98029865899997,
    40.70987487700006
    ],
    [
    -73.98028890799998,
    40.70979183800006
    ],
    [
    -73.97862527799998,
    40.71027881400005
    ],
    [
    -73.97791129899997,
    40.71052165700007
    ],
    [
    -73.97631656499993,
    40.71174888300004
    ],
    [
    -73.97606310499998,
    40.71260843600004
    ],
    [
    -73.97605573899995,
    40.71264221400003
    ],
    [
    -73.97597275399994,
    40.712805253000056
    ],
    [
    -73.97569751099996,
    40.71342189400008
    ],
    [
    -73.97533801799995,
    40.71418799000003
    ],
    [
    -73.97525825399998,
    40.71435880400003
    ],
    [
    -73.97525488499997,
    40.71436563700007
    ],
    [
    -73.97523129099994,
    40.71441517300008
    ],
    [
    -73.97522679999997,
    40.71442456800003
    ],
    [
    -73.97520657599995,
    40.714468124000064
    ],
    [
    -73.97519646499995,
    40.71448862300008
    ],
    [
    -73.97518073599997,
    40.71452449100008
    ],
    [
    -73.97517399699996,
    40.71453730300004
    ],
    [
    -73.97516725499997,
    40.71455182300008
    ],
    [
    -73.97514697699995,
    40.71459550900005
    ],
    [
    -73.97514253999998,
    40.71460648400006
    ],
    [
    -73.97511945399998,
    40.71465439600007
    ],
    [
    -73.97487066499997,
    40.71518553800007
    ],
    [
    -73.97467516899997,
    40.71563563400008
    ],
    [
    -73.97460325999998,
    40.715800469000044
    ],
    [
    -73.97432571399997,
    40.716504228000076
    ],
    [
    -73.97414467999994,
    40.71700842600006
    ],
    [
    -73.97390428699998,
    40.71767688500006
    ],
    [
    -73.97372447299995,
    40.71817737600003
    ],
    [
    -73.97347833999999,
    40.718887119000044
    ],
    [
    -73.97331525899995,
    40.71941441700005
    ],
    [
    -73.97314108599994,
    40.72004783300008
    ],
    [
    -73.97294316299997,
    40.72087631200003
    ],
    [
    -73.97269687499994,
    40.72192088200006
    ],
    [
    -73.97255966999995,
    40.722497400000066
    ],
    [
    -73.97246295099995,
    40.72290395300007
    ],
    [
    -73.97228778099998,
    40.72365172100007
    ],
    [
    -73.97221440699997,
    40.723939124000026
    ],
    [
    -73.97214692199998,
    40.724228665000055
    ],
    [
    -73.97208393499994,
    40.724509666000074
    ],
    [
    -73.97205692899996,
    40.72464632300006
    ],
    [
    -73.97201193799998,
    40.72484362100005
    ],
    [
    -73.97196356399996,
    40.725077645000056
    ],
    [
    -73.97191405499996,
    40.72533473300007
    ],
    [
    -73.97189379999998,
    40.72544320600008
    ],
    [
    -73.97182925799996,
    40.72579717100007
    ],
    [
    -73.97184393199996,
    40.72579426500005
    ],
    [
    -73.97201757099998,
    40.72586810700005
    ],
    [
    -73.97215383599996,
    40.72611958700003
    ],
    [
    -73.97209786299999,
    40.72639082000006
    ],
    [
    -73.97205155999995,
    40.726889250000056
    ],
    [
    -73.97329937599994,
    40.727436311000076
    ],
    [
    -73.97569791899997,
    40.72848335600003
    ],
    [
    -73.97580384599996,
    40.72852678300006
    ],
    [
    -73.97613430899997,
    40.728646576000074
    ],
    [
    -73.97615344899998,
    40.72865351300004
    ],
    [
    -73.97627137899997,
    40.728697562000036
    ],
    [
    -73.97690577199995,
    40.728966127000035
    ],
    [
    -73.97739527799996,
    40.72917335100004
    ],
    [
    -73.97802838799998,
    40.729441363000035
    ],
    [
    -73.97926990199994,
    40.729989732000035
    ],
    [
    -73.98034148499994,
    40.73045076400007
    ],
    [
    -73.98082141899994,
    40.730647463000025
    ],
    [
    -73.98150194499993,
    40.730926381000074
    ],
    [
    -73.98247017299997,
    40.73132318800003
    ]
    ]
    ]
    ]
    },
    "properties": {
    "OBJECTID": 3,
    "OBJECTID_1": 64,
    "Label": "Manhattan: East Village and Chinatown",
    "NRRType": "RMZ Zone",
    "Shape_Length": 0.1056210042898087,
    "Shape_Area": 0.000454324057825931
    }
    },
    {
    "type": "Feature",
    "id": 4,
    "geometry": {
    "type": "Polygon",
    "coordinates": [
    [
    [
    -73.93515799299996,
    40.83269073200006
    ],
    [
    -73.93516620999998,
    40.832861208000054
    ],
    [
    -73.93516865499998,
    40.83288331800003
    ],
    [
    -73.93514595299996,
    40.83289304700003
    ],
    [
    -73.93513310699996,
    40.832911023000065
    ],
    [
    -73.93512225699999,
    40.832912521000026
    ],
    [
    -73.93512516899995,
    40.83295373800007
    ],
    [
    -73.93511923199998,
    40.83297546400007
    ],
    [
    -73.93512119599995,
    40.83299195300003
    ],
    [
    -73.93511328099999,
    40.83301142600004
    ],
    [
    -73.93511721199997,
    40.83303016700006
    ],
    [
    -73.93512311999996,
    40.83303691500004
    ],
    [
    -73.93512606199994,
    40.83305939400003
    ],
    [
    -73.93512892499996,
    40.83315081300003
    ],
    [
    -73.93514075999997,
    40.833159816000034
    ],
    [
    -73.93513383699997,
    40.83317105000003
    ],
    [
    -73.93511706099997,
    40.83318453100003
    ],
    [
    -73.93512493099996,
    40.83319802400007
    ],
    [
    -73.93512295099998,
    40.833210017000056
    ],
    [
    -73.93513180499997,
    40.833236992000025
    ],
    [
    -73.93513869199995,
    40.83324973800006
    ],
    [
    -73.93513966999996,
    40.833268469000075
    ],
    [
    -73.93512583799998,
    40.83328944400006
    ],
    [
    -73.93513075599998,
    40.83330293400007
    ],
    [
    -73.93512776199998,
    40.83333440600006
    ],
    [
    -73.93513365999996,
    40.83335314800007
    ],
    [
    -73.93512181899996,
    40.83336212800003
    ],
    [
    -73.93511883199994,
    40.83338535900003
    ],
    [
    -73.93511385199997,
    40.83343406400007
    ],
    [
    -73.93510524399994,
    40.83366598200007
    ],
    [
    -73.93509830599999,
    40.83369295700004
    ],
    [
    -73.93509827599996,
    40.83372368200003
    ],
    [
    -73.93508481499998,
    40.833873922000066
    ],
    [
    -73.93507098299995,
    40.83389564300006
    ],
    [
    -73.93507784699995,
    40.833932368000035
    ],
    [
    -73.93504352699995,
    40.834219724000036
    ],
    [
    -73.93503264299994,
    40.83425718800004
    ],
    [
    -73.93503752599997,
    40.83430664600007
    ],
    [
    -73.93503200499998,
    40.83440069000005
    ],
    [
    -73.93500666799997,
    40.834542405000036
    ],
    [
    -73.93492472899999,
    40.83500069100006
    ],
    [
    -73.93445379499997,
    40.83598928600003
    ],
    [
    -73.93474709499998,
    40.83610042000004
    ],
    [
    -73.93480026499998,
    40.83611844200004
    ],
    [
    -73.93496414299995,
    40.835768260000066
    ],
    [
    -73.93530928199993,
    40.83548605000004
    ],
    [
    -73.93572764599998,
    40.835164672000076
    ],
    [
    -73.93660504899998,
    40.83452134100003
    ],
    [
    -73.93682121999996,
    40.83434964600008
    ],
    [
    -73.93731618799995,
    40.83395004100004
    ],
    [
    -73.93755309899996,
    40.833782410000026
    ],
    [
    -73.93797386499995,
    40.83345114200006
    ],
    [
    -73.93808322499996,
    40.833365815000036
    ],
    [
    -73.93818947899996,
    40.83327825400005
    ],
    [
    -73.93829254899998,
    40.833188524000036
    ],
    [
    -73.93839235999997,
    40.83309669300007
    ],
    [
    -73.93848883499999,
    40.833002828000076
    ],
    [
    -73.93858190399999,
    40.832907000000034
    ],
    [
    -73.93877500499997,
    40.83267153700007
    ],
    [
    -73.93895000099997,
    40.83242566100006
    ],
    [
    -73.93922996399994,
    40.831916127000056
    ],
    [
    -73.93929845399998,
    40.831783218000055
    ],
    [
    -73.93937335899994,
    40.831652322000025
    ],
    [
    -73.93945457499996,
    40.83152361500004
    ],
    [
    -73.93954199299998,
    40.83139727400004
    ],
    [
    -73.93963549299997,
    40.83127347000004
    ],
    [
    -73.93973494599999,
    40.831152374000055
    ],
    [
    -73.93978994099996,
    40.83108858300005
    ],
    [
    -73.93984068799995,
    40.831022793000045
    ],
    [
    -73.93988706199997,
    40.83095516600008
    ],
    [
    -73.93992894499996,
    40.83088587000003
    ],
    [
    -73.93996623899994,
    40.83081507600008
    ],
    [
    -73.93999884699997,
    40.830742961000055
    ],
    [
    -73.94006697199995,
    40.830511571000045
    ],
    [
    -73.94014271499998,
    40.83038031400008
    ],
    [
    -73.94034785299993,
    40.83046675600008
    ],
    [
    -73.94058309499997,
    40.83056588300008
    ],
    [
    -73.94077745099997,
    40.83064778100004
    ],
    [
    -73.94234907899994,
    40.83131001500004
    ],
    [
    -73.94298106699995,
    40.831576304000066
    ],
    [
    -73.94572074799999,
    40.83272975300008
    ],
    [
    -73.94582535599994,
    40.83277378500003
    ],
    [
    -73.94592514299995,
    40.83281406900005
    ],
    [
    -73.94592698599996,
    40.832814822000046
    ],
    [
    -73.94822737799996,
    40.83385763300004
    ],
    [
    -73.94890683799997,
    40.83407362400004
    ],
    [
    -73.94919589399996,
    40.83421898300003
    ],
    [
    -73.94941711199994,
    40.83436691500003
    ],
    [
    -73.94957572399994,
    40.834427686000026
    ],
    [
    -73.94970948499997,
    40.83445761400003
    ],
    [
    -73.94977756899993,
    40.83446429000003
    ],
    [
    -73.94985731099996,
    40.834467612000026
    ],
    [
    -73.95015661699995,
    40.834405084000025
    ],
    [
    -73.95024564599998,
    40.83427573900008
    ],
    [
    -73.95042446799994,
    40.834055412000055
    ],
    [
    -73.95066514299998,
    40.833644322000055
    ],
    [
    -73.95093716899999,
    40.833302322000065
    ],
    [
    -73.95096754099995,
    40.83322502800007
    ],
    [
    -73.95106090299998,
    40.83290598600007
    ],
    [
    -73.95109761599997,
    40.832813421000026
    ],
    [
    -73.95119489199999,
    40.83265545900008
    ],
    [
    -73.95131781799995,
    40.83245883600006
    ],
    [
    -73.95140454999995,
    40.832330454000044
    ],
    [
    -73.95159981099994,
    40.83205540500006
    ],
    [
    -73.95170043099995,
    40.83192432100003
    ],
    [
    -73.95215131099997,
    40.83128304200005
    ],
    [
    -73.95219455999995,
    40.83123382900004
    ],
    [
    -73.95253541899996,
    40.83074977600006
    ],
    [
    -73.95297760099999,
    40.830098527000075
    ],
    [
    -73.95359269299996,
    40.82910604500006
    ],
    [
    -73.95395547099997,
    40.82859368100003
    ],
    [
    -73.95398755699995,
    40.828551840000046
    ],
    [
    -73.95402247399994,
    40.828511304000074
    ],
    [
    -73.95403412499996,
    40.828498747000026
    ],
    [
    -73.95406252499998,
    40.82847045600005
    ],
    [
    -73.95413789899999,
    40.82840173300008
    ],
    [
    -73.95417091399997,
    40.82836919300007
    ],
    [
    -73.95421794399994,
    40.82831579400005
    ],
    [
    -73.95427361599997,
    40.82824486700008
    ],
    [
    -73.95436208699994,
    40.828126207000025
    ],
    [
    -73.95446610699997,
    40.827982493000036
    ],
    [
    -73.95454328799997,
    40.82786980000003
    ],
    [
    -73.95469877499994,
    40.82792670900005
    ],
    [
    -73.95504053799993,
    40.827421755000046
    ],
    [
    -73.95631925299995,
    40.82795253900008
    ],
    [
    -73.95695007199998,
    40.827008876000036
    ],
    [
    -73.95727434499997,
    40.827103383000065
    ],
    [
    -73.95953514999997,
    40.823661584000035
    ],
    [
    -73.95814453599996,
    40.823029045000055
    ],
    [
    -73.95821879699997,
    40.82291332200003
    ],
    [
    -73.95794045699995,
    40.82278267600003
    ],
    [
    -73.95807608799998,
    40.82261968000006
    ],
    [
    -73.95813204199999,
    40.82253941300007
    ],
    [
    -73.95816946199994,
    40.82246642300004
    ],
    [
    -73.95820160199997,
    40.82229145900004
    ],
    [
    -73.95852872399996,
    40.82185207800006
    ],
    [
    -73.95864996499995,
    40.82191972500004
    ],
    [
    -73.95888650599994,
    40.822465168000065
    ],
    [
    -73.95905094199998,
    40.82254965800007
    ],
    [
    -73.95892755599994,
    40.82272007800003
    ],
    [
    -73.95960473299994,
    40.82300300900005
    ],
    [
    -73.95991140399997,
    40.82257944100007
    ],
    [
    -73.95940881699994,
    40.82236945500006
    ],
    [
    -73.95923117099994,
    40.822295232000045
    ],
    [
    -73.95911444899997,
    40.82246328700006
    ],
    [
    -73.95898329999994,
    40.82240008300005
    ],
    [
    -73.95874664499996,
    40.82181383400007
    ],
    [
    -73.95893277999994,
    40.82159013300003
    ],
    [
    -73.95907889099993,
    40.82165985900008
    ],
    [
    -73.96036750099995,
    40.820128444000034
    ],
    [
    -73.96168417999996,
    40.81937063700008
    ],
    [
    -73.96152270499994,
    40.819214412000065
    ],
    [
    -73.96143838299997,
    40.81926171200007
    ],
    [
    -73.96124787699995,
    40.81905122300003
    ],
    [
    -73.96156874099995,
    40.81869013000005
    ],
    [
    -73.96188783299993,
    40.81882346200007
    ],
    [
    -73.96210306299997,
    40.819085811000036
    ],
    [
    -73.96239955799996,
    40.81924567000004
    ],
    [
    -73.96240278299996,
    40.81924729700006
    ],
    [
    -73.96240631699999,
    40.819248499000025
    ],
    [
    -73.96241006099996,
    40.81924924300006
    ],
    [
    -73.96241391699994,
    40.81924951000008
    ],
    [
    -73.96241777699998,
    40.81924929300004
    ],
    [
    -73.96242153799994,
    40.81924859600008
    ],
    [
    -73.96242509699994,
    40.81924743900004
    ],
    [
    -73.96242835699996,
    40.81924585400003
    ],
    [
    -73.96243122999994,
    40.81924388200008
    ],
    [
    -73.96243363799994,
    40.81924158000004
    ],
    [
    -73.96243344399994,
    40.81924158900006
    ],
    [
    -73.96243372599997,
    40.81924154200004
    ],
    [
    -73.96248151999998,
    40.819188231000055
    ],
    [
    -73.96248151699996,
    40.81918819900005
    ],
    [
    -73.96248294999998,
    40.81918590300006
    ],
    [
    -73.96248384299997,
    40.81918345300005
    ],
    [
    -73.96248416899994,
    40.81918092300003
    ],
    [
    -73.96248391799998,
    40.81917838800007
    ],
    [
    -73.96248309599997,
    40.819175924000035
    ],
    [
    -73.96248173099997,
    40.819173603000024
    ],
    [
    -73.96247986199995,
    40.81917149600008
    ],
    [
    -73.96247754199999,
    40.819169663000025
    ],
    [
    -73.96247484399998,
    40.81916816000006
    ],
    [
    -73.96213132799994,
    40.818961526000066
    ],
    [
    -73.96253835899995,
    40.81871452100006
    ],
    [
    -73.96245404099994,
    40.818632087000026
    ],
    [
    -73.96213868099994,
    40.81882660700006
    ],
    [
    -73.96164067199999,
    40.81860840100006
    ],
    [
    -73.96215734199995,
    40.818029875000036
    ],
    [
    -73.96211110699994,
    40.818010370000025
    ],
    [
    -73.96382159999996,
    40.81617705700006
    ],
    [
    -73.96907763299998,
    40.80847389100006
    ],
    [
    -73.97110906999995,
    40.80579845800003
    ],
    [
    -73.96706396599996,
    40.80431502400006
    ],
    [
    -73.96680968299995,
    40.804209015000026
    ],
    [
    -73.96670948399998,
    40.80416724200006
    ],
    [
    -73.96386267199995,
    40.802980356000035
    ],
    [
    -73.95964826199997,
    40.801164741000036
    ],
    [
    -73.95817437699998,
    40.80059085900007
    ],
    [
    -73.95786639999994,
    40.80052359000007
    ],
    [
    -73.95243439599994,
    40.798236090000046
    ],
    [
    -73.94924324399994,
    40.79691385500007
    ],
    [
    -73.95111242799999,
    40.79429335300006
    ],
    [
    -73.95477712199994,
    40.78915905000008
    ],
    [
    -73.95159496199994,
    40.787826024000026
    ],
    [
    -73.95036485799994,
    40.78734245700008
    ],
    [
    -73.94839190699997,
    40.78643499900005
    ],
    [
    -73.94928111699994,
    40.78521958500005
    ],
    [
    -73.94707558199997,
    40.784238351000056
    ],
    [
    -73.94465382899995,
    40.78316084200003
    ],
    [
    -73.94427157899997,
    40.782990760000075
    ],
    [
    -73.94358129299997,
    40.78283040600007
    ],
    [
    -73.94357114999997,
    40.78284951000006
    ],
    [
    -73.94351036699999,
    40.782982325000035
    ],
    [
    -73.94337532099996,
    40.78317586900005
    ],
    [
    -73.94333537499995,
    40.78323336500006
    ],
    [
    -73.94318845999999,
    40.783407355000065
    ],
    [
    -73.94311040699995,
    40.783470366000074
    ],
    [
    -73.94292772499995,
    40.78359170900006
    ],
    [
    -73.94254932499996,
    40.783843252000054
    ],
    [
    -73.94241177099997,
    40.783925483000075
    ],
    [
    -73.94238335599994,
    40.78394236300005
    ],
    [
    -73.94217844499997,
    40.78404632400003
    ],
    [
    -73.94207832999996,
    40.784100643000045
    ],
    [
    -73.94198840999996,
    40.784149281000055
    ],
    [
    -73.94160833799998,
    40.78433731100006
    ],
    [
    -73.94044138099997,
    40.78492429900007
    ],
    [
    -73.94019786099994,
    40.78505567000008
    ],
    [
    -73.93983333399996,
    40.78525239100003
    ],
    [
    -73.93978235699996,
    40.785298354000076
    ],
    [
    -73.93950741499998,
    40.78561123600008
    ],
    [
    -73.93940813499995,
    40.78573257800008
    ],
    [
    -73.93932740799994,
    40.785831356000074
    ],
    [
    -73.93913636899998,
    40.78605131000006
    ],
    [
    -73.93892059399997,
    40.786303187000044
    ],
    [
    -73.93855740399994,
    40.78672738200004
    ],
    [
    -73.93850091099995,
    40.786785044000055
    ],
    [
    -73.93842937499994,
    40.78685825100007
    ],
    [
    -73.93821844699994,
    40.78709859600008
    ],
    [
    -73.93810746699995,
    40.78722528600008
    ],
    [
    -73.93806624899997,
    40.78728416100006
    ],
    [
    -73.93795758099998,
    40.787466969000036
    ],
    [
    -73.93781862699996,
    40.78769678500004
    ],
    [
    -73.93775882699998,
    40.78782694800003
    ],
    [
    -73.93769256099995,
    40.787973743000066
    ],
    [
    -73.93763622899996,
    40.78810256100007
    ],
    [
    -73.93755129199997,
    40.78829206000006
    ],
    [
    -73.93740492399996,
    40.788617474000034
    ],
    [
    -73.93737473599998,
    40.78868640600007
    ],
    [
    -73.93730706299993,
    40.788841095000066
    ],
    [
    -73.93705721699996,
    40.78915795900008
    ],
    [
    -73.93622465899995,
    40.78880657600007
    ],
    [
    -73.93611946799996,
    40.78895055000004
    ],
    [
    -73.93694577299993,
    40.789299295000035
    ],
    [
    -73.93693578799997,
    40.78931196000008
    ],
    [
    -73.93704232799996,
    40.78936048700007
    ],
    [
    -73.93669442199996,
    40.789921366000044
    ],
    [
    -73.93632150799993,
    40.79043427400006
    ],
    [
    -73.93602531699997,
    40.79083744500008
    ],
    [
    -73.93583246699995,
    40.79110302200007
    ],
    [
    -73.93550469299998,
    40.79129948900004
    ],
    [
    -73.93519179199996,
    40.79147947700005
    ],
    [
    -73.93526771299997,
    40.79153503600003
    ],
    [
    -73.93511335899996,
    40.791647253000065
    ],
    [
    -73.93444012899994,
    40.79211139500006
    ],
    [
    -73.93416153599998,
    40.79230340600003
    ],
    [
    -73.93407137599996,
    40.792366611000034
    ],
    [
    -73.93388925099998,
    40.79249779400004
    ],
    [
    -73.93372930399994,
    40.79260979500003
    ],
    [
    -73.93348629499997,
    40.79278248800006
    ],
    [
    -73.93325999599995,
    40.79291519600008
    ],
    [
    -73.93310823099995,
    40.793003646000045
    ],
    [
    -73.93287852499998,
    40.793138568000074
    ],
    [
    -73.93267378999997,
    40.79325655000008
    ],
    [
    -73.93252526599997,
    40.79333260900006
    ],
    [
    -73.93235268699993,
    40.79342216300006
    ],
    [
    -73.93204583599999,
    40.793594315000064
    ],
    [
    -73.93198175299995,
    40.79363053000003
    ],
    [
    -73.93137214499995,
    40.79395860400007
    ],
    [
    -73.93090432699995,
    40.794210313000065
    ],
    [
    -73.93048363999998,
    40.79443477900003
    ],
    [
    -73.93024446599998,
    40.794562306000046
    ],
    [
    -73.93023243199997,
    40.79457116400005
    ],
    [
    -73.93019131499995,
    40.79460124900004
    ],
    [
    -73.93017851899998,
    40.79462202000008
    ],
    [
    -73.93008965799999,
    40.79471522800003
    ],
    [
    -73.92991701299997,
    40.79494280800003
    ],
    [
    -73.92984004599998,
    40.79499997400006
    ],
    [
    -73.92974734499995,
    40.79521706600008
    ],
    [
    -73.92953197799994,
    40.795516116000044
    ],
    [
    -73.92930913099997,
    40.795818575000055
    ],
    [
    -73.92928832899997,
    40.79588580500007
    ],
    [
    -73.92928413499999,
    40.795899657000064
    ],
    [
    -73.92912746799993,
    40.79643526900003
    ],
    [
    -73.92902462099994,
    40.79682023600003
    ],
    [
    -73.92903563899995,
    40.79682051300006
    ],
    [
    -73.92897260799998,
    40.79826717900005
    ],
    [
    -73.92894536699998,
    40.79891990700003
    ],
    [
    -73.92892082299994,
    40.799466505000055
    ],
    [
    -73.92890292099997,
    40.79986353400005
    ],
    [
    -73.92895488399995,
    40.800317687000074
    ],
    [
    -73.92898758499996,
    40.80061044200005
    ],
    [
    -73.92900927899996,
    40.80078066800007
    ],
    [
    -73.92901784499998,
    40.800839034000035
    ],
    [
    -73.92903629999995,
    40.801089223000076
    ],
    [
    -73.92920957399997,
    40.801155840000035
    ],
    [
    -73.92927627499995,
    40.801381510000056
    ],
    [
    -73.92930360099996,
    40.80150412000006
    ],
    [
    -73.92933266699998,
    40.801607173000036
    ],
    [
    -73.92935575799999,
    40.80167957000003
    ],
    [
    -73.92943793899997,
    40.80187003100008
    ],
    [
    -73.92945506099994,
    40.801915688000065
    ],
    [
    -73.92952183699998,
    40.80206179900006
    ],
    [
    -73.92957833599996,
    40.80218834400006
    ],
    [
    -73.92969390999997,
    40.80244860500005
    ],
    [
    -73.92972049699995,
    40.80251084900004
    ],
    [
    -73.92978807899993,
    40.80266906800006
    ],
    [
    -73.92982399999994,
    40.80272833500004
    ],
    [
    -73.92999901399997,
    40.803260701000056
    ],
    [
    -73.93001401199996,
    40.80329581800004
    ],
    [
    -73.93006160499993,
    40.80336996800003
    ],
    [
    -73.93018469299994,
    40.803582267000024
    ],
    [
    -73.93019315299995,
    40.80359148500003
    ],
    [
    -73.93026311199998,
    40.80371411400006
    ],
    [
    -73.93028000399994,
    40.803742699000054
    ],
    [
    -73.93031016299994,
    40.80379433500008
    ],
    [
    -73.93033431899994,
    40.80382753300006
    ],
    [
    -73.93035484899997,
    40.80385612500004
    ],
    [
    -73.93040676799995,
    40.80392898500003
    ],
    [
    -73.93044420099994,
    40.80398246900006
    ],
    [
    -73.93054383099997,
    40.80411573900005
    ],
    [
    -73.93057403599994,
    40.80415171100003
    ],
    [
    -73.93057401099998,
    40.80416092400003
    ],
    [
    -73.93061143999995,
    40.80421533500004
    ],
    [
    -73.93063319399994,
    40.80423839900004
    ],
    [
    -73.93064042699996,
    40.80425407300004
    ],
    [
    -73.93068873199996,
    40.80431863200005
    ],
    [
    -73.93069717299994,
    40.80433430800008
    ],
    [
    -73.93071168599994,
    40.804349064000064
    ],
    [
    -73.93071770099994,
    40.80436381700008
    ],
    [
    -73.93080767899994,
    40.80448232800006
    ],
    [
    -73.93082941099993,
    40.804518286000075
    ],
    [
    -73.93091076399998,
    40.80462771300006
    ],
    [
    -73.93093568999996,
    40.80466123900004
    ],
    [
    -73.93095982999995,
    40.80469536500004
    ],
    [
    -73.93097675199994,
    40.80471381900003
    ],
    [
    -73.93097794399995,
    40.804723952000074
    ],
    [
    -73.93102927599995,
    40.80479081400006
    ],
    [
    -73.93103529999996,
    40.80480280200004
    ],
    [
    -73.93107515299994,
    40.80485537100003
    ],
    [
    -73.93109930699995,
    40.80488949800008
    ],
    [
    -73.93111548799999,
    40.80491267100007
    ],
    [
    -73.93112828599999,
    40.80493099700004
    ],
    [
    -73.93116089899996,
    40.80497526000005
    ],
    [
    -73.93127087099998,
    40.80509887300008
    ],
    [
    -73.93130651399997,
    40.80513992700003
    ],
    [
    -73.93139229999997,
    40.80524138900006
    ],
    [
    -73.93141044099997,
    40.80525523400007
    ],
    [
    -73.93143338499993,
    40.80529027800003
    ],
    [
    -73.93145031299997,
    40.80530596500006
    ],
    [
    -73.93146847099996,
    40.80531429000007
    ],
    [
    -73.93147689399996,
    40.80533641300008
    ],
    [
    -73.93149744099998,
    40.80535947300007
    ],
    [
    -73.93154557299994,
    40.80540610300005
    ],
    [
    -73.93239156999994,
    40.80630746200006
    ],
    [
    -73.93263228199999,
    40.80656125400003
    ],
    [
    -73.93293428299995,
    40.80687934200006
    ],
    [
    -73.93308611699996,
    40.80703523500006
    ],
    [
    -73.93317553499998,
    40.80715371100007
    ],
    [
    -73.93318535599997,
    40.807164518000036
    ],
    [
    -73.93326049499996,
    40.80724556500007
    ],
    [
    -73.93332992299997,
    40.80732726600007
    ],
    [
    -73.93356259199999,
    40.807608997000045
    ],
    [
    -73.93412213499994,
    40.80866477200004
    ],
    [
    -73.93413672599996,
    40.80874471100003
    ],
    [
    -73.93419779099997,
    40.80904017200004
    ],
    [
    -73.93421531099995,
    40.80906749400003
    ],
    [
    -73.93434004599999,
    40.809570534000045
    ],
    [
    -73.93434220999995,
    40.80993590300005
    ],
    [
    -73.93431580499998,
    40.81033058500003
    ],
    [
    -73.93430557399995,
    40.81048998600005
    ],
    [
    -73.93428992199995,
    40.81073403600004
    ],
    [
    -73.93421549699997,
    40.811279770000056
    ],
    [
    -73.93419698699995,
    40.811401499000056
    ],
    [
    -73.93413851499997,
    40.81172069200005
    ],
    [
    -73.93409446699997,
    40.81197672300004
    ],
    [
    -73.93403983899998,
    40.812349201000075
    ],
    [
    -73.93400910299994,
    40.81261681900003
    ],
    [
    -73.93398318999994,
    40.81282295600005
    ],
    [
    -73.93393124699998,
    40.81335601100005
    ],
    [
    -73.93386650299993,
    40.81416147900006
    ],
    [
    -73.93386531499993,
    40.81420105800004
    ],
    [
    -73.93386370999997,
    40.814257618000056
    ],
    [
    -73.93385792599997,
    40.81448979600003
    ],
    [
    -73.93401616699998,
    40.81449207400004
    ],
    [
    -73.93399261999997,
    40.81453670800005
    ],
    [
    -73.93396760899998,
    40.81457353300004
    ],
    [
    -73.93397785099995,
    40.814609252000025
    ],
    [
    -73.93398663999994,
    40.81463828100004
    ],
    [
    -73.93398364799998,
    40.81469074200004
    ],
    [
    -73.93398215599996,
    40.814713064000046
    ],
    [
    -73.93399683899997,
    40.81472758000007
    ],
    [
    -73.93399094199998,
    40.81474654900006
    ],
    [
    -73.93397916499998,
    40.814766632000044
    ],
    [
    -73.93399237599994,
    40.81478339000006
    ],
    [
    -73.93397472699996,
    40.81479565400008
    ],
    [
    -73.93398350599995,
    40.814833615000055
    ],
    [
    -73.93397613599996,
    40.81485704900007
    ],
    [
    -73.93398492699998,
    40.814882719000025
    ],
    [
    -73.93398343699994,
    40.81490393400003
    ],
    [
    -73.93399076999998,
    40.81492067900007
    ],
    [
    -73.93398705899995,
    40.81495583200007
    ],
    [
    -73.93397081399996,
    40.815047349000054
    ],
    [
    -73.93396490499998,
    40.815077486000064
    ],
    [
    -73.93396928299995,
    40.81510874400004
    ],
    [
    -73.93396484499993,
    40.81513776400004
    ],
    [
    -73.93394865399995,
    40.81516342000003
    ],
    [
    -73.93395010299997,
    40.81518352000006
    ],
    [
    -73.93394566399996,
    40.815213647000064
    ],
    [
    -73.93395592099995,
    40.815243793000036
    ],
    [
    -73.93395442099995,
    40.815275049000036
    ],
    [
    -73.93394998499997,
    40.81530294300006
    ],
    [
    -73.93394993199996,
    40.81535652400004
    ],
    [
    -73.93395799099994,
    40.81538052600007
    ],
    [
    -73.93394768399997,
    40.815398376000076
    ],
    [
    -73.93395061299998,
    40.81540954500008
    ],
    [
    -73.93394032299994,
    40.81542404600003
    ],
    [
    -73.93394763199996,
    40.81545083900005
    ],
    [
    -73.93393585799998,
    40.815479856000024
    ],
    [
    -73.93395493799994,
    40.815494374000025
    ],
    [
    -73.93395345699997,
    40.81550554000006
    ],
    [
    -73.93394314999995,
    40.81552450600003
    ],
    [
    -73.93394313499994,
    40.815540130000045
    ],
    [
    -73.93395058899995,
    40.81554958600003
    ],
    [
    -73.93395057099997,
    40.815567688000044
    ],
    [
    -73.93394476499998,
    40.81559589300008
    ],
    [
    -73.93383040899994,
    40.81559368200004
    ],
    [
    -73.93379137399995,
    40.81715969500004
    ],
    [
    -73.93379474699998,
    40.81778493000007
    ],
    [
    -73.93380159599997,
    40.81835808100004
    ],
    [
    -73.93382754199996,
    40.81936475200007
    ],
    [
    -73.93382917399998,
    40.81942381700003
    ],
    [
    -73.93383140699996,
    40.81949941800008
    ],
    [
    -73.93383216899997,
    40.819604980000065
    ],
    [
    -73.93383149199997,
    40.81972806600004
    ],
    [
    -73.93397381599993,
    40.81973789700004
    ],
    [
    -73.93398804599997,
    40.81997635700003
    ],
    [
    -73.93398435799998,
    40.82000824200003
    ],
    [
    -73.93400209199996,
    40.820346519000054
    ],
    [
    -73.93400529599995,
    40.82040616300003
    ],
    [
    -73.93402802399999,
    40.82082513200004
    ],
    [
    -73.93403700499994,
    40.82096087000008
    ],
    [
    -73.93404739799996,
    40.821142199000064
    ],
    [
    -73.93404587499998,
    40.82118502700007
    ],
    [
    -73.93407145599997,
    40.82156764300004
    ],
    [
    -73.93407874099995,
    40.821702885000036
    ],
    [
    -73.93407574399998,
    40.82172542200004
    ],
    [
    -73.93408084799995,
    40.82181389800007
    ],
    [
    -73.93409252599997,
    40.82200436100004
    ],
    [
    -73.93409983899994,
    40.82211255000004
    ],
    [
    -73.93410373399996,
    40.822209540000074
    ],
    [
    -73.93411892699999,
    40.82253265600008
    ],
    [
    -73.93412266299998,
    40.822655576000045
    ],
    [
    -73.93413513599995,
    40.82280897900006
    ],
    [
    -73.93414744499995,
    40.823028942000064
    ],
    [
    -73.93414797699995,
    40.823037355000054
    ],
    [
    -73.93416734599998,
    40.823086904000036
    ],
    [
    -73.93421974899996,
    40.823807369000065
    ],
    [
    -73.93424782899996,
    40.82417520700005
    ],
    [
    -73.93427425499993,
    40.82444727600006
    ],
    [
    -73.93429511799997,
    40.82450471100003
    ],
    [
    -73.93429670799998,
    40.824657554000055
    ],
    [
    -73.93435783499996,
    40.82582926100008
    ],
    [
    -73.93436858099994,
    40.82583592200007
    ],
    [
    -73.93448431099995,
    40.82704541700008
    ],
    [
    -73.93442536499998,
    40.827051218000065
    ],
    [
    -73.93451730699996,
    40.827737255000045
    ],
    [
    -73.93454038199997,
    40.82791179600008
    ],
    [
    -73.93452315699994,
    40.82791612400007
    ],
    [
    -73.93453398999998,
    40.82797688200003
    ],
    [
    -73.93454726399995,
    40.82805648600004
    ],
    [
    -73.93455950299995,
    40.82812572600005
    ],
    [
    -73.93456215399993,
    40.828142813000056
    ],
    [
    -73.93460400399994,
    40.82869072500006
    ],
    [
    -73.93461780399997,
    40.82870198000006
    ],
    [
    -73.93463781899999,
    40.82891518500003
    ],
    [
    -73.93465655599994,
    40.828921183000034
    ],
    [
    -73.93465751099995,
    40.82895116100008
    ],
    [
    -73.93466636099998,
    40.82898189100007
    ],
    [
    -73.93466435399995,
    40.82902235800003
    ],
    [
    -73.93466393799997,
    40.82903242000003
    ],
    [
    -73.93466974199998,
    40.829247751000025
    ],
    [
    -73.93467737199995,
    40.829321727000035
    ],
    [
    -73.93469461799998,
    40.82933709800005
    ],
    [
    -73.93470645099995,
    40.82934909900007
    ],
    [
    -73.93471428599997,
    40.82940905100003
    ],
    [
    -73.93469552799996,
    40.82942478000007
    ],
    [
    -73.93470240399995,
    40.829448755000044
    ],
    [
    -73.93471616199997,
    40.82950346900003
    ],
    [
    -73.93472697899995,
    40.82953569400007
    ],
    [
    -73.93472400299999,
    40.82955892500007
    ],
    [
    -73.93473877399998,
    40.82958291400007
    ],
    [
    -73.93475059599996,
    40.82960540500005
    ],
    [
    -73.93474070999997,
    40.82961738600005
    ],
    [
    -73.93474512699999,
    40.829645492000054
    ],
    [
    -73.93476483399996,
    40.829665728000066
    ],
    [
    -73.93476084399998,
    40.82970844600004
    ],
    [
    -73.93478251199997,
    40.829748918000064
    ],
    [
    -73.93479433999994,
    40.82976466500003
    ],
    [
    -73.93479136399998,
    40.82977664800006
    ],
    [
    -73.93480220799995,
    40.82978115800006
    ],
    [
    -73.93480021999994,
    40.82980063400004
    ],
    [
    -73.93483227299998,
    40.829816762000064
    ],
    [
    -73.93489493399994,
    40.830294888000026
    ],
    [
    -73.93493655799995,
    40.83061076900003
    ],
    [
    -73.93498645799997,
    40.831035678000035
    ],
    [
    -73.93502415599994,
    40.831328324000026
    ],
    [
    -73.93506965099994,
    40.83171239300003
    ],
    [
    -73.93508923899998,
    40.83186752300003
    ],
    [
    -73.93509705299994,
    40.83195070600004
    ],
    [
    -73.93507929399993,
    40.831949949000034
    ],
    [
    -73.93511538499996,
    40.832374102000074
    ],
    [
    -73.93513018299996,
    40.832371859000034
    ],
    [
    -73.93515799299996,
    40.83269073200006
    ]
    ],
    [
    [
    -73.95889096899998,
    40.82157018000004
    ],
    [
    -73.95879403399994,
    40.82155623300008
    ],
    [
    -73.95881407699994,
    40.82153348600008
    ],
    [
    -73.95889096899998,
    40.82157018000004
    ]
    ]
    ]
    },
    "properties": {
    "OBJECTID": 4,
    "OBJECTID_1": 89,
    "Label": "Manhattan: Harlem",
    "NRRType": "RMZ Zone",
    "Shape_Length": 0.17905648211666747,
    "Shape_Area": 0.0012161579583667257
    }
    }
    ]
    }